<?xml version="1.0" encoding="UTF-8"?>
<gpx creator="Wikiloc - https://www.wikiloc.com" version="1.1" xmlns="http://www.topografix.com/GPX/1/1" xmlns:xsi="http://www.w3.org/2001/XMLSchema-instance" xsi:schemaLocation="http://www.topografix.com/GPX/1/1 http://www.topografix.com/GPX/1/1/gpx.xsd">
  <metadata>
    <name>Wikiloc - رفت و برگشت جبهه جنوبی،قله دماوند،از بارگاه سوم</name>
    <link href="https://www.wikiloc.com/mountaineering-trails/rft-w-brgsht-jbhh-jnwby-qlh-dmwnd-z-brgh-swm-51636457">
      <text>رفت و برگشت جبهه جنوبی،قله دماوند،از بارگاه سوم - Wikiloc on Wikiloc</text>
    </link>
    <time>2020-06-25T11:45:28Z</time>
  </metadata>
  <trk>
    <name>رفت و برگشت جبهه جنوبی،قله دماوند،از بارگاه سوم - Wikiloc</name>
    <cmt></cmt>
    <desc></desc>
    <trkseg>
      <trkpt lat="35.931384" lon="52.108921">
        <ele>4258.825</ele>
        <time>2020-06-25T05:08:17Z</time>
      </trkpt>
      <trkpt lat="35.931315" lon="52.108975">
        <ele>4258.826</ele>
        <time>2020-06-25T05:09:51Z</time>
      </trkpt>
      <trkpt lat="35.931368" lon="52.109132">
        <ele>4258.808</ele>
        <time>2020-06-25T05:10:17Z</time>
      </trkpt>
      <trkpt lat="35.931514" lon="52.109278">
        <ele>4258.808</ele>
        <time>2020-06-25T05:10:40Z</time>
      </trkpt>
      <trkpt lat="35.931626" lon="52.109559">
        <ele>4260.917</ele>
        <time>2020-06-25T05:11:31Z</time>
      </trkpt>
      <trkpt lat="35.931698" lon="52.109488">
        <ele>4263.443</ele>
        <time>2020-06-25T05:11:50Z</time>
      </trkpt>
      <trkpt lat="35.931998" lon="52.109449">
        <ele>4276.068</ele>
        <time>2020-06-25T05:13:12Z</time>
      </trkpt>
      <trkpt lat="35.932076" lon="52.109274">
        <ele>4284.435</ele>
        <time>2020-06-25T05:14:16Z</time>
      </trkpt>
      <trkpt lat="35.932239" lon="52.109267">
        <ele>4287.588</ele>
        <time>2020-06-25T05:14:46Z</time>
      </trkpt>
      <trkpt lat="35.932312" lon="52.109341">
        <ele>4291.646</ele>
        <time>2020-06-25T05:15:12Z</time>
      </trkpt>
      <trkpt lat="35.932379" lon="52.109281">
        <ele>4293.427</ele>
        <time>2020-06-25T05:15:36Z</time>
      </trkpt>
      <trkpt lat="35.932538" lon="52.109383">
        <ele>4301.589</ele>
        <time>2020-06-25T05:16:35Z</time>
      </trkpt>
      <trkpt lat="35.932631" lon="52.109287">
        <ele>4304.132</ele>
        <time>2020-06-25T05:17:04Z</time>
      </trkpt>
      <trkpt lat="35.932693" lon="52.109372">
        <ele>4312.492</ele>
        <time>2020-06-25T05:17:16Z</time>
      </trkpt>
      <trkpt lat="35.932735" lon="52.109280">
        <ele>4307.011</ele>
        <time>2020-06-25T05:17:34Z</time>
      </trkpt>
      <trkpt lat="35.932866" lon="52.109343">
        <ele>4315.008</ele>
        <time>2020-06-25T05:18:29Z</time>
      </trkpt>
      <trkpt lat="35.932914" lon="52.109473">
        <ele>4315.628</ele>
        <time>2020-06-25T05:18:48Z</time>
      </trkpt>
      <trkpt lat="35.933226" lon="52.109404">
        <ele>4330.344</ele>
        <time>2020-06-25T05:20:42Z</time>
      </trkpt>
      <trkpt lat="35.933537" lon="52.109646">
        <ele>4342.239</ele>
        <time>2020-06-25T05:22:46Z</time>
      </trkpt>
      <trkpt lat="35.933992" lon="52.109455">
        <ele>4356.496</ele>
        <time>2020-06-25T05:24:50Z</time>
      </trkpt>
      <trkpt lat="35.934159" lon="52.109604">
        <ele>4363.579</ele>
        <time>2020-06-25T05:26:01Z</time>
      </trkpt>
      <trkpt lat="35.934360" lon="52.109460">
        <ele>4367.517</ele>
        <time>2020-06-25T05:26:48Z</time>
      </trkpt>
      <trkpt lat="35.934500" lon="52.109482">
        <ele>4373.018</ele>
        <time>2020-06-25T05:27:26Z</time>
      </trkpt>
      <trkpt lat="35.934744" lon="52.109340">
        <ele>4382.180</ele>
        <time>2020-06-25T05:28:29Z</time>
      </trkpt>
      <trkpt lat="35.934880" lon="52.109495">
        <ele>4388.567</ele>
        <time>2020-06-25T05:30:03Z</time>
      </trkpt>
      <trkpt lat="35.935053" lon="52.109484">
        <ele>4397.681</ele>
        <time>2020-06-25T05:31:34Z</time>
      </trkpt>
      <trkpt lat="35.935215" lon="52.109626">
        <ele>4401.319</ele>
        <time>2020-06-25T05:32:27Z</time>
      </trkpt>
      <trkpt lat="35.935463" lon="52.109615">
        <ele>4412.808</ele>
        <time>2020-06-25T05:35:10Z</time>
      </trkpt>
      <trkpt lat="35.935525" lon="52.109502">
        <ele>4418.761</ele>
        <time>2020-06-25T05:38:19Z</time>
      </trkpt>
      <trkpt lat="35.935581" lon="52.109723">
        <ele>4423.037</ele>
        <time>2020-06-25T05:38:51Z</time>
      </trkpt>
      <trkpt lat="35.935755" lon="52.109657">
        <ele>4430.252</ele>
        <time>2020-06-25T05:39:37Z</time>
      </trkpt>
      <trkpt lat="35.936134" lon="52.109700">
        <ele>4447.449</ele>
        <time>2020-06-25T05:42:17Z</time>
      </trkpt>
      <trkpt lat="35.936206" lon="52.109631">
        <ele>4449.752</ele>
        <time>2020-06-25T05:42:47Z</time>
      </trkpt>
      <trkpt lat="35.936338" lon="52.109645">
        <ele>4458.490</ele>
        <time>2020-06-25T05:43:51Z</time>
      </trkpt>
      <trkpt lat="35.936417" lon="52.109851">
        <ele>4467.511</ele>
        <time>2020-06-25T05:45:28Z</time>
      </trkpt>
      <trkpt lat="35.936577" lon="52.109885">
        <ele>4477.293</ele>
        <time>2020-06-25T05:46:34Z</time>
      </trkpt>
      <trkpt lat="35.936628" lon="52.109810">
        <ele>4480.315</ele>
        <time>2020-06-25T05:47:16Z</time>
      </trkpt>
      <trkpt lat="35.936771" lon="52.109919">
        <ele>4487.265</ele>
        <time>2020-06-25T05:48:23Z</time>
      </trkpt>
      <trkpt lat="35.936789" lon="52.110025">
        <ele>4492.311</ele>
        <time>2020-06-25T05:48:56Z</time>
      </trkpt>
      <trkpt lat="35.936922" lon="52.110010">
        <ele>4501.908</ele>
        <time>2020-06-25T05:50:44Z</time>
      </trkpt>
      <trkpt lat="35.937160" lon="52.110185">
        <ele>4518.336</ele>
        <time>2020-06-25T05:54:01Z</time>
      </trkpt>
      <trkpt lat="35.937288" lon="52.110117">
        <ele>4521.792</ele>
        <time>2020-06-25T05:55:06Z</time>
      </trkpt>
      <trkpt lat="35.937286" lon="52.110174">
        <ele>4524.237</ele>
        <time>2020-06-25T05:55:17Z</time>
      </trkpt>
      <trkpt lat="35.937543" lon="52.110125">
        <ele>4532.814</ele>
        <time>2020-06-25T05:56:37Z</time>
      </trkpt>
      <trkpt lat="35.937604" lon="52.110037">
        <ele>4535.917</ele>
        <time>2020-06-25T05:57:00Z</time>
      </trkpt>
      <trkpt lat="35.937667" lon="52.110119">
        <ele>4540.335</ele>
        <time>2020-06-25T05:57:33Z</time>
      </trkpt>
      <trkpt lat="35.937831" lon="52.109937">
        <ele>4550.316</ele>
        <time>2020-06-25T05:59:16Z</time>
      </trkpt>
      <trkpt lat="35.937917" lon="52.110053">
        <ele>4555.698</ele>
        <time>2020-06-25T05:59:43Z</time>
      </trkpt>
      <trkpt lat="35.938185" lon="52.109878">
        <ele>4573.268</ele>
        <time>2020-06-25T06:02:04Z</time>
      </trkpt>
      <trkpt lat="35.938509" lon="52.109832">
        <ele>4591.142</ele>
        <time>2020-06-25T06:05:52Z</time>
      </trkpt>
      <trkpt lat="35.938763" lon="52.109653">
        <ele>4603.326</ele>
        <time>2020-06-25T06:07:51Z</time>
      </trkpt>
      <trkpt lat="35.938773" lon="52.109725">
        <ele>4606.908</ele>
        <time>2020-06-25T06:08:53Z</time>
      </trkpt>
      <trkpt lat="35.938897" lon="52.109664">
        <ele>4611.471</ele>
        <time>2020-06-25T06:09:33Z</time>
      </trkpt>
      <trkpt lat="35.938964" lon="52.109738">
        <ele>4612.197</ele>
        <time>2020-06-25T06:09:59Z</time>
      </trkpt>
      <trkpt lat="35.939125" lon="52.109641">
        <ele>4621.722</ele>
        <time>2020-06-25T06:11:47Z</time>
      </trkpt>
      <trkpt lat="35.939080" lon="52.109641">
        <ele>4623.339</ele>
        <time>2020-06-25T06:11:59Z</time>
      </trkpt>
      <trkpt lat="35.939133" lon="52.109733">
        <ele>4624.442</ele>
        <time>2020-06-25T06:13:00Z</time>
      </trkpt>
      <trkpt lat="35.939363" lon="52.109653">
        <ele>4638.540</ele>
        <time>2020-06-25T06:14:46Z</time>
      </trkpt>
      <trkpt lat="35.939460" lon="52.109531">
        <ele>4644.311</ele>
        <time>2020-06-25T06:15:41Z</time>
      </trkpt>
      <trkpt lat="35.939651" lon="52.109666">
        <ele>4651.283</ele>
        <time>2020-06-25T06:16:53Z</time>
      </trkpt>
      <trkpt lat="35.939778" lon="52.109415">
        <ele>4664.995</ele>
        <time>2020-06-25T06:19:08Z</time>
      </trkpt>
      <trkpt lat="35.939772" lon="52.109484">
        <ele>4664.549</ele>
        <time>2020-06-25T06:19:20Z</time>
      </trkpt>
      <trkpt lat="35.939949" lon="52.109549">
        <ele>4672.923</ele>
        <time>2020-06-25T06:20:56Z</time>
      </trkpt>
      <trkpt lat="35.940019" lon="52.109421">
        <ele>4681.408</ele>
        <time>2020-06-25T06:21:42Z</time>
      </trkpt>
      <trkpt lat="35.940107" lon="52.109460">
        <ele>4686.244</ele>
        <time>2020-06-25T06:22:35Z</time>
      </trkpt>
      <trkpt lat="35.940153" lon="52.109364">
        <ele>4690.410</ele>
        <time>2020-06-25T06:22:54Z</time>
      </trkpt>
      <trkpt lat="35.940282" lon="52.109338">
        <ele>4700.225</ele>
        <time>2020-06-25T06:24:29Z</time>
      </trkpt>
      <trkpt lat="35.940385" lon="52.109421">
        <ele>4707.232</ele>
        <time>2020-06-25T06:26:19Z</time>
      </trkpt>
      <trkpt lat="35.940689" lon="52.109349">
        <ele>4721.295</ele>
        <time>2020-06-25T06:27:40Z</time>
      </trkpt>
      <trkpt lat="35.940706" lon="52.109201">
        <ele>4729.383</ele>
        <time>2020-06-25T06:28:17Z</time>
      </trkpt>
      <trkpt lat="35.940937" lon="52.109226">
        <ele>4736.484</ele>
        <time>2020-06-25T06:29:03Z</time>
      </trkpt>
      <trkpt lat="35.941193" lon="52.109006">
        <ele>4749.536</ele>
        <time>2020-06-25T06:30:15Z</time>
      </trkpt>
      <trkpt lat="35.941323" lon="52.108781">
        <ele>4760.167</ele>
        <time>2020-06-25T06:31:15Z</time>
      </trkpt>
      <trkpt lat="35.941456" lon="52.108842">
        <ele>4764.981</ele>
        <time>2020-06-25T06:31:41Z</time>
      </trkpt>
      <trkpt lat="35.941592" lon="52.108738">
        <ele>4777.919</ele>
        <time>2020-06-25T06:32:44Z</time>
      </trkpt>
      <trkpt lat="35.941981" lon="52.109035">
        <ele>4803.508</ele>
        <time>2020-06-25T06:36:21Z</time>
      </trkpt>
      <trkpt lat="35.942158" lon="52.108901">
        <ele>4815.961</ele>
        <time>2020-06-25T06:38:10Z</time>
      </trkpt>
      <trkpt lat="35.942216" lon="52.108913">
        <ele>4819.857</ele>
        <time>2020-06-25T06:39:44Z</time>
      </trkpt>
      <trkpt lat="35.942219" lon="52.109053">
        <ele>4821.212</ele>
        <time>2020-06-25T06:40:31Z</time>
      </trkpt>
      <trkpt lat="35.942503" lon="52.108993">
        <ele>4839.559</ele>
        <time>2020-06-25T06:42:59Z</time>
      </trkpt>
      <trkpt lat="35.942709" lon="52.109102">
        <ele>4855.352</ele>
        <time>2020-06-25T06:45:27Z</time>
      </trkpt>
      <trkpt lat="35.942832" lon="52.109035">
        <ele>4864.190</ele>
        <time>2020-06-25T06:53:15Z</time>
      </trkpt>
      <trkpt lat="35.943283" lon="52.109211">
        <ele>4893.361</ele>
        <time>2020-06-25T06:57:50Z</time>
      </trkpt>
      <trkpt lat="35.943436" lon="52.109203">
        <ele>4902.813</ele>
        <time>2020-06-25T06:59:32Z</time>
      </trkpt>
      <trkpt lat="35.943454" lon="52.109118">
        <ele>4908.679</ele>
        <time>2020-06-25T07:00:11Z</time>
      </trkpt>
      <trkpt lat="35.943538" lon="52.109154">
        <ele>4910.605</ele>
        <time>2020-06-25T07:01:09Z</time>
      </trkpt>
      <trkpt lat="35.943601" lon="52.109096">
        <ele>4917.825</ele>
        <time>2020-06-25T07:02:02Z</time>
      </trkpt>
      <trkpt lat="35.943729" lon="52.109215">
        <ele>4923.908</ele>
        <time>2020-06-25T07:05:33Z</time>
      </trkpt>
      <trkpt lat="35.943995" lon="52.109211">
        <ele>4935.172</ele>
        <time>2020-06-25T07:07:55Z</time>
      </trkpt>
      <trkpt lat="35.944300" lon="52.109615">
        <ele>4958.698</ele>
        <time>2020-06-25T07:12:03Z</time>
      </trkpt>
      <trkpt lat="35.944380" lon="52.109429">
        <ele>4972.533</ele>
        <time>2020-06-25T07:15:50Z</time>
      </trkpt>
      <trkpt lat="35.944640" lon="52.109412">
        <ele>4980.120</ele>
        <time>2020-06-25T07:17:37Z</time>
      </trkpt>
      <trkpt lat="35.944788" lon="52.109287">
        <ele>4994.683</ele>
        <time>2020-06-25T07:20:00Z</time>
      </trkpt>
      <trkpt lat="35.945043" lon="52.108882">
        <ele>5008.881</ele>
        <time>2020-06-25T07:22:55Z</time>
      </trkpt>
      <trkpt lat="35.945130" lon="52.108843">
        <ele>5010.762</ele>
        <time>2020-06-25T07:24:45Z</time>
      </trkpt>
      <trkpt lat="35.945439" lon="52.108923">
        <ele>5033.084</ele>
        <time>2020-06-25T07:28:08Z</time>
      </trkpt>
      <trkpt lat="35.945519" lon="52.108888">
        <ele>5038.637</ele>
        <time>2020-06-25T07:29:22Z</time>
      </trkpt>
      <trkpt lat="35.945513" lon="52.108796">
        <ele>5043.049</ele>
        <time>2020-06-25T07:30:37Z</time>
      </trkpt>
      <trkpt lat="35.945558" lon="52.108878">
        <ele>5048.513</ele>
        <time>2020-06-25T07:31:09Z</time>
      </trkpt>
      <trkpt lat="35.945810" lon="52.108967">
        <ele>5058.208</ele>
        <time>2020-06-25T07:33:27Z</time>
      </trkpt>
      <trkpt lat="35.945888" lon="52.109116">
        <ele>5062.118</ele>
        <time>2020-06-25T07:35:28Z</time>
      </trkpt>
      <trkpt lat="35.945908" lon="52.108998">
        <ele>5063.844</ele>
        <time>2020-06-25T07:36:12Z</time>
      </trkpt>
      <trkpt lat="35.945921" lon="52.109123">
        <ele>5071.469</ele>
        <time>2020-06-25T07:40:43Z</time>
      </trkpt>
      <trkpt lat="35.946149" lon="52.109097">
        <ele>5076.586</ele>
        <time>2020-06-25T07:41:49Z</time>
      </trkpt>
      <trkpt lat="35.946339" lon="52.109281">
        <ele>5094.319</ele>
        <time>2020-06-25T07:44:58Z</time>
      </trkpt>
      <trkpt lat="35.946496" lon="52.109224">
        <ele>5108.337</ele>
        <time>2020-06-25T07:46:47Z</time>
      </trkpt>
      <trkpt lat="35.946801" lon="52.109339">
        <ele>5122.318</ele>
        <time>2020-06-25T07:49:57Z</time>
      </trkpt>
      <trkpt lat="35.946905" lon="52.109254">
        <ele>5130.140</ele>
        <time>2020-06-25T07:51:25Z</time>
      </trkpt>
      <trkpt lat="35.947125" lon="52.109484">
        <ele>5142.858</ele>
        <time>2020-06-25T07:54:13Z</time>
      </trkpt>
      <trkpt lat="35.947471" lon="52.109488">
        <ele>5166.752</ele>
        <time>2020-06-25T07:58:46Z</time>
      </trkpt>
      <trkpt lat="35.947732" lon="52.109824">
        <ele>5178.117</ele>
        <time>2020-06-25T08:01:27Z</time>
      </trkpt>
      <trkpt lat="35.947810" lon="52.109836">
        <ele>5179.808</ele>
        <time>2020-06-25T08:02:42Z</time>
      </trkpt>
      <trkpt lat="35.947731" lon="52.109858">
        <ele>5178.190</ele>
        <time>2020-06-25T08:07:46Z</time>
      </trkpt>
      <trkpt lat="35.947807" lon="52.109919">
        <ele>5184.666</ele>
        <time>2020-06-25T08:08:49Z</time>
      </trkpt>
      <trkpt lat="35.947992" lon="52.109794">
        <ele>5189.141</ele>
        <time>2020-06-25T08:09:50Z</time>
      </trkpt>
      <trkpt lat="35.948011" lon="52.109847">
        <ele>5188.538</ele>
        <time>2020-06-25T08:09:59Z</time>
      </trkpt>
      <trkpt lat="35.948174" lon="52.109853">
        <ele>5197.261</ele>
        <time>2020-06-25T08:11:11Z</time>
      </trkpt>
      <trkpt lat="35.948144" lon="52.109900">
        <ele>5199.999</ele>
        <time>2020-06-25T08:11:49Z</time>
      </trkpt>
      <trkpt lat="35.948500" lon="52.109751">
        <ele>5217.680</ele>
        <time>2020-06-25T08:15:19Z</time>
      </trkpt>
      <trkpt lat="35.948631" lon="52.109904">
        <ele>5233.732</ele>
        <time>2020-06-25T08:17:04Z</time>
      </trkpt>
      <trkpt lat="35.948739" lon="52.109923">
        <ele>5246.171</ele>
        <time>2020-06-25T08:19:09Z</time>
      </trkpt>
      <trkpt lat="35.948831" lon="52.110115">
        <ele>5250.441</ele>
        <time>2020-06-25T08:20:11Z</time>
      </trkpt>
      <trkpt lat="35.949028" lon="52.110005">
        <ele>5263.915</ele>
        <time>2020-06-25T08:22:52Z</time>
      </trkpt>
      <trkpt lat="35.949117" lon="52.110043">
        <ele>5268.408</ele>
        <time>2020-06-25T08:23:10Z</time>
      </trkpt>
      <trkpt lat="35.949327" lon="52.110453">
        <ele>5278.552</ele>
        <time>2020-06-25T08:27:06Z</time>
      </trkpt>
      <trkpt lat="35.949297" lon="52.110347">
        <ele>5285.288</ele>
        <time>2020-06-25T08:29:11Z</time>
      </trkpt>
      <trkpt lat="35.949773" lon="52.110188">
        <ele>5311.433</ele>
        <time>2020-06-25T08:37:07Z</time>
      </trkpt>
      <trkpt lat="35.949906" lon="52.110212">
        <ele>5319.090</ele>
        <time>2020-06-25T08:38:12Z</time>
      </trkpt>
      <trkpt lat="35.949979" lon="52.110353">
        <ele>5330.293</ele>
        <time>2020-06-25T08:39:49Z</time>
      </trkpt>
      <trkpt lat="35.950057" lon="52.110323">
        <ele>5333.731</ele>
        <time>2020-06-25T08:40:31Z</time>
      </trkpt>
      <trkpt lat="35.950020" lon="52.110358">
        <ele>5331.462</ele>
        <time>2020-06-25T08:41:02Z</time>
      </trkpt>
      <trkpt lat="35.950368" lon="52.110439">
        <ele>5350.654</ele>
        <time>2020-06-25T08:43:58Z</time>
      </trkpt>
      <trkpt lat="35.950419" lon="52.110363">
        <ele>5356.743</ele>
        <time>2020-06-25T08:45:06Z</time>
      </trkpt>
      <trkpt lat="35.950662" lon="52.110496">
        <ele>5367.464</ele>
        <time>2020-06-25T08:46:31Z</time>
      </trkpt>
      <trkpt lat="35.950660" lon="52.110440">
        <ele>5366.210</ele>
        <time>2020-06-25T08:47:04Z</time>
      </trkpt>
      <trkpt lat="35.950796" lon="52.110459">
        <ele>5367.108</ele>
        <time>2020-06-25T08:48:12Z</time>
      </trkpt>
      <trkpt lat="35.950814" lon="52.110406">
        <ele>5365.049</ele>
        <time>2020-06-25T08:48:23Z</time>
      </trkpt>
      <trkpt lat="35.950755" lon="52.110129">
        <ele>5365.525</ele>
        <time>2020-06-25T08:49:48Z</time>
      </trkpt>
      <trkpt lat="35.950871" lon="52.110144">
        <ele>5364.410</ele>
        <time>2020-06-25T08:49:54Z</time>
      </trkpt>
      <trkpt lat="35.950836" lon="52.110497">
        <ele>5374.497</ele>
        <time>2020-06-25T08:51:22Z</time>
      </trkpt>
      <trkpt lat="35.951247" lon="52.110449">
        <ele>5391.690</ele>
        <time>2020-06-25T08:55:45Z</time>
      </trkpt>
      <trkpt lat="35.951611" lon="52.110586">
        <ele>5403.368</ele>
        <time>2020-06-25T08:58:36Z</time>
      </trkpt>
      <trkpt lat="35.951707" lon="52.110704">
        <ele>5406.849</ele>
        <time>2020-06-25T08:59:52Z</time>
      </trkpt>
      <trkpt lat="35.951736" lon="52.110660">
        <ele>5409.661</ele>
        <time>2020-06-25T09:00:14Z</time>
      </trkpt>
      <trkpt lat="35.951710" lon="52.110765">
        <ele>5414.722</ele>
        <time>2020-06-25T09:00:50Z</time>
      </trkpt>
      <trkpt lat="35.951809" lon="52.111010">
        <ele>5419.062</ele>
        <time>2020-06-25T09:02:02Z</time>
      </trkpt>
      <trkpt lat="35.952573" lon="52.110945">
        <ele>5452.908</ele>
        <time>2020-06-25T09:07:47Z</time>
      </trkpt>
      <trkpt lat="35.952630" lon="52.110865">
        <ele>5454.708</ele>
        <time>2020-06-25T09:08:27Z</time>
      </trkpt>
      <trkpt lat="35.952792" lon="52.110911">
        <ele>5463.797</ele>
        <time>2020-06-25T09:09:18Z</time>
      </trkpt>
      <trkpt lat="35.952789" lon="52.110982">
        <ele>5465.773</ele>
        <time>2020-06-25T09:09:46Z</time>
      </trkpt>
      <trkpt lat="35.952999" lon="52.110693">
        <ele>5481.088</ele>
        <time>2020-06-25T09:12:43Z</time>
      </trkpt>
      <trkpt lat="35.953087" lon="52.110668">
        <ele>5485.675</ele>
        <time>2020-06-25T09:13:27Z</time>
      </trkpt>
      <trkpt lat="35.953266" lon="52.110717">
        <ele>5489.758</ele>
        <time>2020-06-25T09:14:24Z</time>
      </trkpt>
      <trkpt lat="35.953226" lon="52.110815">
        <ele>5492.816</ele>
        <time>2020-06-25T09:14:53Z</time>
      </trkpt>
      <trkpt lat="35.953385" lon="52.110935">
        <ele>5499.557</ele>
        <time>2020-06-25T09:16:00Z</time>
      </trkpt>
      <trkpt lat="35.953459" lon="52.110888">
        <ele>5501.059</ele>
        <time>2020-06-25T09:16:42Z</time>
      </trkpt>
      <trkpt lat="35.953547" lon="52.110921">
        <ele>5505.062</ele>
        <time>2020-06-25T09:17:03Z</time>
      </trkpt>
      <trkpt lat="35.953520" lon="52.110966">
        <ele>5510.683</ele>
        <time>2020-06-25T09:18:06Z</time>
      </trkpt>
      <trkpt lat="35.953586" lon="52.110892">
        <ele>5513.211</ele>
        <time>2020-06-25T09:18:39Z</time>
      </trkpt>
      <trkpt lat="35.953845" lon="52.110966">
        <ele>5518.408</ele>
        <time>2020-06-25T09:20:17Z</time>
      </trkpt>
      <trkpt lat="35.953955" lon="52.110637">
        <ele>5537.951</ele>
        <time>2020-06-25T09:21:57Z</time>
      </trkpt>
      <trkpt lat="35.954278" lon="52.110468">
        <ele>5544.837</ele>
        <time>2020-06-25T09:24:29Z</time>
      </trkpt>
      <trkpt lat="35.954210" lon="52.110394">
        <ele>5547.422</ele>
        <time>2020-06-25T09:24:49Z</time>
      </trkpt>
      <trkpt lat="35.954309" lon="52.110356">
        <ele>5549.149</ele>
        <time>2020-06-25T09:26:03Z</time>
      </trkpt>
      <trkpt lat="35.954279" lon="52.110302">
        <ele>5554.822</ele>
        <time>2020-06-25T09:27:46Z</time>
      </trkpt>
      <trkpt lat="35.954324" lon="52.110355">
        <ele>5549.010</ele>
        <time>2020-06-25T09:29:07Z</time>
      </trkpt>
      <trkpt lat="35.953927" lon="52.110870">
        <ele>5526.561</ele>
        <time>2020-06-25T09:30:34Z</time>
      </trkpt>
      <trkpt lat="35.953924" lon="52.110983">
        <ele>5527.653</ele>
        <time>2020-06-25T09:30:45Z</time>
      </trkpt>
      <trkpt lat="35.953773" lon="52.110884">
        <ele>5540.391</ele>
        <time>2020-06-25T09:31:43Z</time>
      </trkpt>
      <trkpt lat="35.953860" lon="52.110923">
        <ele>5516.281</ele>
        <time>2020-06-25T09:32:10Z</time>
      </trkpt>
      <trkpt lat="35.953454" lon="52.110866">
        <ele>5499.619</ele>
        <time>2020-06-25T09:33:42Z</time>
      </trkpt>
      <trkpt lat="35.953325" lon="52.111186">
        <ele>5490.908</ele>
        <time>2020-06-25T09:34:06Z</time>
      </trkpt>
      <trkpt lat="35.952962" lon="52.111180">
        <ele>5466.574</ele>
        <time>2020-06-25T09:35:49Z</time>
      </trkpt>
      <trkpt lat="35.952765" lon="52.111340">
        <ele>5462.940</ele>
        <time>2020-06-25T09:36:11Z</time>
      </trkpt>
      <trkpt lat="35.952701" lon="52.111260">
        <ele>5455.025</ele>
        <time>2020-06-25T09:36:22Z</time>
      </trkpt>
      <trkpt lat="35.952480" lon="52.111254">
        <ele>5445.742</ele>
        <time>2020-06-25T09:36:50Z</time>
      </trkpt>
      <trkpt lat="35.952351" lon="52.110996">
        <ele>5436.295</ele>
        <time>2020-06-25T09:38:00Z</time>
      </trkpt>
      <trkpt lat="35.951769" lon="52.110988">
        <ele>5410.743</ele>
        <time>2020-06-25T09:39:42Z</time>
      </trkpt>
      <trkpt lat="35.951604" lon="52.110612">
        <ele>5398.224</ele>
        <time>2020-06-25T09:40:41Z</time>
      </trkpt>
      <trkpt lat="35.951344" lon="52.110626">
        <ele>5392.056</ele>
        <time>2020-06-25T09:41:15Z</time>
      </trkpt>
      <trkpt lat="35.951145" lon="52.110430">
        <ele>5387.449</ele>
        <time>2020-06-25T09:41:46Z</time>
      </trkpt>
      <trkpt lat="35.950934" lon="52.110612">
        <ele>5369.002</ele>
        <time>2020-06-25T09:42:33Z</time>
      </trkpt>
      <trkpt lat="35.950647" lon="52.110497">
        <ele>5358.522</ele>
        <time>2020-06-25T09:43:11Z</time>
      </trkpt>
      <trkpt lat="35.950373" lon="52.110587">
        <ele>5347.608</ele>
        <time>2020-06-25T09:44:28Z</time>
      </trkpt>
      <trkpt lat="35.950281" lon="52.110581">
        <ele>5346.539</ele>
        <time>2020-06-25T09:46:52Z</time>
      </trkpt>
      <trkpt lat="35.950262" lon="52.110515">
        <ele>5347.535</ele>
        <time>2020-06-25T09:49:06Z</time>
      </trkpt>
      <trkpt lat="35.950264" lon="52.110637">
        <ele>5347.120</ele>
        <time>2020-06-25T09:49:41Z</time>
      </trkpt>
      <trkpt lat="35.950395" lon="52.110631">
        <ele>5346.637</ele>
        <time>2020-06-25T09:50:09Z</time>
      </trkpt>
      <trkpt lat="35.950287" lon="52.110572">
        <ele>5346.210</ele>
        <time>2020-06-25T09:50:19Z</time>
      </trkpt>
      <trkpt lat="35.950374" lon="52.110480">
        <ele>5347.678</ele>
        <time>2020-06-25T09:53:24Z</time>
      </trkpt>
      <trkpt lat="35.950277" lon="52.110531">
        <ele>5342.679</ele>
        <time>2020-06-25T09:54:16Z</time>
      </trkpt>
      <trkpt lat="35.950155" lon="52.110361">
        <ele>5333.211</ele>
        <time>2020-06-25T09:55:11Z</time>
      </trkpt>
      <trkpt lat="35.949976" lon="52.110357">
        <ele>5324.063</ele>
        <time>2020-06-25T09:55:58Z</time>
      </trkpt>
      <trkpt lat="35.949878" lon="52.110454">
        <ele>5307.844</ele>
        <time>2020-06-25T09:57:08Z</time>
      </trkpt>
      <trkpt lat="35.949739" lon="52.110339">
        <ele>5301.818</ele>
        <time>2020-06-25T09:57:40Z</time>
      </trkpt>
      <trkpt lat="35.949601" lon="52.110378">
        <ele>5292.708</ele>
        <time>2020-06-25T09:58:00Z</time>
      </trkpt>
      <trkpt lat="35.949561" lon="52.110324">
        <ele>5291.691</ele>
        <time>2020-06-25T09:58:27Z</time>
      </trkpt>
      <trkpt lat="35.949433" lon="52.110545">
        <ele>5276.897</ele>
        <time>2020-06-25T09:59:11Z</time>
      </trkpt>
      <trkpt lat="35.949348" lon="52.110572">
        <ele>5271.852</ele>
        <time>2020-06-25T09:59:49Z</time>
      </trkpt>
      <trkpt lat="35.949059" lon="52.110266">
        <ele>5260.889</ele>
        <time>2020-06-25T10:00:25Z</time>
      </trkpt>
      <trkpt lat="35.949005" lon="52.110352">
        <ele>5257.792</ele>
        <time>2020-06-25T10:00:50Z</time>
      </trkpt>
      <trkpt lat="35.948761" lon="52.110122">
        <ele>5241.150</ele>
        <time>2020-06-25T10:02:45Z</time>
      </trkpt>
      <trkpt lat="35.948634" lon="52.110196">
        <ele>5233.311</ele>
        <time>2020-06-25T10:03:05Z</time>
      </trkpt>
      <trkpt lat="35.948647" lon="52.110080">
        <ele>5227.583</ele>
        <time>2020-06-25T10:03:20Z</time>
      </trkpt>
      <trkpt lat="35.948445" lon="52.109843">
        <ele>5215.367</ele>
        <time>2020-06-25T10:04:29Z</time>
      </trkpt>
      <trkpt lat="35.948171" lon="52.109873">
        <ele>5197.381</ele>
        <time>2020-06-25T10:05:11Z</time>
      </trkpt>
      <trkpt lat="35.948138" lon="52.109714">
        <ele>5194.819</ele>
        <time>2020-06-25T10:05:31Z</time>
      </trkpt>
      <trkpt lat="35.947804" lon="52.109888">
        <ele>5174.808</ele>
        <time>2020-06-25T10:06:29Z</time>
      </trkpt>
      <trkpt lat="35.947737" lon="52.109737">
        <ele>5170.841</ele>
        <time>2020-06-25T10:06:47Z</time>
      </trkpt>
      <trkpt lat="35.947640" lon="52.109744">
        <ele>5172.567</ele>
        <time>2020-06-25T10:06:59Z</time>
      </trkpt>
      <trkpt lat="35.947580" lon="52.109656">
        <ele>5168.072</ele>
        <time>2020-06-25T10:07:17Z</time>
      </trkpt>
      <trkpt lat="35.947440" lon="52.109657">
        <ele>5163.689</ele>
        <time>2020-06-25T10:07:35Z</time>
      </trkpt>
      <trkpt lat="35.947390" lon="52.109745">
        <ele>5160.122</ele>
        <time>2020-06-25T10:07:49Z</time>
      </trkpt>
      <trkpt lat="35.947435" lon="52.109564">
        <ele>5158.580</ele>
        <time>2020-06-25T10:09:18Z</time>
      </trkpt>
      <trkpt lat="35.947379" lon="52.109647">
        <ele>5160.891</ele>
        <time>2020-06-25T10:09:46Z</time>
      </trkpt>
      <trkpt lat="35.947341" lon="52.109615">
        <ele>5161.623</ele>
        <time>2020-06-25T10:09:58Z</time>
      </trkpt>
      <trkpt lat="35.947436" lon="52.109648">
        <ele>5160.458</ele>
        <time>2020-06-25T10:10:22Z</time>
      </trkpt>
      <trkpt lat="35.947387" lon="52.109601">
        <ele>5160.652</ele>
        <time>2020-06-25T10:10:51Z</time>
      </trkpt>
      <trkpt lat="35.947477" lon="52.109574">
        <ele>5160.617</ele>
        <time>2020-06-25T10:11:04Z</time>
      </trkpt>
      <trkpt lat="35.947462" lon="52.109674">
        <ele>5158.408</ele>
        <time>2020-06-25T10:13:08Z</time>
      </trkpt>
      <trkpt lat="35.947471" lon="52.109509">
        <ele>5158.670</ele>
        <time>2020-06-25T10:14:02Z</time>
      </trkpt>
      <trkpt lat="35.947441" lon="52.109617">
        <ele>5157.056</ele>
        <time>2020-06-25T10:18:25Z</time>
      </trkpt>
      <trkpt lat="35.947546" lon="52.109624">
        <ele>5153.251</ele>
        <time>2020-06-25T10:18:32Z</time>
      </trkpt>
      <trkpt lat="35.947433" lon="52.109588">
        <ele>5159.868</ele>
        <time>2020-06-25T10:19:37Z</time>
      </trkpt>
      <trkpt lat="35.947535" lon="52.109517">
        <ele>5157.231</ele>
        <time>2020-06-25T10:20:16Z</time>
      </trkpt>
      <trkpt lat="35.947321" lon="52.109630">
        <ele>5149.699</ele>
        <time>2020-06-25T10:22:23Z</time>
      </trkpt>
      <trkpt lat="35.947229" lon="52.109553">
        <ele>5148.410</ele>
        <time>2020-06-25T10:22:41Z</time>
      </trkpt>
      <trkpt lat="35.947060" lon="52.109577">
        <ele>5136.392</ele>
        <time>2020-06-25T10:23:05Z</time>
      </trkpt>
      <trkpt lat="35.947057" lon="52.109455">
        <ele>5134.911</ele>
        <time>2020-06-25T10:23:12Z</time>
      </trkpt>
      <trkpt lat="35.946908" lon="52.109436">
        <ele>5128.221</ele>
        <time>2020-06-25T10:23:32Z</time>
      </trkpt>
      <trkpt lat="35.946864" lon="52.109329">
        <ele>5125.403</ele>
        <time>2020-06-25T10:23:42Z</time>
      </trkpt>
      <trkpt lat="35.946740" lon="52.109427">
        <ele>5117.108</ele>
        <time>2020-06-25T10:23:58Z</time>
      </trkpt>
      <trkpt lat="35.946627" lon="52.109326">
        <ele>5108.886</ele>
        <time>2020-06-25T10:24:20Z</time>
      </trkpt>
      <trkpt lat="35.946529" lon="52.109342">
        <ele>5105.762</ele>
        <time>2020-06-25T10:24:29Z</time>
      </trkpt>
      <trkpt lat="35.946466" lon="52.109247">
        <ele>5104.247</ele>
        <time>2020-06-25T10:24:39Z</time>
      </trkpt>
      <trkpt lat="35.946177" lon="52.109388">
        <ele>5087.744</ele>
        <time>2020-06-25T10:25:16Z</time>
      </trkpt>
      <trkpt lat="35.946045" lon="52.109320">
        <ele>5083.767</ele>
        <time>2020-06-25T10:25:32Z</time>
      </trkpt>
      <trkpt lat="35.945918" lon="52.109350">
        <ele>5080.885</ele>
        <time>2020-06-25T10:25:59Z</time>
      </trkpt>
      <trkpt lat="35.945980" lon="52.109193">
        <ele>5074.586</ele>
        <time>2020-06-25T10:26:34Z</time>
      </trkpt>
      <trkpt lat="35.945762" lon="52.108980">
        <ele>5057.188</ele>
        <time>2020-06-25T10:27:37Z</time>
      </trkpt>
      <trkpt lat="35.945464" lon="52.108877">
        <ele>5036.655</ele>
        <time>2020-06-25T10:29:20Z</time>
      </trkpt>
      <trkpt lat="35.945310" lon="52.108950">
        <ele>5025.007</ele>
        <time>2020-06-25T10:31:45Z</time>
      </trkpt>
      <trkpt lat="35.945302" lon="52.108812">
        <ele>5023.917</ele>
        <time>2020-06-25T10:33:21Z</time>
      </trkpt>
      <trkpt lat="35.945294" lon="52.108912">
        <ele>5016.308</ele>
        <time>2020-06-25T10:34:08Z</time>
      </trkpt>
      <trkpt lat="35.945124" lon="52.108951">
        <ele>5010.760</ele>
        <time>2020-06-25T10:34:38Z</time>
      </trkpt>
      <trkpt lat="35.945156" lon="52.108839">
        <ele>5007.396</ele>
        <time>2020-06-25T10:34:53Z</time>
      </trkpt>
      <trkpt lat="35.945023" lon="52.108704">
        <ele>5001.321</ele>
        <time>2020-06-25T10:35:33Z</time>
      </trkpt>
      <trkpt lat="35.944800" lon="52.108683">
        <ele>4989.378</ele>
        <time>2020-06-25T10:36:20Z</time>
      </trkpt>
      <trkpt lat="35.944716" lon="52.108742">
        <ele>4991.391</ele>
        <time>2020-06-25T10:36:33Z</time>
      </trkpt>
      <trkpt lat="35.944855" lon="52.108762">
        <ele>4989.419</ele>
        <time>2020-06-25T10:37:02Z</time>
      </trkpt>
      <trkpt lat="35.944724" lon="52.108633">
        <ele>4980.450</ele>
        <time>2020-06-25T10:37:59Z</time>
      </trkpt>
      <trkpt lat="35.944634" lon="52.108645">
        <ele>4976.672</ele>
        <time>2020-06-25T10:38:14Z</time>
      </trkpt>
      <trkpt lat="35.944641" lon="52.108587">
        <ele>4973.264</ele>
        <time>2020-06-25T10:38:31Z</time>
      </trkpt>
      <trkpt lat="35.944541" lon="52.108705">
        <ele>4965.706</ele>
        <time>2020-06-25T10:38:55Z</time>
      </trkpt>
      <trkpt lat="35.944413" lon="52.108659">
        <ele>4958.516</ele>
        <time>2020-06-25T10:39:26Z</time>
      </trkpt>
      <trkpt lat="35.944470" lon="52.108704">
        <ele>4955.908</ele>
        <time>2020-06-25T10:41:56Z</time>
      </trkpt>
      <trkpt lat="35.944359" lon="52.108527">
        <ele>4952.611</ele>
        <time>2020-06-25T10:42:53Z</time>
      </trkpt>
      <trkpt lat="35.944295" lon="52.108675">
        <ele>4947.437</ele>
        <time>2020-06-25T10:43:21Z</time>
      </trkpt>
      <trkpt lat="35.944225" lon="52.108596">
        <ele>4941.892</ele>
        <time>2020-06-25T10:43:38Z</time>
      </trkpt>
      <trkpt lat="35.944045" lon="52.108603">
        <ele>4934.029</ele>
        <time>2020-06-25T10:44:21Z</time>
      </trkpt>
      <trkpt lat="35.944028" lon="52.108686">
        <ele>4926.792</ele>
        <time>2020-06-25T10:45:18Z</time>
      </trkpt>
      <trkpt lat="35.943947" lon="52.108625">
        <ele>4920.930</ele>
        <time>2020-06-25T10:45:36Z</time>
      </trkpt>
      <trkpt lat="35.943938" lon="52.108508">
        <ele>4919.081</ele>
        <time>2020-06-25T10:45:41Z</time>
      </trkpt>
      <trkpt lat="35.943809" lon="52.108453">
        <ele>4915.783</ele>
        <time>2020-06-25T10:46:00Z</time>
      </trkpt>
      <trkpt lat="35.943835" lon="52.108402">
        <ele>4914.079</ele>
        <time>2020-06-25T10:46:38Z</time>
      </trkpt>
      <trkpt lat="35.943743" lon="52.108408">
        <ele>4908.905</ele>
        <time>2020-06-25T10:46:58Z</time>
      </trkpt>
      <trkpt lat="35.943691" lon="52.108612">
        <ele>4900.225</ele>
        <time>2020-06-25T10:47:40Z</time>
      </trkpt>
      <trkpt lat="35.943532" lon="52.108684">
        <ele>4887.108</ele>
        <time>2020-06-25T10:48:59Z</time>
      </trkpt>
      <trkpt lat="35.943104" lon="52.108570">
        <ele>4865.522</ele>
        <time>2020-06-25T10:49:53Z</time>
      </trkpt>
      <trkpt lat="35.942890" lon="52.108407">
        <ele>4855.128</ele>
        <time>2020-06-25T10:50:17Z</time>
      </trkpt>
      <trkpt lat="35.942584" lon="52.108641">
        <ele>4837.663</ele>
        <time>2020-06-25T10:51:02Z</time>
      </trkpt>
      <trkpt lat="35.942409" lon="52.108607">
        <ele>4825.440</ele>
        <time>2020-06-25T10:51:23Z</time>
      </trkpt>
      <trkpt lat="35.942365" lon="52.108704">
        <ele>4820.523</ele>
        <time>2020-06-25T10:51:31Z</time>
      </trkpt>
      <trkpt lat="35.942058" lon="52.108644">
        <ele>4802.671</ele>
        <time>2020-06-25T10:52:53Z</time>
      </trkpt>
      <trkpt lat="35.941674" lon="52.108916">
        <ele>4775.572</ele>
        <time>2020-06-25T10:53:46Z</time>
      </trkpt>
      <trkpt lat="35.941515" lon="52.109112">
        <ele>4763.044</ele>
        <time>2020-06-25T10:54:44Z</time>
      </trkpt>
      <trkpt lat="35.941408" lon="52.109003">
        <ele>4755.995</ele>
        <time>2020-06-25T10:55:04Z</time>
      </trkpt>
      <trkpt lat="35.941235" lon="52.109075">
        <ele>4750.749</ele>
        <time>2020-06-25T10:55:26Z</time>
      </trkpt>
      <trkpt lat="35.941370" lon="52.109087">
        <ele>4750.523</ele>
        <time>2020-06-25T10:56:16Z</time>
      </trkpt>
      <trkpt lat="35.941380" lon="52.109149">
        <ele>4752.308</ele>
        <time>2020-06-25T10:56:25Z</time>
      </trkpt>
      <trkpt lat="35.941243" lon="52.109209">
        <ele>4750.684</ele>
        <time>2020-06-25T10:57:07Z</time>
      </trkpt>
      <trkpt lat="35.941271" lon="52.109260">
        <ele>4751.030</ele>
        <time>2020-06-25T10:57:32Z</time>
      </trkpt>
      <trkpt lat="35.941269" lon="52.109107">
        <ele>4752.785</ele>
        <time>2020-06-25T10:58:49Z</time>
      </trkpt>
      <trkpt lat="35.941208" lon="52.109190">
        <ele>4747.932</ele>
        <time>2020-06-25T10:59:20Z</time>
      </trkpt>
      <trkpt lat="35.941119" lon="52.109155">
        <ele>4749.815</ele>
        <time>2020-06-25T11:00:45Z</time>
      </trkpt>
      <trkpt lat="35.941134" lon="52.109102">
        <ele>4750.813</ele>
        <time>2020-06-25T11:02:43Z</time>
      </trkpt>
      <trkpt lat="35.941182" lon="52.109260">
        <ele>4749.384</ele>
        <time>2020-06-25T11:09:38Z</time>
      </trkpt>
      <trkpt lat="35.941068" lon="52.109311">
        <ele>4740.246</ele>
        <time>2020-06-25T11:10:30Z</time>
      </trkpt>
      <trkpt lat="35.940983" lon="52.109264">
        <ele>4739.448</ele>
        <time>2020-06-25T11:10:41Z</time>
      </trkpt>
      <trkpt lat="35.940975" lon="52.109371">
        <ele>4734.361</ele>
        <time>2020-06-25T11:10:50Z</time>
      </trkpt>
      <trkpt lat="35.940777" lon="52.109296">
        <ele>4724.617</ele>
        <time>2020-06-25T11:11:23Z</time>
      </trkpt>
      <trkpt lat="35.940685" lon="52.109498">
        <ele>4717.408</ele>
        <time>2020-06-25T11:11:42Z</time>
      </trkpt>
      <trkpt lat="35.940563" lon="52.109417">
        <ele>4711.349</ele>
        <time>2020-06-25T11:12:01Z</time>
      </trkpt>
      <trkpt lat="35.940407" lon="52.109515">
        <ele>4699.455</ele>
        <time>2020-06-25T11:12:35Z</time>
      </trkpt>
      <trkpt lat="35.940182" lon="52.109345">
        <ele>4682.510</ele>
        <time>2020-06-25T11:13:35Z</time>
      </trkpt>
      <trkpt lat="35.940228" lon="52.109338">
        <ele>4681.627</ele>
        <time>2020-06-25T11:14:06Z</time>
      </trkpt>
      <trkpt lat="35.940021" lon="52.109559">
        <ele>4671.220</ele>
        <time>2020-06-25T11:14:56Z</time>
      </trkpt>
      <trkpt lat="35.939706" lon="52.109588">
        <ele>4654.568</ele>
        <time>2020-06-25T11:15:50Z</time>
      </trkpt>
      <trkpt lat="35.939715" lon="52.109647">
        <ele>4652.359</ele>
        <time>2020-06-25T11:16:00Z</time>
      </trkpt>
      <trkpt lat="35.939592" lon="52.109572">
        <ele>4646.531</ele>
        <time>2020-06-25T11:16:20Z</time>
      </trkpt>
      <trkpt lat="35.939345" lon="52.109810">
        <ele>4626.655</ele>
        <time>2020-06-25T11:17:32Z</time>
      </trkpt>
      <trkpt lat="35.939226" lon="52.109805">
        <ele>4617.707</ele>
        <time>2020-06-25T11:17:57Z</time>
      </trkpt>
      <trkpt lat="35.939089" lon="52.109656">
        <ele>4612.617</ele>
        <time>2020-06-25T11:18:16Z</time>
      </trkpt>
      <trkpt lat="35.938984" lon="52.109919">
        <ele>4607.808</ele>
        <time>2020-06-25T11:18:33Z</time>
      </trkpt>
      <trkpt lat="35.939054" lon="52.109839">
        <ele>4607.630</ele>
        <time>2020-06-25T11:19:31Z</time>
      </trkpt>
      <trkpt lat="35.938929" lon="52.109855">
        <ele>4603.326</ele>
        <time>2020-06-25T11:21:41Z</time>
      </trkpt>
      <trkpt lat="35.938819" lon="52.109693">
        <ele>4599.221</ele>
        <time>2020-06-25T11:25:45Z</time>
      </trkpt>
      <trkpt lat="35.938676" lon="52.109693">
        <ele>4593.448</ele>
        <time>2020-06-25T11:26:03Z</time>
      </trkpt>
      <trkpt lat="35.938532" lon="52.109791">
        <ele>4585.651</ele>
        <time>2020-06-25T11:26:39Z</time>
      </trkpt>
      <trkpt lat="35.938486" lon="52.109603">
        <ele>4580.419</ele>
        <time>2020-06-25T11:27:40Z</time>
      </trkpt>
      <trkpt lat="35.938374" lon="52.109582">
        <ele>4573.060</ele>
        <time>2020-06-25T11:28:34Z</time>
      </trkpt>
      <trkpt lat="35.938040" lon="52.110004">
        <ele>4555.382</ele>
        <time>2020-06-25T11:29:57Z</time>
      </trkpt>
      <trkpt lat="35.937951" lon="52.109965">
        <ele>4550.197</ele>
        <time>2020-06-25T11:30:08Z</time>
      </trkpt>
      <trkpt lat="35.937710" lon="52.110160">
        <ele>4540.523</ele>
        <time>2020-06-25T11:30:32Z</time>
      </trkpt>
      <trkpt lat="35.937631" lon="52.110041">
        <ele>4530.225</ele>
        <time>2020-06-25T11:30:53Z</time>
      </trkpt>
      <trkpt lat="35.937372" lon="52.110179">
        <ele>4516.008</ele>
        <time>2020-06-25T11:31:22Z</time>
      </trkpt>
      <trkpt lat="35.937268" lon="52.109838">
        <ele>4505.924</ele>
        <time>2020-06-25T11:31:38Z</time>
      </trkpt>
      <trkpt lat="35.937138" lon="52.109789">
        <ele>4502.350</ele>
        <time>2020-06-25T11:31:48Z</time>
      </trkpt>
      <trkpt lat="35.936970" lon="52.109818">
        <ele>4492.655</ele>
        <time>2020-06-25T11:32:06Z</time>
      </trkpt>
      <trkpt lat="35.936988" lon="52.109874">
        <ele>4491.372</ele>
        <time>2020-06-25T11:32:10Z</time>
      </trkpt>
      <trkpt lat="35.936875" lon="52.109929">
        <ele>4480.555</ele>
        <time>2020-06-25T11:32:32Z</time>
      </trkpt>
      <trkpt lat="35.936685" lon="52.109895">
        <ele>4471.043</ele>
        <time>2020-06-25T11:32:47Z</time>
      </trkpt>
      <trkpt lat="35.936514" lon="52.109700">
        <ele>4459.564</ele>
        <time>2020-06-25T11:33:09Z</time>
      </trkpt>
      <trkpt lat="35.936386" lon="52.109765">
        <ele>4452.376</ele>
        <time>2020-06-25T11:33:22Z</time>
      </trkpt>
      <trkpt lat="35.936334" lon="52.109600">
        <ele>4447.944</ele>
        <time>2020-06-25T11:33:37Z</time>
      </trkpt>
      <trkpt lat="35.936208" lon="52.109646">
        <ele>4443.705</ele>
        <time>2020-06-25T11:33:48Z</time>
      </trkpt>
      <trkpt lat="35.936110" lon="52.109551">
        <ele>4437.015</ele>
        <time>2020-06-25T11:34:02Z</time>
      </trkpt>
      <trkpt lat="35.935965" lon="52.109560">
        <ele>4431.208</ele>
        <time>2020-06-25T11:34:16Z</time>
      </trkpt>
      <trkpt lat="35.935964" lon="52.109439">
        <ele>4426.449</ele>
        <time>2020-06-25T11:34:28Z</time>
      </trkpt>
      <trkpt lat="35.935866" lon="52.109467">
        <ele>4425.745</ele>
        <time>2020-06-25T11:34:38Z</time>
      </trkpt>
      <trkpt lat="35.935848" lon="52.109412">
        <ele>4422.210</ele>
        <time>2020-06-25T11:34:47Z</time>
      </trkpt>
      <trkpt lat="35.935686" lon="52.109538">
        <ele>4412.467</ele>
        <time>2020-06-25T11:35:24Z</time>
      </trkpt>
      <trkpt lat="35.935634" lon="52.109468">
        <ele>4407.660</ele>
        <time>2020-06-25T11:35:37Z</time>
      </trkpt>
      <trkpt lat="35.935458" lon="52.109561">
        <ele>4401.818</ele>
        <time>2020-06-25T11:35:49Z</time>
      </trkpt>
      <trkpt lat="35.935382" lon="52.109484">
        <ele>4396.639</ele>
        <time>2020-06-25T11:36:00Z</time>
      </trkpt>
      <trkpt lat="35.935242" lon="52.109491">
        <ele>4392.041</ele>
        <time>2020-06-25T11:36:10Z</time>
      </trkpt>
      <trkpt lat="35.934747" lon="52.109672">
        <ele>4374.597</ele>
        <time>2020-06-25T11:36:55Z</time>
      </trkpt>
      <trkpt lat="35.934563" lon="52.109664">
        <ele>4367.223</ele>
        <time>2020-06-25T11:37:19Z</time>
      </trkpt>
      <trkpt lat="35.934307" lon="52.109833">
        <ele>4360.525</ele>
        <time>2020-06-25T11:37:44Z</time>
      </trkpt>
      <trkpt lat="35.934212" lon="52.109711">
        <ele>4355.808</ele>
        <time>2020-06-25T11:37:59Z</time>
      </trkpt>
      <trkpt lat="35.934021" lon="52.109831">
        <ele>4349.174</ele>
        <time>2020-06-25T11:38:23Z</time>
      </trkpt>
      <trkpt lat="35.933942" lon="52.109789">
        <ele>4345.780</ele>
        <time>2020-06-25T11:38:33Z</time>
      </trkpt>
      <trkpt lat="35.933724" lon="52.109891">
        <ele>4339.485</ele>
        <time>2020-06-25T11:38:58Z</time>
      </trkpt>
      <trkpt lat="35.933661" lon="52.109788">
        <ele>4332.592</ele>
        <time>2020-06-25T11:39:41Z</time>
      </trkpt>
      <trkpt lat="35.933521" lon="52.109850">
        <ele>4328.145</ele>
        <time>2020-06-25T11:39:55Z</time>
      </trkpt>
      <trkpt lat="35.933356" lon="52.109758">
        <ele>4320.123</ele>
        <time>2020-06-25T11:40:14Z</time>
      </trkpt>
      <trkpt lat="35.933241" lon="52.109843">
        <ele>4315.544</ele>
        <time>2020-06-25T11:40:38Z</time>
      </trkpt>
      <trkpt lat="35.933084" lon="52.109742">
        <ele>4307.716</ele>
        <time>2020-06-25T11:41:14Z</time>
      </trkpt>
      <trkpt lat="35.933012" lon="52.109783">
        <ele>4303.446</ele>
        <time>2020-06-25T11:41:24Z</time>
      </trkpt>
      <trkpt lat="35.932972" lon="52.109674">
        <ele>4303.788</ele>
        <time>2020-06-25T11:41:32Z</time>
      </trkpt>
      <trkpt lat="35.932813" lon="52.109739">
        <ele>4297.016</ele>
        <time>2020-06-25T11:41:55Z</time>
      </trkpt>
      <trkpt lat="35.932729" lon="52.109688">
        <ele>4293.308</ele>
        <time>2020-06-25T11:42:07Z</time>
      </trkpt>
      <trkpt lat="35.932677" lon="52.109788">
        <ele>4290.829</ele>
        <time>2020-06-25T11:42:16Z</time>
      </trkpt>
      <trkpt lat="35.932635" lon="52.109684">
        <ele>4288.275</ele>
        <time>2020-06-25T11:42:26Z</time>
      </trkpt>
      <trkpt lat="35.932403" lon="52.109764">
        <ele>4277.450</ele>
        <time>2020-06-25T11:42:53Z</time>
      </trkpt>
      <trkpt lat="35.932323" lon="52.109706">
        <ele>4276.117</ele>
        <time>2020-06-25T11:43:01Z</time>
      </trkpt>
      <trkpt lat="35.932307" lon="52.109815">
        <ele>4272.440</ele>
        <time>2020-06-25T11:43:13Z</time>
      </trkpt>
      <trkpt lat="35.932084" lon="52.109682">
        <ele>4262.238</ele>
        <time>2020-06-25T11:43:38Z</time>
      </trkpt>
      <trkpt lat="35.931717" lon="52.109807">
        <ele>4251.799</ele>
        <time>2020-06-25T11:44:48Z</time>
      </trkpt>
      <trkpt lat="35.931700" lon="52.109751">
        <ele>4252.021</ele>
        <time>2020-06-25T11:45:28Z</time>
      </trkpt>
    </trkseg>
  </trk></gpx>