<?xml version="1.0" encoding="UTF-8"?>
<gpx creator="Wikiloc - https://www.wikiloc.com" version="1.1" xmlns="http://www.topografix.com/GPX/1/1" xmlns:xsi="http://www.w3.org/2001/XMLSchema-instance" xsi:schemaLocation="http://www.topografix.com/GPX/1/1 http://www.topografix.com/GPX/1/1/gpx.xsd">
  <metadata>
    <name>Wikiloc - دماوند ۵۶۱۰ متر جنوبی ، گروه آفاق</name>
    <link href="https://www.wikiloc.com/hiking-trails/qlh-5610-mtry-dmwnd-grwh-hwzwy-afq-79746994">
      <text>دماوند ۵۶۱۰ متر جنوبی ، گروه آفاق - Wikiloc on Wikiloc</text>
    </link>
    <time>2021-07-25T22:42:09Z</time>
  </metadata>
  <trk>
    <name>دماوند ۵۶۱۰ متر جنوبی ، گروه آفاق - Wikiloc</name>
    <cmt></cmt>
    <desc></desc>
    <trkseg>
      <trkpt lat="35.901954" lon="52.109413">
        <ele>3040.353</ele>
        <time>2021-07-23T21:16:55Z</time>
      </trkpt>
      <trkpt lat="35.901933" lon="52.109333">
        <ele>3034.804</ele>
        <time>2021-07-23T21:18:16Z</time>
      </trkpt>
      <trkpt lat="35.901907" lon="52.109483">
        <ele>3038.814</ele>
        <time>2021-07-23T21:31:30Z</time>
      </trkpt>
      <trkpt lat="35.902215" lon="52.109483">
        <ele>3039.708</ele>
        <time>2021-07-23T21:32:52Z</time>
      </trkpt>
      <trkpt lat="35.902340" lon="52.109293">
        <ele>3045.912</ele>
        <time>2021-07-23T21:35:03Z</time>
      </trkpt>
      <trkpt lat="35.902726" lon="52.109224">
        <ele>3057.484</ele>
        <time>2021-07-23T21:36:27Z</time>
      </trkpt>
      <trkpt lat="35.903096" lon="52.108944">
        <ele>3069.032</ele>
        <time>2021-07-23T21:38:28Z</time>
      </trkpt>
      <trkpt lat="35.903273" lon="52.108978">
        <ele>3077.869</ele>
        <time>2021-07-23T21:39:35Z</time>
      </trkpt>
      <trkpt lat="35.903871" lon="52.108469">
        <ele>3092.331</ele>
        <time>2021-07-23T21:42:02Z</time>
      </trkpt>
      <trkpt lat="35.904284" lon="52.107633">
        <ele>3104.384</ele>
        <time>2021-07-23T21:44:21Z</time>
      </trkpt>
      <trkpt lat="35.904796" lon="52.107520">
        <ele>3116.314</ele>
        <time>2021-07-23T21:46:16Z</time>
      </trkpt>
      <trkpt lat="35.905705" lon="52.106695">
        <ele>3152.849</ele>
        <time>2021-07-23T21:52:25Z</time>
      </trkpt>
      <trkpt lat="35.905964" lon="52.106605">
        <ele>3163.714</ele>
        <time>2021-07-23T21:53:58Z</time>
      </trkpt>
      <trkpt lat="35.906055" lon="52.106399">
        <ele>3169.154</ele>
        <time>2021-07-23T21:54:59Z</time>
      </trkpt>
      <trkpt lat="35.906888" lon="52.106328">
        <ele>3188.009</ele>
        <time>2021-07-23T21:58:27Z</time>
      </trkpt>
      <trkpt lat="35.907682" lon="52.105918">
        <ele>3207.008</ele>
        <time>2021-07-23T22:02:03Z</time>
      </trkpt>
      <trkpt lat="35.908373" lon="52.105778">
        <ele>3228.178</ele>
        <time>2021-07-23T22:08:54Z</time>
      </trkpt>
      <trkpt lat="35.908703" lon="52.105319">
        <ele>3239.090</ele>
        <time>2021-07-23T22:11:28Z</time>
      </trkpt>
      <trkpt lat="35.908852" lon="52.105463">
        <ele>3246.358</ele>
        <time>2021-07-23T22:12:46Z</time>
      </trkpt>
      <trkpt lat="35.908968" lon="52.105369">
        <ele>3252.315</ele>
        <time>2021-07-23T22:14:28Z</time>
      </trkpt>
      <trkpt lat="35.909109" lon="52.105531">
        <ele>3262.177</ele>
        <time>2021-07-23T22:15:31Z</time>
      </trkpt>
      <trkpt lat="35.909344" lon="52.105394">
        <ele>3268.580</ele>
        <time>2021-07-23T22:17:35Z</time>
      </trkpt>
      <trkpt lat="35.909463" lon="52.105669">
        <ele>3278.720</ele>
        <time>2021-07-23T22:18:58Z</time>
      </trkpt>
      <trkpt lat="35.909849" lon="52.105375">
        <ele>3293.155</ele>
        <time>2021-07-23T22:21:44Z</time>
      </trkpt>
      <trkpt lat="35.910027" lon="52.105520">
        <ele>3301.826</ele>
        <time>2021-07-23T22:23:41Z</time>
      </trkpt>
      <trkpt lat="35.910347" lon="52.105298">
        <ele>3309.847</ele>
        <time>2021-07-23T22:25:30Z</time>
      </trkpt>
      <trkpt lat="35.910487" lon="52.105458">
        <ele>3319.711</ele>
        <time>2021-07-23T22:26:44Z</time>
      </trkpt>
      <trkpt lat="35.911049" lon="52.105365">
        <ele>3330.308</ele>
        <time>2021-07-23T22:29:00Z</time>
      </trkpt>
      <trkpt lat="35.911191" lon="52.105219">
        <ele>3332.179</ele>
        <time>2021-07-23T22:29:48Z</time>
      </trkpt>
      <trkpt lat="35.911781" lon="52.105243">
        <ele>3353.651</ele>
        <time>2021-07-23T22:33:08Z</time>
      </trkpt>
      <trkpt lat="35.912124" lon="52.104917">
        <ele>3362.159</ele>
        <time>2021-07-23T22:35:58Z</time>
      </trkpt>
      <trkpt lat="35.912537" lon="52.104788">
        <ele>3378.466</ele>
        <time>2021-07-23T22:38:43Z</time>
      </trkpt>
      <trkpt lat="35.913042" lon="52.104299">
        <ele>3400.158</ele>
        <time>2021-07-23T22:42:23Z</time>
      </trkpt>
      <trkpt lat="35.913352" lon="52.104223">
        <ele>3406.511</ele>
        <time>2021-07-23T22:43:59Z</time>
      </trkpt>
      <trkpt lat="35.913518" lon="52.104332">
        <ele>3419.121</ele>
        <time>2021-07-23T22:45:51Z</time>
      </trkpt>
      <trkpt lat="35.913841" lon="52.103957">
        <ele>3424.086</ele>
        <time>2021-07-23T22:51:50Z</time>
      </trkpt>
      <trkpt lat="35.914482" lon="52.103834">
        <ele>3444.837</ele>
        <time>2021-07-23T22:55:46Z</time>
      </trkpt>
      <trkpt lat="35.914724" lon="52.103912">
        <ele>3453.449</ele>
        <time>2021-07-23T22:57:00Z</time>
      </trkpt>
      <trkpt lat="35.915093" lon="52.103521">
        <ele>3464.413</ele>
        <time>2021-07-23T22:59:19Z</time>
      </trkpt>
      <trkpt lat="35.915274" lon="52.103617">
        <ele>3470.108</ele>
        <time>2021-07-23T23:00:18Z</time>
      </trkpt>
      <trkpt lat="35.915441" lon="52.103509">
        <ele>3471.420</ele>
        <time>2021-07-23T23:01:42Z</time>
      </trkpt>
      <trkpt lat="35.915533" lon="52.103301">
        <ele>3475.062</ele>
        <time>2021-07-23T23:02:41Z</time>
      </trkpt>
      <trkpt lat="35.916029" lon="52.103618">
        <ele>3499.810</ele>
        <time>2021-07-23T23:06:31Z</time>
      </trkpt>
      <trkpt lat="35.916329" lon="52.103522">
        <ele>3509.927</ele>
        <time>2021-07-23T23:08:16Z</time>
      </trkpt>
      <trkpt lat="35.916490" lon="52.103184">
        <ele>3514.219</ele>
        <time>2021-07-23T23:09:53Z</time>
      </trkpt>
      <trkpt lat="35.917033" lon="52.103106">
        <ele>3531.992</ele>
        <time>2021-07-23T23:13:35Z</time>
      </trkpt>
      <trkpt lat="35.917280" lon="52.103214">
        <ele>3543.542</ele>
        <time>2021-07-23T23:15:21Z</time>
      </trkpt>
      <trkpt lat="35.917369" lon="52.103013">
        <ele>3549.977</ele>
        <time>2021-07-23T23:16:55Z</time>
      </trkpt>
      <trkpt lat="35.918129" lon="52.103162">
        <ele>3581.153</ele>
        <time>2021-07-23T23:26:14Z</time>
      </trkpt>
      <trkpt lat="35.918444" lon="52.103444">
        <ele>3591.704</ele>
        <time>2021-07-23T23:28:58Z</time>
      </trkpt>
      <trkpt lat="35.918579" lon="52.103194">
        <ele>3592.514</ele>
        <time>2021-07-23T23:30:34Z</time>
      </trkpt>
      <trkpt lat="35.919410" lon="52.103653">
        <ele>3634.408</ele>
        <time>2021-07-23T23:38:09Z</time>
      </trkpt>
      <trkpt lat="35.919489" lon="52.103552">
        <ele>3633.532</ele>
        <time>2021-07-23T23:38:50Z</time>
      </trkpt>
      <trkpt lat="35.919529" lon="52.103669">
        <ele>3643.434</ele>
        <time>2021-07-23T23:39:40Z</time>
      </trkpt>
      <trkpt lat="35.919773" lon="52.103611">
        <ele>3652.612</ele>
        <time>2021-07-23T23:41:55Z</time>
      </trkpt>
      <trkpt lat="35.920148" lon="52.104279">
        <ele>3673.029</ele>
        <time>2021-07-23T23:46:58Z</time>
      </trkpt>
      <trkpt lat="35.920498" lon="52.104178">
        <ele>3679.011</ele>
        <time>2021-07-23T23:49:39Z</time>
      </trkpt>
      <trkpt lat="35.920442" lon="52.104318">
        <ele>3686.564</ele>
        <time>2021-07-23T23:50:59Z</time>
      </trkpt>
      <trkpt lat="35.920901" lon="52.105120">
        <ele>3703.784</ele>
        <time>2021-07-23T23:57:22Z</time>
      </trkpt>
      <trkpt lat="35.921444" lon="52.105185">
        <ele>3722.619</ele>
        <time>2021-07-24T00:02:56Z</time>
      </trkpt>
      <trkpt lat="35.921673" lon="52.105368">
        <ele>3736.611</ele>
        <time>2021-07-24T00:30:17Z</time>
      </trkpt>
      <trkpt lat="35.923168" lon="52.105482">
        <ele>3796.721</ele>
        <time>2021-07-24T00:43:57Z</time>
      </trkpt>
      <trkpt lat="35.923250" lon="52.105695">
        <ele>3808.103</ele>
        <time>2021-07-24T00:46:17Z</time>
      </trkpt>
      <trkpt lat="35.923440" lon="52.105636">
        <ele>3814.008</ele>
        <time>2021-07-24T00:48:13Z</time>
      </trkpt>
      <trkpt lat="35.923472" lon="52.106024">
        <ele>3828.798</ele>
        <time>2021-07-24T00:52:53Z</time>
      </trkpt>
      <trkpt lat="35.923662" lon="52.106014">
        <ele>3832.040</ele>
        <time>2021-07-24T00:54:22Z</time>
      </trkpt>
      <trkpt lat="35.923658" lon="52.106096">
        <ele>3837.318</ele>
        <time>2021-07-24T00:55:07Z</time>
      </trkpt>
      <trkpt lat="35.924145" lon="52.106145">
        <ele>3862.045</ele>
        <time>2021-07-24T01:03:32Z</time>
      </trkpt>
      <trkpt lat="35.924307" lon="52.106015">
        <ele>3868.637</ele>
        <time>2021-07-24T01:04:53Z</time>
      </trkpt>
      <trkpt lat="35.924323" lon="52.106225">
        <ele>3876.260</ele>
        <time>2021-07-24T01:07:13Z</time>
      </trkpt>
      <trkpt lat="35.924767" lon="52.106389">
        <ele>3901.180</ele>
        <time>2021-07-24T01:15:50Z</time>
      </trkpt>
      <trkpt lat="35.924808" lon="52.106603">
        <ele>3910.545</ele>
        <time>2021-07-24T01:18:16Z</time>
      </trkpt>
      <trkpt lat="35.924997" lon="52.106529">
        <ele>3916.559</ele>
        <time>2021-07-24T01:19:55Z</time>
      </trkpt>
      <trkpt lat="35.925074" lon="52.106884">
        <ele>3927.503</ele>
        <time>2021-07-24T01:24:48Z</time>
      </trkpt>
      <trkpt lat="35.925385" lon="52.106842">
        <ele>3940.123</ele>
        <time>2021-07-24T01:28:57Z</time>
      </trkpt>
      <trkpt lat="35.925436" lon="52.107154">
        <ele>3952.708</ele>
        <time>2021-07-24T01:31:56Z</time>
      </trkpt>
      <trkpt lat="35.925565" lon="52.107127">
        <ele>3952.822</ele>
        <time>2021-07-24T01:33:39Z</time>
      </trkpt>
      <trkpt lat="35.925500" lon="52.107264">
        <ele>3953.884</ele>
        <time>2021-07-24T01:34:40Z</time>
      </trkpt>
      <trkpt lat="35.925623" lon="52.107215">
        <ele>3959.532</ele>
        <time>2021-07-24T01:39:48Z</time>
      </trkpt>
      <trkpt lat="35.925583" lon="52.107371">
        <ele>3965.939</ele>
        <time>2021-07-24T01:40:33Z</time>
      </trkpt>
      <trkpt lat="35.925775" lon="52.107337">
        <ele>3971.891</ele>
        <time>2021-07-24T01:42:06Z</time>
      </trkpt>
      <trkpt lat="35.925730" lon="52.107480">
        <ele>3975.634</ele>
        <time>2021-07-24T01:42:46Z</time>
      </trkpt>
      <trkpt lat="35.925922" lon="52.107457">
        <ele>3981.124</ele>
        <time>2021-07-24T01:44:38Z</time>
      </trkpt>
      <trkpt lat="35.926024" lon="52.107517">
        <ele>3986.669</ele>
        <time>2021-07-24T01:46:20Z</time>
      </trkpt>
      <trkpt lat="35.925980" lon="52.107671">
        <ele>3990.662</ele>
        <time>2021-07-24T01:47:02Z</time>
      </trkpt>
      <trkpt lat="35.926310" lon="52.107754">
        <ele>4004.483</ele>
        <time>2021-07-24T01:52:20Z</time>
      </trkpt>
      <trkpt lat="35.926397" lon="52.108100">
        <ele>4012.711</ele>
        <time>2021-07-24T01:55:55Z</time>
      </trkpt>
      <trkpt lat="35.926694" lon="52.107967">
        <ele>4019.708</ele>
        <time>2021-07-24T02:02:24Z</time>
      </trkpt>
      <trkpt lat="35.926992" lon="52.108295">
        <ele>4048.423</ele>
        <time>2021-07-24T02:09:04Z</time>
      </trkpt>
      <trkpt lat="35.927165" lon="52.108225">
        <ele>4053.615</ele>
        <time>2021-07-24T02:11:31Z</time>
      </trkpt>
      <trkpt lat="35.927540" lon="52.109071">
        <ele>4086.053</ele>
        <time>2021-07-24T02:31:25Z</time>
      </trkpt>
      <trkpt lat="35.927820" lon="52.108867">
        <ele>4087.610</ele>
        <time>2021-07-24T02:33:41Z</time>
      </trkpt>
      <trkpt lat="35.927816" lon="52.109191">
        <ele>4085.862</ele>
        <time>2021-07-24T02:35:41Z</time>
      </trkpt>
      <trkpt lat="35.927965" lon="52.109454">
        <ele>4094.775</ele>
        <time>2021-07-24T02:37:31Z</time>
      </trkpt>
      <trkpt lat="35.928340" lon="52.109529">
        <ele>4118.555</ele>
        <time>2021-07-24T02:40:24Z</time>
      </trkpt>
      <trkpt lat="35.928411" lon="52.109735">
        <ele>4116.910</ele>
        <time>2021-07-24T02:41:42Z</time>
      </trkpt>
      <trkpt lat="35.928665" lon="52.109642">
        <ele>4129.185</ele>
        <time>2021-07-24T02:43:46Z</time>
      </trkpt>
      <trkpt lat="35.928771" lon="52.109795">
        <ele>4130.889</ele>
        <time>2021-07-24T02:45:07Z</time>
      </trkpt>
      <trkpt lat="35.928875" lon="52.109700">
        <ele>4137.917</ele>
        <time>2021-07-24T02:47:17Z</time>
      </trkpt>
      <trkpt lat="35.929072" lon="52.109888">
        <ele>4144.708</ele>
        <time>2021-07-24T02:49:47Z</time>
      </trkpt>
      <trkpt lat="35.929232" lon="52.109691">
        <ele>4159.455</ele>
        <time>2021-07-24T02:52:20Z</time>
      </trkpt>
      <trkpt lat="35.929402" lon="52.109749">
        <ele>4169.967</ele>
        <time>2021-07-24T02:55:10Z</time>
      </trkpt>
      <trkpt lat="35.929433" lon="52.109593">
        <ele>4172.015</ele>
        <time>2021-07-24T02:55:52Z</time>
      </trkpt>
      <trkpt lat="35.929582" lon="52.109759">
        <ele>4177.162</ele>
        <time>2021-07-24T02:57:32Z</time>
      </trkpt>
      <trkpt lat="35.929992" lon="52.109293">
        <ele>4192.494</ele>
        <time>2021-07-24T03:02:52Z</time>
      </trkpt>
      <trkpt lat="35.930018" lon="52.109447">
        <ele>4194.527</ele>
        <time>2021-07-24T03:04:04Z</time>
      </trkpt>
      <trkpt lat="35.930366" lon="52.109326">
        <ele>4209.377</ele>
        <time>2021-07-24T03:07:53Z</time>
      </trkpt>
      <trkpt lat="35.930525" lon="52.109419">
        <ele>4218.342</ele>
        <time>2021-07-24T03:12:37Z</time>
      </trkpt>
      <trkpt lat="35.931298" lon="52.108850">
        <ele>4251.581</ele>
        <time>2021-07-24T03:22:29Z</time>
      </trkpt>
      <trkpt lat="35.931484" lon="52.109057">
        <ele>4251.561</ele>
        <time>2021-07-24T03:24:20Z</time>
      </trkpt>
      <trkpt lat="35.931435" lon="52.108902">
        <ele>4259.117</ele>
        <time>2021-07-24T03:24:26Z</time>
      </trkpt>
      <trkpt lat="35.931525" lon="52.109562">
        <ele>4260.008</ele>
        <time>2021-07-24T22:16:51Z</time>
      </trkpt>
      <trkpt lat="35.931584" lon="52.109084">
        <ele>4257.765</ele>
        <time>2021-07-24T22:22:00Z</time>
      </trkpt>
      <trkpt lat="35.931724" lon="52.109054">
        <ele>4266.587</ele>
        <time>2021-07-24T22:23:29Z</time>
      </trkpt>
      <trkpt lat="35.932046" lon="52.109383">
        <ele>4283.065</ele>
        <time>2021-07-24T22:28:47Z</time>
      </trkpt>
      <trkpt lat="35.932114" lon="52.109255">
        <ele>4284.672</ele>
        <time>2021-07-24T22:29:38Z</time>
      </trkpt>
      <trkpt lat="35.932180" lon="52.109395">
        <ele>4289.194</ele>
        <time>2021-07-24T22:30:21Z</time>
      </trkpt>
      <trkpt lat="35.932351" lon="52.109270">
        <ele>4295.417</ele>
        <time>2021-07-24T22:32:22Z</time>
      </trkpt>
      <trkpt lat="35.932467" lon="52.109445">
        <ele>4302.767</ele>
        <time>2021-07-24T22:33:43Z</time>
      </trkpt>
      <trkpt lat="35.932525" lon="52.109298">
        <ele>4303.892</ele>
        <time>2021-07-24T22:34:35Z</time>
      </trkpt>
      <trkpt lat="35.932681" lon="52.109271">
        <ele>4310.424</ele>
        <time>2021-07-24T22:36:22Z</time>
      </trkpt>
      <trkpt lat="35.933102" lon="52.109468">
        <ele>4328.804</ele>
        <time>2021-07-24T22:42:00Z</time>
      </trkpt>
      <trkpt lat="35.933180" lon="52.109340">
        <ele>4333.614</ele>
        <time>2021-07-24T22:42:54Z</time>
      </trkpt>
      <trkpt lat="35.933396" lon="52.109450">
        <ele>4341.508</ele>
        <time>2021-07-24T22:45:37Z</time>
      </trkpt>
      <trkpt lat="35.933731" lon="52.109385">
        <ele>4353.529</ele>
        <time>2021-07-24T22:49:23Z</time>
      </trkpt>
      <trkpt lat="35.933875" lon="52.109543">
        <ele>4357.351</ele>
        <time>2021-07-24T22:51:51Z</time>
      </trkpt>
      <trkpt lat="35.934084" lon="52.109426">
        <ele>4370.319</ele>
        <time>2021-07-24T22:53:47Z</time>
      </trkpt>
      <trkpt lat="35.934165" lon="52.109549">
        <ele>4368.166</ele>
        <time>2021-07-24T22:54:56Z</time>
      </trkpt>
      <trkpt lat="35.934433" lon="52.109491">
        <ele>4379.758</ele>
        <time>2021-07-24T22:57:44Z</time>
      </trkpt>
      <trkpt lat="35.934730" lon="52.109333">
        <ele>4392.531</ele>
        <time>2021-07-24T23:00:44Z</time>
      </trkpt>
      <trkpt lat="35.935267" lon="52.109343">
        <ele>4414.751</ele>
        <time>2021-07-24T23:06:52Z</time>
      </trkpt>
      <trkpt lat="35.935328" lon="52.109484">
        <ele>4417.856</ele>
        <time>2021-07-24T23:08:03Z</time>
      </trkpt>
      <trkpt lat="35.935489" lon="52.109342">
        <ele>4425.491</ele>
        <time>2021-07-24T23:09:49Z</time>
      </trkpt>
      <trkpt lat="35.935576" lon="52.109458">
        <ele>4431.981</ele>
        <time>2021-07-24T23:11:19Z</time>
      </trkpt>
      <trkpt lat="35.935882" lon="52.109424">
        <ele>4444.819</ele>
        <time>2021-07-24T23:15:28Z</time>
      </trkpt>
      <trkpt lat="35.935932" lon="52.109573">
        <ele>4447.508</ele>
        <time>2021-07-24T23:16:39Z</time>
      </trkpt>
      <trkpt lat="35.936046" lon="52.109523">
        <ele>4455.466</ele>
        <time>2021-07-24T23:18:07Z</time>
      </trkpt>
      <trkpt lat="35.936129" lon="52.109632">
        <ele>4460.648</ele>
        <time>2021-07-24T23:19:34Z</time>
      </trkpt>
      <trkpt lat="35.936289" lon="52.109567">
        <ele>4469.186</ele>
        <time>2021-07-24T23:21:43Z</time>
      </trkpt>
      <trkpt lat="35.936463" lon="52.109769">
        <ele>4482.743</ele>
        <time>2021-07-24T23:25:50Z</time>
      </trkpt>
      <trkpt lat="35.936917" lon="52.109695">
        <ele>4508.795</ele>
        <time>2021-07-24T23:33:26Z</time>
      </trkpt>
      <trkpt lat="35.937126" lon="52.109866">
        <ele>4523.418</ele>
        <time>2021-07-24T23:37:23Z</time>
      </trkpt>
      <trkpt lat="35.937191" lon="52.110181">
        <ele>4536.818</ele>
        <time>2021-07-24T23:40:53Z</time>
      </trkpt>
      <trkpt lat="35.937549" lon="52.110180">
        <ele>4552.453</ele>
        <time>2021-07-24T23:49:45Z</time>
      </trkpt>
      <trkpt lat="35.938212" lon="52.109893">
        <ele>4589.829</ele>
        <time>2021-07-25T00:00:12Z</time>
      </trkpt>
      <trkpt lat="35.938328" lon="52.109939">
        <ele>4597.800</ele>
        <time>2021-07-25T00:01:14Z</time>
      </trkpt>
      <trkpt lat="35.938703" lon="52.109696">
        <ele>4620.120</ele>
        <time>2021-07-25T00:23:23Z</time>
      </trkpt>
      <trkpt lat="35.939634" lon="52.109650">
        <ele>4679.708</ele>
        <time>2021-07-25T00:38:14Z</time>
      </trkpt>
      <trkpt lat="35.939987" lon="52.109502">
        <ele>4706.369</ele>
        <time>2021-07-25T00:46:36Z</time>
      </trkpt>
      <trkpt lat="35.940173" lon="52.109583">
        <ele>4716.941</ele>
        <time>2021-07-25T00:49:40Z</time>
      </trkpt>
      <trkpt lat="35.940659" lon="52.109302">
        <ele>4751.119</ele>
        <time>2021-07-25T01:00:15Z</time>
      </trkpt>
      <trkpt lat="35.940752" lon="52.109406">
        <ele>4759.396</ele>
        <time>2021-07-25T01:02:42Z</time>
      </trkpt>
      <trkpt lat="35.940952" lon="52.109374">
        <ele>4773.578</ele>
        <time>2021-07-25T01:07:01Z</time>
      </trkpt>
      <trkpt lat="35.941328" lon="52.109110">
        <ele>4802.621</ele>
        <time>2021-07-25T01:15:26Z</time>
      </trkpt>
      <trkpt lat="35.941473" lon="52.109164">
        <ele>4810.141</ele>
        <time>2021-07-25T01:22:36Z</time>
      </trkpt>
      <trkpt lat="35.941576" lon="52.109064">
        <ele>4815.816</ele>
        <time>2021-07-25T01:24:13Z</time>
      </trkpt>
      <trkpt lat="35.941717" lon="52.109201">
        <ele>4827.949</ele>
        <time>2021-07-25T01:26:50Z</time>
      </trkpt>
      <trkpt lat="35.942025" lon="52.109230">
        <ele>4845.902</ele>
        <time>2021-07-25T01:32:48Z</time>
      </trkpt>
      <trkpt lat="35.942130" lon="52.109038">
        <ele>4843.422</ele>
        <time>2021-07-25T01:36:07Z</time>
      </trkpt>
      <trkpt lat="35.942384" lon="52.109061">
        <ele>4874.008</ele>
        <time>2021-07-25T01:40:56Z</time>
      </trkpt>
      <trkpt lat="35.942533" lon="52.108704">
        <ele>4884.021</ele>
        <time>2021-07-25T01:45:14Z</time>
      </trkpt>
      <trkpt lat="35.942757" lon="52.108535">
        <ele>4897.623</ele>
        <time>2021-07-25T01:48:55Z</time>
      </trkpt>
      <trkpt lat="35.942878" lon="52.108473">
        <ele>4902.231</ele>
        <time>2021-07-25T01:50:35Z</time>
      </trkpt>
      <trkpt lat="35.943080" lon="52.108641">
        <ele>4917.568</ele>
        <time>2021-07-25T01:54:52Z</time>
      </trkpt>
      <trkpt lat="35.943296" lon="52.108485">
        <ele>4932.580</ele>
        <time>2021-07-25T01:59:51Z</time>
      </trkpt>
      <trkpt lat="35.943804" lon="52.108565">
        <ele>4963.423</ele>
        <time>2021-07-25T02:20:56Z</time>
      </trkpt>
      <trkpt lat="35.943937" lon="52.108737">
        <ele>4971.953</ele>
        <time>2021-07-25T02:23:30Z</time>
      </trkpt>
      <trkpt lat="35.944316" lon="52.108562">
        <ele>4998.438</ele>
        <time>2021-07-25T02:31:22Z</time>
      </trkpt>
      <trkpt lat="35.944481" lon="52.108867">
        <ele>5002.235</ele>
        <time>2021-07-25T02:35:28Z</time>
      </trkpt>
      <trkpt lat="35.944710" lon="52.108666">
        <ele>5025.886</ele>
        <time>2021-07-25T02:43:04Z</time>
      </trkpt>
      <trkpt lat="35.944922" lon="52.108677">
        <ele>5040.014</ele>
        <time>2021-07-25T02:48:05Z</time>
      </trkpt>
      <trkpt lat="35.945255" lon="52.109299">
        <ele>5070.408</ele>
        <time>2021-07-25T03:04:23Z</time>
      </trkpt>
      <trkpt lat="35.945661" lon="52.109147">
        <ele>5104.480</ele>
        <time>2021-07-25T03:13:13Z</time>
      </trkpt>
      <trkpt lat="35.945941" lon="52.109384">
        <ele>5116.072</ele>
        <time>2021-07-25T03:24:08Z</time>
      </trkpt>
      <trkpt lat="35.946167" lon="52.109132">
        <ele>5137.020</ele>
        <time>2021-07-25T03:32:48Z</time>
      </trkpt>
      <trkpt lat="35.946821" lon="52.109375">
        <ele>5182.277</ele>
        <time>2021-07-25T03:49:23Z</time>
      </trkpt>
      <trkpt lat="35.946932" lon="52.109291">
        <ele>5188.539</ele>
        <time>2021-07-25T03:51:16Z</time>
      </trkpt>
      <trkpt lat="35.947935" lon="52.109973">
        <ele>5227.682</ele>
        <time>2021-07-25T04:18:20Z</time>
      </trkpt>
      <trkpt lat="35.947845" lon="52.109867">
        <ele>5246.152</ele>
        <time>2021-07-25T04:18:37Z</time>
      </trkpt>
      <trkpt lat="35.948205" lon="52.109678">
        <ele>5267.017</ele>
        <time>2021-07-25T04:33:07Z</time>
      </trkpt>
      <trkpt lat="35.948520" lon="52.110042">
        <ele>5287.665</ele>
        <time>2021-07-25T04:40:52Z</time>
      </trkpt>
      <trkpt lat="35.948696" lon="52.109999">
        <ele>5292.368</ele>
        <time>2021-07-25T04:43:16Z</time>
      </trkpt>
      <trkpt lat="35.948720" lon="52.110161">
        <ele>5295.014</ele>
        <time>2021-07-25T04:44:56Z</time>
      </trkpt>
      <trkpt lat="35.949163" lon="52.109999">
        <ele>5329.108</ele>
        <time>2021-07-25T04:54:32Z</time>
      </trkpt>
      <trkpt lat="35.949291" lon="52.110379">
        <ele>5338.153</ele>
        <time>2021-07-25T04:59:52Z</time>
      </trkpt>
      <trkpt lat="35.949780" lon="52.110253">
        <ele>5369.045</ele>
        <time>2021-07-25T05:11:55Z</time>
      </trkpt>
      <trkpt lat="35.950131" lon="52.110518">
        <ele>5405.813</ele>
        <time>2021-07-25T05:24:47Z</time>
      </trkpt>
      <trkpt lat="35.950840" lon="52.110412">
        <ele>5436.780</ele>
        <time>2021-07-25T05:46:39Z</time>
      </trkpt>
      <trkpt lat="35.950983" lon="52.110542">
        <ele>5440.582</ele>
        <time>2021-07-25T05:49:23Z</time>
      </trkpt>
      <trkpt lat="35.951183" lon="52.110352">
        <ele>5450.575</ele>
        <time>2021-07-25T05:52:59Z</time>
      </trkpt>
      <trkpt lat="35.951636" lon="52.110564">
        <ele>5472.675</ele>
        <time>2021-07-25T06:05:30Z</time>
      </trkpt>
      <trkpt lat="35.951842" lon="52.111222">
        <ele>5489.310</ele>
        <time>2021-07-25T06:12:21Z</time>
      </trkpt>
      <trkpt lat="35.954863" lon="52.110827">
        <ele>5627.661</ele>
        <time>2021-07-25T07:05:15Z</time>
      </trkpt>
      <trkpt lat="35.954862" lon="52.110523">
        <ele>5617.321</ele>
        <time>2021-07-25T07:05:43Z</time>
      </trkpt>
      <trkpt lat="35.954470" lon="52.110531">
        <ele>5618.013</ele>
        <time>2021-07-25T07:08:52Z</time>
      </trkpt>
      <trkpt lat="35.954288" lon="52.110303">
        <ele>5620.808</ele>
        <time>2021-07-25T07:11:19Z</time>
      </trkpt>
      <trkpt lat="35.954488" lon="52.110527">
        <ele>5624.183</ele>
        <time>2021-07-25T07:19:43Z</time>
      </trkpt>
      <trkpt lat="35.954863" lon="52.110513">
        <ele>5614.635</ele>
        <time>2021-07-25T07:24:03Z</time>
      </trkpt>
      <trkpt lat="35.954919" lon="52.110671">
        <ele>5613.853</ele>
        <time>2021-07-25T07:24:41Z</time>
      </trkpt>
      <trkpt lat="35.954504" lon="52.111216">
        <ele>5599.410</ele>
        <time>2021-07-25T07:28:12Z</time>
      </trkpt>
      <trkpt lat="35.953898" lon="52.111599">
        <ele>5581.622</ele>
        <time>2021-07-25T07:30:57Z</time>
      </trkpt>
      <trkpt lat="35.953513" lon="52.111685">
        <ele>5566.195</ele>
        <time>2021-07-25T07:33:14Z</time>
      </trkpt>
      <trkpt lat="35.952832" lon="52.111231">
        <ele>5537.175</ele>
        <time>2021-07-25T07:41:39Z</time>
      </trkpt>
      <trkpt lat="35.952020" lon="52.110992">
        <ele>5490.630</ele>
        <time>2021-07-25T07:47:44Z</time>
      </trkpt>
      <trkpt lat="35.951962" lon="52.110850">
        <ele>5486.232</ele>
        <time>2021-07-25T07:48:21Z</time>
      </trkpt>
      <trkpt lat="35.951857" lon="52.110967">
        <ele>5482.292</ele>
        <time>2021-07-25T07:48:45Z</time>
      </trkpt>
      <trkpt lat="35.951700" lon="52.110634">
        <ele>5473.511</ele>
        <time>2021-07-25T07:50:45Z</time>
      </trkpt>
      <trkpt lat="35.951393" lon="52.110572">
        <ele>5455.408</ele>
        <time>2021-07-25T07:53:33Z</time>
      </trkpt>
      <trkpt lat="35.951200" lon="52.110364">
        <ele>5451.280</ele>
        <time>2021-07-25T07:55:13Z</time>
      </trkpt>
      <trkpt lat="35.950886" lon="52.110756">
        <ele>5425.422</ele>
        <time>2021-07-25T08:12:20Z</time>
      </trkpt>
      <trkpt lat="35.950068" lon="52.110920">
        <ele>5380.790</ele>
        <time>2021-07-25T08:17:38Z</time>
      </trkpt>
      <trkpt lat="35.949979" lon="52.111041">
        <ele>5375.587</ele>
        <time>2021-07-25T08:18:12Z</time>
      </trkpt>
      <trkpt lat="35.949486" lon="52.110674">
        <ele>5345.179</ele>
        <time>2021-07-25T08:22:50Z</time>
      </trkpt>
      <trkpt lat="35.949322" lon="52.110813">
        <ele>5339.282</ele>
        <time>2021-07-25T08:24:14Z</time>
      </trkpt>
      <trkpt lat="35.948869" lon="52.110822">
        <ele>5308.882</ele>
        <time>2021-07-25T08:27:04Z</time>
      </trkpt>
      <trkpt lat="35.948207" lon="52.110214">
        <ele>5260.037</ele>
        <time>2021-07-25T08:32:34Z</time>
      </trkpt>
      <trkpt lat="35.947986" lon="52.109813">
        <ele>5245.759</ele>
        <time>2021-07-25T08:34:21Z</time>
      </trkpt>
      <trkpt lat="35.947796" lon="52.109876">
        <ele>5243.703</ele>
        <time>2021-07-25T08:35:31Z</time>
      </trkpt>
      <trkpt lat="35.947808" lon="52.109560">
        <ele>5236.823</ele>
        <time>2021-07-25T09:18:08Z</time>
      </trkpt>
      <trkpt lat="35.947570" lon="52.109288">
        <ele>5218.208</ele>
        <time>2021-07-25T09:19:42Z</time>
      </trkpt>
      <trkpt lat="35.947576" lon="52.108988">
        <ele>5206.232</ele>
        <time>2021-07-25T09:21:00Z</time>
      </trkpt>
      <trkpt lat="35.946960" lon="52.108546">
        <ele>5162.824</ele>
        <time>2021-07-25T09:24:25Z</time>
      </trkpt>
      <trkpt lat="35.946630" lon="52.108507">
        <ele>5132.062</ele>
        <time>2021-07-25T09:26:36Z</time>
      </trkpt>
      <trkpt lat="35.945789" lon="52.107709">
        <ele>5085.369</ele>
        <time>2021-07-25T09:35:00Z</time>
      </trkpt>
      <trkpt lat="35.945780" lon="52.107792">
        <ele>5081.881</ele>
        <time>2021-07-25T09:36:07Z</time>
      </trkpt>
      <trkpt lat="35.945427" lon="52.107793">
        <ele>5058.584</ele>
        <time>2021-07-25T09:38:36Z</time>
      </trkpt>
      <trkpt lat="35.945333" lon="52.107679">
        <ele>5053.194</ele>
        <time>2021-07-25T09:39:25Z</time>
      </trkpt>
      <trkpt lat="35.945149" lon="52.107911">
        <ele>5038.349</ele>
        <time>2021-07-25T09:41:29Z</time>
      </trkpt>
      <trkpt lat="35.944664" lon="52.108019">
        <ele>5003.416</ele>
        <time>2021-07-25T09:47:37Z</time>
      </trkpt>
      <trkpt lat="35.944465" lon="52.107842">
        <ele>4987.976</ele>
        <time>2021-07-25T09:49:30Z</time>
      </trkpt>
      <trkpt lat="35.943994" lon="52.107856">
        <ele>4957.213</ele>
        <time>2021-07-25T09:55:14Z</time>
      </trkpt>
      <trkpt lat="35.943742" lon="52.107658">
        <ele>4942.208</ele>
        <time>2021-07-25T09:58:07Z</time>
      </trkpt>
      <trkpt lat="35.942373" lon="52.107752">
        <ele>4866.928</ele>
        <time>2021-07-25T10:20:53Z</time>
      </trkpt>
      <trkpt lat="35.941299" lon="52.107576">
        <ele>4804.220</ele>
        <time>2021-07-25T10:30:09Z</time>
      </trkpt>
      <trkpt lat="35.940885" lon="52.107798">
        <ele>4772.968</ele>
        <time>2021-07-25T10:34:43Z</time>
      </trkpt>
      <trkpt lat="35.939611" lon="52.107731">
        <ele>4690.495</ele>
        <time>2021-07-25T10:48:35Z</time>
      </trkpt>
      <trkpt lat="35.939037" lon="52.107976">
        <ele>4650.777</ele>
        <time>2021-07-25T10:54:40Z</time>
      </trkpt>
      <trkpt lat="35.938862" lon="52.108307">
        <ele>4631.360</ele>
        <time>2021-07-25T10:59:02Z</time>
      </trkpt>
      <trkpt lat="35.938703" lon="52.108182">
        <ele>4625.770</ele>
        <time>2021-07-25T11:00:25Z</time>
      </trkpt>
      <trkpt lat="35.938248" lon="52.108390">
        <ele>4592.845</ele>
        <time>2021-07-25T11:05:07Z</time>
      </trkpt>
      <trkpt lat="35.937948" lon="52.108317">
        <ele>4559.951</ele>
        <time>2021-07-25T11:07:45Z</time>
      </trkpt>
      <trkpt lat="35.937659" lon="52.108445">
        <ele>4548.601</ele>
        <time>2021-07-25T11:10:33Z</time>
      </trkpt>
      <trkpt lat="35.936734" lon="52.108298">
        <ele>4505.011</ele>
        <time>2021-07-25T11:26:51Z</time>
      </trkpt>
      <trkpt lat="35.936305" lon="52.107992">
        <ele>4469.108</ele>
        <time>2021-07-25T11:31:32Z</time>
      </trkpt>
      <trkpt lat="35.934951" lon="52.108223">
        <ele>4395.612</ele>
        <time>2021-07-25T11:39:25Z</time>
      </trkpt>
      <trkpt lat="35.934620" lon="52.108505">
        <ele>4386.034</ele>
        <time>2021-07-25T11:40:43Z</time>
      </trkpt>
      <trkpt lat="35.934551" lon="52.108363">
        <ele>4381.532</ele>
        <time>2021-07-25T11:41:07Z</time>
      </trkpt>
      <trkpt lat="35.933892" lon="52.108445">
        <ele>4351.669</ele>
        <time>2021-07-25T11:44:09Z</time>
      </trkpt>
      <trkpt lat="35.933608" lon="52.108634">
        <ele>4343.281</ele>
        <time>2021-07-25T11:45:34Z</time>
      </trkpt>
      <trkpt lat="35.932330" lon="52.108138">
        <ele>4293.694</ele>
        <time>2021-07-25T11:53:50Z</time>
      </trkpt>
      <trkpt lat="35.931632" lon="52.108562">
        <ele>4257.994</ele>
        <time>2021-07-25T11:58:45Z</time>
      </trkpt>
      <trkpt lat="35.931536" lon="52.108865">
        <ele>4260.879</ele>
        <time>2021-07-25T11:59:29Z</time>
      </trkpt>
      <trkpt lat="35.931343" lon="52.108884">
        <ele>4263.426</ele>
        <time>2021-07-25T12:00:00Z</time>
      </trkpt>
      <trkpt lat="35.931485" lon="52.108956">
        <ele>4259.447</ele>
        <time>2021-07-25T12:01:15Z</time>
      </trkpt>
      <trkpt lat="35.931273" lon="52.108867">
        <ele>4252.511</ele>
        <time>2021-07-25T17:09:20Z</time>
      </trkpt>
      <trkpt lat="35.931052" lon="52.109310">
        <ele>4236.908</ele>
        <time>2021-07-25T17:12:26Z</time>
      </trkpt>
      <trkpt lat="35.930875" lon="52.109246">
        <ele>4229.329</ele>
        <time>2021-07-25T17:13:47Z</time>
      </trkpt>
      <trkpt lat="35.930498" lon="52.109480">
        <ele>4214.961</ele>
        <time>2021-07-25T17:17:25Z</time>
      </trkpt>
      <trkpt lat="35.930413" lon="52.109362">
        <ele>4213.849</ele>
        <time>2021-07-25T17:18:04Z</time>
      </trkpt>
      <trkpt lat="35.930236" lon="52.109479">
        <ele>4203.536</ele>
        <time>2021-07-25T17:19:08Z</time>
      </trkpt>
      <trkpt lat="35.929963" lon="52.109305">
        <ele>4193.028</ele>
        <time>2021-07-25T17:21:32Z</time>
      </trkpt>
      <trkpt lat="35.929646" lon="52.109777">
        <ele>4177.181</ele>
        <time>2021-07-25T17:23:59Z</time>
      </trkpt>
      <trkpt lat="35.929445" lon="52.109582">
        <ele>4170.971</ele>
        <time>2021-07-25T17:25:10Z</time>
      </trkpt>
      <trkpt lat="35.929368" lon="52.109803">
        <ele>4163.726</ele>
        <time>2021-07-25T17:26:02Z</time>
      </trkpt>
      <trkpt lat="35.929264" lon="52.109703">
        <ele>4162.938</ele>
        <time>2021-07-25T17:26:39Z</time>
      </trkpt>
      <trkpt lat="35.929141" lon="52.109890">
        <ele>4150.570</ele>
        <time>2021-07-25T17:28:03Z</time>
      </trkpt>
      <trkpt lat="35.928878" lon="52.109685">
        <ele>4142.617</ele>
        <time>2021-07-25T17:29:54Z</time>
      </trkpt>
      <trkpt lat="35.928722" lon="52.109830">
        <ele>4133.608</ele>
        <time>2021-07-25T17:30:57Z</time>
      </trkpt>
      <trkpt lat="35.928675" lon="52.109677">
        <ele>4133.160</ele>
        <time>2021-07-25T17:31:30Z</time>
      </trkpt>
      <trkpt lat="35.928427" lon="52.109754">
        <ele>4120.972</ele>
        <time>2021-07-25T17:32:57Z</time>
      </trkpt>
      <trkpt lat="35.928355" lon="52.109544">
        <ele>4120.890</ele>
        <time>2021-07-25T17:34:01Z</time>
      </trkpt>
      <trkpt lat="35.928044" lon="52.109503">
        <ele>4105.947</ele>
        <time>2021-07-25T17:36:21Z</time>
      </trkpt>
      <trkpt lat="35.927828" lon="52.108850">
        <ele>4095.979</ele>
        <time>2021-07-25T17:40:29Z</time>
      </trkpt>
      <trkpt lat="35.927521" lon="52.109031">
        <ele>4083.592</ele>
        <time>2021-07-25T17:42:52Z</time>
      </trkpt>
      <trkpt lat="35.927290" lon="52.108661">
        <ele>4072.582</ele>
        <time>2021-07-25T17:45:07Z</time>
      </trkpt>
      <trkpt lat="35.927322" lon="52.108426">
        <ele>4068.827</ele>
        <time>2021-07-25T17:46:05Z</time>
      </trkpt>
      <trkpt lat="35.927200" lon="52.108454">
        <ele>4059.923</ele>
        <time>2021-07-25T17:47:01Z</time>
      </trkpt>
      <trkpt lat="35.927176" lon="52.108292">
        <ele>4056.783</ele>
        <time>2021-07-25T17:48:13Z</time>
      </trkpt>
      <trkpt lat="35.926997" lon="52.108342">
        <ele>4050.911</ele>
        <time>2021-07-25T17:51:08Z</time>
      </trkpt>
      <trkpt lat="35.926861" lon="52.108023">
        <ele>4037.408</ele>
        <time>2021-07-25T17:54:07Z</time>
      </trkpt>
      <trkpt lat="35.926404" lon="52.108134">
        <ele>4016.239</ele>
        <time>2021-07-25T17:59:17Z</time>
      </trkpt>
      <trkpt lat="35.926350" lon="52.107830">
        <ele>4009.821</ele>
        <time>2021-07-25T18:01:11Z</time>
      </trkpt>
      <trkpt lat="35.926018" lon="52.107726">
        <ele>3996.669</ele>
        <time>2021-07-25T18:04:20Z</time>
      </trkpt>
      <trkpt lat="35.926027" lon="52.107566">
        <ele>3995.116</ele>
        <time>2021-07-25T18:05:34Z</time>
      </trkpt>
      <trkpt lat="35.925773" lon="52.107531">
        <ele>3984.518</ele>
        <time>2021-07-25T18:09:12Z</time>
      </trkpt>
      <trkpt lat="35.925806" lon="52.107379">
        <ele>3975.941</ele>
        <time>2021-07-25T18:10:28Z</time>
      </trkpt>
      <trkpt lat="35.925612" lon="52.107423">
        <ele>3974.281</ele>
        <time>2021-07-25T18:11:46Z</time>
      </trkpt>
      <trkpt lat="35.925649" lon="52.107266">
        <ele>3966.056</ele>
        <time>2021-07-25T18:13:41Z</time>
      </trkpt>
      <trkpt lat="35.925521" lon="52.107287">
        <ele>3966.331</ele>
        <time>2021-07-25T18:14:54Z</time>
      </trkpt>
      <trkpt lat="35.925372" lon="52.106905">
        <ele>3949.361</ele>
        <time>2021-07-25T18:18:37Z</time>
      </trkpt>
      <trkpt lat="35.925002" lon="52.106895">
        <ele>3935.007</ele>
        <time>2021-07-25T18:21:42Z</time>
      </trkpt>
      <trkpt lat="35.925038" lon="52.106577">
        <ele>3924.408</ele>
        <time>2021-07-25T18:23:19Z</time>
      </trkpt>
      <trkpt lat="35.924849" lon="52.106611">
        <ele>3921.240</ele>
        <time>2021-07-25T18:24:36Z</time>
      </trkpt>
      <trkpt lat="35.924726" lon="52.106356">
        <ele>3904.062</ele>
        <time>2021-07-25T18:27:28Z</time>
      </trkpt>
      <trkpt lat="35.924544" lon="52.106465">
        <ele>3899.040</ele>
        <time>2021-07-25T18:28:24Z</time>
      </trkpt>
      <trkpt lat="35.924580" lon="52.106305">
        <ele>3896.777</ele>
        <time>2021-07-25T18:41:46Z</time>
      </trkpt>
      <trkpt lat="35.924327" lon="52.106262">
        <ele>3881.859</ele>
        <time>2021-07-25T18:43:49Z</time>
      </trkpt>
      <trkpt lat="35.924236" lon="52.106063">
        <ele>3870.652</ele>
        <time>2021-07-25T18:45:14Z</time>
      </trkpt>
      <trkpt lat="35.924032" lon="52.106190">
        <ele>3863.122</ele>
        <time>2021-07-25T18:47:12Z</time>
      </trkpt>
      <trkpt lat="35.923512" lon="52.106121">
        <ele>3829.957</ele>
        <time>2021-07-25T18:52:19Z</time>
      </trkpt>
      <trkpt lat="35.923519" lon="52.105717">
        <ele>3824.328</ele>
        <time>2021-07-25T18:54:23Z</time>
      </trkpt>
      <trkpt lat="35.923306" lon="52.105724">
        <ele>3816.089</ele>
        <time>2021-07-25T18:56:41Z</time>
      </trkpt>
      <trkpt lat="35.923198" lon="52.105536">
        <ele>3801.717</ele>
        <time>2021-07-25T18:58:25Z</time>
      </trkpt>
      <trkpt lat="35.922606" lon="52.105555">
        <ele>3781.608</ele>
        <time>2021-07-25T19:04:03Z</time>
      </trkpt>
      <trkpt lat="35.922408" lon="52.105410">
        <ele>3772.019</ele>
        <time>2021-07-25T19:06:16Z</time>
      </trkpt>
      <trkpt lat="35.922170" lon="52.105533">
        <ele>3758.981</ele>
        <time>2021-07-25T19:08:02Z</time>
      </trkpt>
      <trkpt lat="35.922165" lon="52.105450">
        <ele>3758.459</ele>
        <time>2021-07-25T19:09:35Z</time>
      </trkpt>
      <trkpt lat="35.921608" lon="52.105425">
        <ele>3744.236</ele>
        <time>2021-07-25T19:26:43Z</time>
      </trkpt>
      <trkpt lat="35.921447" lon="52.105249">
        <ele>3732.238</ele>
        <time>2021-07-25T19:28:44Z</time>
      </trkpt>
      <trkpt lat="35.920840" lon="52.105103">
        <ele>3710.961</ele>
        <time>2021-07-25T19:33:39Z</time>
      </trkpt>
      <trkpt lat="35.920878" lon="52.104948">
        <ele>3705.711</ele>
        <time>2021-07-25T19:34:13Z</time>
      </trkpt>
      <trkpt lat="35.920770" lon="52.104946">
        <ele>3699.666</ele>
        <time>2021-07-25T19:35:02Z</time>
      </trkpt>
      <trkpt lat="35.920513" lon="52.104159">
        <ele>3688.369</ele>
        <time>2021-07-25T19:40:59Z</time>
      </trkpt>
      <trkpt lat="35.920223" lon="52.104347">
        <ele>3673.304</ele>
        <time>2021-07-25T19:43:03Z</time>
      </trkpt>
      <trkpt lat="35.920103" lon="52.103981">
        <ele>3667.424</ele>
        <time>2021-07-25T19:44:37Z</time>
      </trkpt>
      <trkpt lat="35.919741" lon="52.103534">
        <ele>3655.308</ele>
        <time>2021-07-25T19:46:55Z</time>
      </trkpt>
      <trkpt lat="35.919684" lon="52.103680">
        <ele>3646.533</ele>
        <time>2021-07-25T19:47:20Z</time>
      </trkpt>
      <trkpt lat="35.919471" lon="52.103510">
        <ele>3642.655</ele>
        <time>2021-07-25T19:48:54Z</time>
      </trkpt>
      <trkpt lat="35.919341" lon="52.103667">
        <ele>3636.933</ele>
        <time>2021-07-25T19:49:44Z</time>
      </trkpt>
      <trkpt lat="35.919302" lon="52.103515">
        <ele>3633.710</ele>
        <time>2021-07-25T19:50:21Z</time>
      </trkpt>
      <trkpt lat="35.919030" lon="52.103545">
        <ele>3613.252</ele>
        <time>2021-07-25T19:52:33Z</time>
      </trkpt>
      <trkpt lat="35.918539" lon="52.103304">
        <ele>3599.825</ele>
        <time>2021-07-25T19:56:04Z</time>
      </trkpt>
      <trkpt lat="35.918434" lon="52.103503">
        <ele>3584.245</ele>
        <time>2021-07-25T19:57:05Z</time>
      </trkpt>
      <trkpt lat="35.917777" lon="52.102961">
        <ele>3574.320</ele>
        <time>2021-07-25T20:02:53Z</time>
      </trkpt>
      <trkpt lat="35.917585" lon="52.103261">
        <ele>3561.623</ele>
        <time>2021-07-25T20:04:51Z</time>
      </trkpt>
      <trkpt lat="35.917266" lon="52.103199">
        <ele>3550.183</ele>
        <time>2021-07-25T20:06:45Z</time>
      </trkpt>
      <trkpt lat="35.917211" lon="52.103356">
        <ele>3543.911</ele>
        <time>2021-07-25T20:07:30Z</time>
      </trkpt>
      <trkpt lat="35.916496" lon="52.103250">
        <ele>3517.608</ele>
        <time>2021-07-25T20:11:38Z</time>
      </trkpt>
      <trkpt lat="35.916031" lon="52.103591">
        <ele>3499.779</ele>
        <time>2021-07-25T20:27:54Z</time>
      </trkpt>
      <trkpt lat="35.915536" lon="52.103337">
        <ele>3484.461</ele>
        <time>2021-07-25T20:32:46Z</time>
      </trkpt>
      <trkpt lat="35.915279" lon="52.103599">
        <ele>3471.069</ele>
        <time>2021-07-25T20:35:22Z</time>
      </trkpt>
      <trkpt lat="35.915089" lon="52.103539">
        <ele>3465.196</ele>
        <time>2021-07-25T20:37:03Z</time>
      </trkpt>
      <trkpt lat="35.914801" lon="52.103714">
        <ele>3455.058</ele>
        <time>2021-07-25T20:39:11Z</time>
      </trkpt>
      <trkpt lat="35.914703" lon="52.103918">
        <ele>3453.561</ele>
        <time>2021-07-25T20:40:06Z</time>
      </trkpt>
      <trkpt lat="35.914152" lon="52.103865">
        <ele>3435.861</ele>
        <time>2021-07-25T20:45:37Z</time>
      </trkpt>
      <trkpt lat="35.913997" lon="52.104010">
        <ele>3429.316</ele>
        <time>2021-07-25T20:59:54Z</time>
      </trkpt>
      <trkpt lat="35.913803" lon="52.103933">
        <ele>3428.153</ele>
        <time>2021-07-25T21:00:31Z</time>
      </trkpt>
      <trkpt lat="35.913559" lon="52.104268">
        <ele>3422.904</ele>
        <time>2021-07-25T21:01:48Z</time>
      </trkpt>
      <trkpt lat="35.913008" lon="52.104401">
        <ele>3401.314</ele>
        <time>2021-07-25T21:05:13Z</time>
      </trkpt>
      <trkpt lat="35.912467" lon="52.104847">
        <ele>3382.508</ele>
        <time>2021-07-25T21:08:23Z</time>
      </trkpt>
      <trkpt lat="35.912094" lon="52.104918">
        <ele>3370.182</ele>
        <time>2021-07-25T21:14:17Z</time>
      </trkpt>
      <trkpt lat="35.911761" lon="52.105255">
        <ele>3357.374</ele>
        <time>2021-07-25T21:17:02Z</time>
      </trkpt>
      <trkpt lat="35.911198" lon="52.105204">
        <ele>3341.812</ele>
        <time>2021-07-25T21:20:30Z</time>
      </trkpt>
      <trkpt lat="35.910766" lon="52.105473">
        <ele>3326.379</ele>
        <time>2021-07-25T21:23:21Z</time>
      </trkpt>
      <trkpt lat="35.910309" lon="52.105472">
        <ele>3310.721</ele>
        <time>2021-07-25T21:26:20Z</time>
      </trkpt>
      <trkpt lat="35.910167" lon="52.105647">
        <ele>3299.754</ele>
        <time>2021-07-25T21:27:25Z</time>
      </trkpt>
      <trkpt lat="35.909782" lon="52.105448">
        <ele>3288.454</ele>
        <time>2021-07-25T21:31:04Z</time>
      </trkpt>
      <trkpt lat="35.909441" lon="52.105668">
        <ele>3279.169</ele>
        <time>2021-07-25T21:34:36Z</time>
      </trkpt>
      <trkpt lat="35.909367" lon="52.105445">
        <ele>3273.866</ele>
        <time>2021-07-25T21:36:01Z</time>
      </trkpt>
      <trkpt lat="35.909200" lon="52.105566">
        <ele>3265.029</ele>
        <time>2021-07-25T21:37:41Z</time>
      </trkpt>
      <trkpt lat="35.908965" lon="52.105400">
        <ele>3255.521</ele>
        <time>2021-07-25T21:43:44Z</time>
      </trkpt>
      <trkpt lat="35.908832" lon="52.105487">
        <ele>3248.508</ele>
        <time>2021-07-25T21:44:58Z</time>
      </trkpt>
      <trkpt lat="35.908683" lon="52.105327">
        <ele>3243.713</ele>
        <time>2021-07-25T21:46:05Z</time>
      </trkpt>
      <trkpt lat="35.908430" lon="52.105754">
        <ele>3231.145</ele>
        <time>2021-07-25T21:48:33Z</time>
      </trkpt>
      <trkpt lat="35.908410" lon="52.105675">
        <ele>3229.833</ele>
        <time>2021-07-25T21:48:49Z</time>
      </trkpt>
      <trkpt lat="35.907981" lon="52.105805">
        <ele>3215.660</ele>
        <time>2021-07-25T21:51:22Z</time>
      </trkpt>
      <trkpt lat="35.906916" lon="52.106331">
        <ele>3187.452</ele>
        <time>2021-07-25T21:56:50Z</time>
      </trkpt>
      <trkpt lat="35.906334" lon="52.106360">
        <ele>3178.475</ele>
        <time>2021-07-25T21:59:09Z</time>
      </trkpt>
      <trkpt lat="35.906171" lon="52.106571">
        <ele>3175.265</ele>
        <time>2021-07-25T22:00:34Z</time>
      </trkpt>
      <trkpt lat="35.905736" lon="52.106654">
        <ele>3160.360</ele>
        <time>2021-07-25T22:02:59Z</time>
      </trkpt>
      <trkpt lat="35.905701" lon="52.106859">
        <ele>3152.121</ele>
        <time>2021-07-25T22:04:20Z</time>
      </trkpt>
      <trkpt lat="35.905146" lon="52.107360">
        <ele>3129.141</ele>
        <time>2021-07-25T22:07:27Z</time>
      </trkpt>
      <trkpt lat="35.904951" lon="52.107351">
        <ele>3124.305</ele>
        <time>2021-07-25T22:08:09Z</time>
      </trkpt>
      <trkpt lat="35.904783" lon="52.107571">
        <ele>3118.608</ele>
        <time>2021-07-25T22:09:02Z</time>
      </trkpt>
      <trkpt lat="35.904671" lon="52.107491">
        <ele>3114.589</ele>
        <time>2021-07-25T22:11:02Z</time>
      </trkpt>
      <trkpt lat="35.904247" lon="52.107650">
        <ele>3103.241</ele>
        <time>2021-07-25T22:12:19Z</time>
      </trkpt>
      <trkpt lat="35.903897" lon="52.108433">
        <ele>3091.799</ele>
        <time>2021-07-25T22:16:00Z</time>
      </trkpt>
      <trkpt lat="35.903314" lon="52.108944">
        <ele>3078.926</ele>
        <time>2021-07-25T22:19:07Z</time>
      </trkpt>
      <trkpt lat="35.902498" lon="52.109247">
        <ele>3051.788</ele>
        <time>2021-07-25T22:22:57Z</time>
      </trkpt>
      <trkpt lat="35.902206" lon="52.109531">
        <ele>3038.531</ele>
        <time>2021-07-25T22:24:28Z</time>
      </trkpt>
      <trkpt lat="35.901883" lon="52.109491">
        <ele>3031.581</ele>
        <time>2021-07-25T22:25:48Z</time>
      </trkpt>
      <trkpt lat="35.901956" lon="52.109287">
        <ele>3033.346</ele>
        <time>2021-07-25T22:42:09Z</time>
      </trkpt>
    </trkseg>
  </trk></gpx>