<?xml version="1.0" encoding="UTF-8"?>
<gpx creator="Wikiloc - https://www.wikiloc.com" version="1.1" xmlns="http://www.topografix.com/GPX/1/1" xmlns:xsi="http://www.w3.org/2001/XMLSchema-instance" xsi:schemaLocation="http://www.topografix.com/GPX/1/1 http://www.topografix.com/GPX/1/1/gpx.xsd">
  <metadata>
    <name>Wikiloc - صعود سنبران و فرود به دریاچه گهر</name>
    <link href="https://www.wikiloc.com/hiking-trails/swd-snbrn-w-frwd-bh-drychh-ghr-73980003">
      <text>صعود سنبران و فرود به دریاچه گهر - Wikiloc on Wikiloc</text>
    </link>
    <time>2021-05-14T09:10:21Z</time>
  </metadata>
  <wpt lat="33.419050" lon="49.287373">
    <ele>1778.0</ele>
    <time>2021-05-12T00:07:31Z</time>
    <name>مسجد ابوالفضل محل</name>
    <cmt></cmt>
    <desc></desc>
  </wpt>
  <wpt lat="33.407534" lon="49.298219">
    <ele>2068.0</ele>
    <time>2021-05-12T01:30:42Z</time>
    <name>بسمت جانپناه</name>
    <cmt></cmt>
    <desc></desc>
  </wpt>
  <wpt lat="33.397788" lon="49.290953">
    <ele>2286.5</ele>
    <time>2021-05-12T02:24:39Z</time>
    <name>جهت جانپناه</name>
    <cmt></cmt>
    <desc></desc>
  </wpt>
  <wpt lat="33.387131" lon="49.290551">
    <ele>2523.8</ele>
    <time>2021-05-12T03:04:23Z</time>
    <name>کمپ عشایر</name>
    <cmt></cmt>
    <desc></desc>
  </wpt>
  <wpt lat="33.382099" lon="49.293630">
    <ele>2617.7</ele>
    <time>2021-05-12T03:29:42Z</time>
    <name>دشت سرسبز و جوی آب</name>
    <cmt></cmt>
    <desc></desc>
  </wpt>
  <wpt lat="33.371900" lon="49.300820">
    <ele>2757.3</ele>
    <time>2021-05-12T04:55:45Z</time>
    <name>جانپناه</name>
    <cmt></cmt>
    <desc></desc>
  </wpt>
  <wpt lat="33.356845" lon="49.299545">
    <ele>3366.8</ele>
    <time>2021-05-12T07:41:46Z</time>
    <name>سنگ مثغال</name>
    <cmt></cmt>
    <desc></desc>
  </wpt>
  <wpt lat="33.350686" lon="49.297892">
    <ele>3645.2</ele>
    <time>2021-05-12T08:41:23Z</time>
    <name>جانپناه چال کبود</name>
    <cmt></cmt>
    <desc></desc>
  </wpt>
  <wpt lat="33.340217" lon="49.304406">
    <ele>4084.0</ele>
    <time>2021-05-13T04:27:58Z</time>
    <name>قله سنبران ۸/۲۰</name>
    <cmt></cmt>
    <desc></desc>
  </wpt>
  <wpt lat="33.327517" lon="49.292730">
    <ele>2869.2</ele>
    <time>2021-05-13T10:58:20Z</time>
    <name>آبشار قیف سنبران</name>
    <cmt></cmt>
    <desc></desc>
  </wpt>
  <wpt lat="33.313028" lon="49.278287">
    <ele>2363.0</ele>
    <time>2021-05-13T14:08:05Z</time>
    <name>دریاچه گهر</name>
    <cmt></cmt>
    <desc></desc>
  </wpt>
  <wpt lat="33.336543" lon="49.241923">
    <ele>2078.7</ele>
    <time>2021-05-14T05:16:06Z</time>
    <name>پل</name>
    <cmt></cmt>
    <desc></desc>
  </wpt>
  <wpt lat="33.338449" lon="49.238861">
    <ele>2080.0</ele>
    <time>2021-05-14T05:24:25Z</time>
    <name>چشمه</name>
    <cmt></cmt>
    <desc></desc>
  </wpt>
  <wpt lat="33.350755" lon="49.220385">
    <ele>2527.6</ele>
    <time>2021-05-14T06:13:54Z</time>
    <name>ایستگاه خدا قوت</name>
    <cmt></cmt>
    <desc></desc>
  </wpt>
  <wpt lat="33.375522" lon="49.192894">
    <ele>2340.3</ele>
    <time>2021-05-14T07:10:55Z</time>
    <name>پارکینگ ورودی به مسیر گهر</name>
    <cmt></cmt>
    <desc></desc>
  </wpt>
  <trk>
    <name>صعود سنبران و فرود به دریاچه گهر - Wikiloc</name>
    <cmt></cmt>
    <desc></desc>
    <trkseg>
      <trkpt lat="33.419027" lon="49.287377">
        <ele>1801.934</ele>
        <time>2021-05-12T02:35:17Z</time>
      </trkpt>
      <trkpt lat="33.418534" lon="49.287769">
        <ele>1800.555</ele>
        <time>2021-05-12T02:36:14Z</time>
      </trkpt>
      <trkpt lat="33.417877" lon="49.287311">
        <ele>1804.910</ele>
        <time>2021-05-12T02:38:15Z</time>
      </trkpt>
      <trkpt lat="33.415920" lon="49.289679">
        <ele>1831.508</ele>
        <time>2021-05-12T02:42:43Z</time>
      </trkpt>
      <trkpt lat="33.415825" lon="49.290020">
        <ele>1834.820</ele>
        <time>2021-05-12T02:43:16Z</time>
      </trkpt>
      <trkpt lat="33.415879" lon="49.289673">
        <ele>1833.746</ele>
        <time>2021-05-12T02:44:01Z</time>
      </trkpt>
      <trkpt lat="33.416044" lon="49.289725">
        <ele>1832.032</ele>
        <time>2021-05-12T02:44:21Z</time>
      </trkpt>
      <trkpt lat="33.416148" lon="49.290819">
        <ele>1838.371</ele>
        <time>2021-05-12T02:46:01Z</time>
      </trkpt>
      <trkpt lat="33.416571" lon="49.291027">
        <ele>1837.523</ele>
        <time>2021-05-12T02:46:49Z</time>
      </trkpt>
      <trkpt lat="33.416734" lon="49.291293">
        <ele>1841.723</ele>
        <time>2021-05-12T02:47:23Z</time>
      </trkpt>
      <trkpt lat="33.416528" lon="49.291968">
        <ele>1853.963</ele>
        <time>2021-05-12T02:48:44Z</time>
      </trkpt>
      <trkpt lat="33.416249" lon="49.292123">
        <ele>1859.376</ele>
        <time>2021-05-12T02:49:35Z</time>
      </trkpt>
      <trkpt lat="33.415984" lon="49.292584">
        <ele>1871.057</ele>
        <time>2021-05-12T02:50:50Z</time>
      </trkpt>
      <trkpt lat="33.415599" lon="49.294541">
        <ele>1879.300</ele>
        <time>2021-05-12T02:55:08Z</time>
      </trkpt>
      <trkpt lat="33.415031" lon="49.294568">
        <ele>1889.320</ele>
        <time>2021-05-12T02:56:37Z</time>
      </trkpt>
      <trkpt lat="33.414685" lon="49.293774">
        <ele>1899.708</ele>
        <time>2021-05-12T02:58:26Z</time>
      </trkpt>
      <trkpt lat="33.414284" lon="49.293555">
        <ele>1915.092</ele>
        <time>2021-05-12T03:00:06Z</time>
      </trkpt>
      <trkpt lat="33.413745" lon="49.295085">
        <ele>1945.548</ele>
        <time>2021-05-12T03:08:09Z</time>
      </trkpt>
      <trkpt lat="33.413398" lon="49.295557">
        <ele>1956.064</ele>
        <time>2021-05-12T03:09:49Z</time>
      </trkpt>
      <trkpt lat="33.412411" lon="49.296139">
        <ele>1993.413</ele>
        <time>2021-05-12T03:13:59Z</time>
      </trkpt>
      <trkpt lat="33.409917" lon="49.296791">
        <ele>2032.895</ele>
        <time>2021-05-12T03:21:56Z</time>
      </trkpt>
      <trkpt lat="33.409204" lon="49.297511">
        <ele>2038.275</ele>
        <time>2021-05-12T03:24:00Z</time>
      </trkpt>
      <trkpt lat="33.407803" lon="49.298254">
        <ele>2064.095</ele>
        <time>2021-05-12T03:29:20Z</time>
      </trkpt>
      <trkpt lat="33.407399" lon="49.298170">
        <ele>2070.548</ele>
        <time>2021-05-12T03:32:20Z</time>
      </trkpt>
      <trkpt lat="33.405787" lon="49.296649">
        <ele>2114.026</ele>
        <time>2021-05-12T03:38:17Z</time>
      </trkpt>
      <trkpt lat="33.404213" lon="49.295479">
        <ele>2162.647</ele>
        <time>2021-05-12T03:46:00Z</time>
      </trkpt>
      <trkpt lat="33.402986" lon="49.293998">
        <ele>2198.011</ele>
        <time>2021-05-12T03:52:08Z</time>
      </trkpt>
      <trkpt lat="33.402582" lon="49.293816">
        <ele>2212.608</ele>
        <time>2021-05-12T03:53:46Z</time>
      </trkpt>
      <trkpt lat="33.402270" lon="49.293354">
        <ele>2220.789</ele>
        <time>2021-05-12T03:55:17Z</time>
      </trkpt>
      <trkpt lat="33.401797" lon="49.293123">
        <ele>2232.745</ele>
        <time>2021-05-12T03:58:03Z</time>
      </trkpt>
      <trkpt lat="33.400966" lon="49.292172">
        <ele>2248.391</ele>
        <time>2021-05-12T04:00:21Z</time>
      </trkpt>
      <trkpt lat="33.400151" lon="49.292093">
        <ele>2268.020</ele>
        <time>2021-05-12T04:18:49Z</time>
      </trkpt>
      <trkpt lat="33.398548" lon="49.291630">
        <ele>2277.192</ele>
        <time>2021-05-12T04:21:30Z</time>
      </trkpt>
      <trkpt lat="33.398050" lon="49.291342">
        <ele>2280.742</ele>
        <time>2021-05-12T04:22:26Z</time>
      </trkpt>
      <trkpt lat="33.397796" lon="49.290946">
        <ele>2287.022</ele>
        <time>2021-05-12T04:24:17Z</time>
      </trkpt>
      <trkpt lat="33.397450" lon="49.290935">
        <ele>2292.935</ele>
        <time>2021-05-12T04:25:41Z</time>
      </trkpt>
      <trkpt lat="33.397212" lon="49.291235">
        <ele>2302.358</ele>
        <time>2021-05-12T04:26:41Z</time>
      </trkpt>
      <trkpt lat="33.396890" lon="49.291134">
        <ele>2312.452</ele>
        <time>2021-05-12T04:28:01Z</time>
      </trkpt>
      <trkpt lat="33.394947" lon="49.292418">
        <ele>2358.217</ele>
        <time>2021-05-12T04:34:44Z</time>
      </trkpt>
      <trkpt lat="33.394251" lon="49.292467">
        <ele>2371.608</ele>
        <time>2021-05-12T04:37:08Z</time>
      </trkpt>
      <trkpt lat="33.393572" lon="49.292772">
        <ele>2389.742</ele>
        <time>2021-05-12T04:39:19Z</time>
      </trkpt>
      <trkpt lat="33.393051" lon="49.292515">
        <ele>2401.718</ele>
        <time>2021-05-12T04:41:09Z</time>
      </trkpt>
      <trkpt lat="33.392462" lon="49.291938">
        <ele>2419.494</ele>
        <time>2021-05-12T04:43:26Z</time>
      </trkpt>
      <trkpt lat="33.392031" lon="49.291827">
        <ele>2430.933</ele>
        <time>2021-05-12T04:44:55Z</time>
      </trkpt>
      <trkpt lat="33.391293" lon="49.291184">
        <ele>2446.055</ele>
        <time>2021-05-12T04:47:52Z</time>
      </trkpt>
      <trkpt lat="33.391101" lon="49.291317">
        <ele>2450.785</ele>
        <time>2021-05-12T04:48:51Z</time>
      </trkpt>
      <trkpt lat="33.390605" lon="49.291299">
        <ele>2460.755</ele>
        <time>2021-05-12T04:53:25Z</time>
      </trkpt>
      <trkpt lat="33.390469" lon="49.291074">
        <ele>2466.238</ele>
        <time>2021-05-12T04:54:07Z</time>
      </trkpt>
      <trkpt lat="33.390348" lon="49.291158">
        <ele>2469.971</ele>
        <time>2021-05-12T04:54:32Z</time>
      </trkpt>
      <trkpt lat="33.390135" lon="49.290935">
        <ele>2475.541</ele>
        <time>2021-05-12T04:55:32Z</time>
      </trkpt>
      <trkpt lat="33.388328" lon="49.290176">
        <ele>2501.715</ele>
        <time>2021-05-12T05:00:46Z</time>
      </trkpt>
      <trkpt lat="33.387302" lon="49.290528">
        <ele>2522.808</ele>
        <time>2021-05-12T05:03:41Z</time>
      </trkpt>
      <trkpt lat="33.385730" lon="49.290800">
        <ele>2563.964</ele>
        <time>2021-05-12T05:10:45Z</time>
      </trkpt>
      <trkpt lat="33.385299" lon="49.291051">
        <ele>2577.850</ele>
        <time>2021-05-12T05:13:28Z</time>
      </trkpt>
      <trkpt lat="33.384546" lon="49.291906">
        <ele>2594.736</ele>
        <time>2021-05-12T05:16:39Z</time>
      </trkpt>
      <trkpt lat="33.383774" lon="49.291887">
        <ele>2595.875</ele>
        <time>2021-05-12T05:18:58Z</time>
      </trkpt>
      <trkpt lat="33.382924" lon="49.292349">
        <ele>2606.187</ele>
        <time>2021-05-12T05:21:56Z</time>
      </trkpt>
      <trkpt lat="33.382401" lon="49.292916">
        <ele>2616.737</ele>
        <time>2021-05-12T05:23:32Z</time>
      </trkpt>
      <trkpt lat="33.381991" lon="49.293829">
        <ele>2617.997</ele>
        <time>2021-05-12T06:13:20Z</time>
      </trkpt>
      <trkpt lat="33.381522" lon="49.294358">
        <ele>2622.760</ele>
        <time>2021-05-12T06:14:18Z</time>
      </trkpt>
      <trkpt lat="33.380744" lon="49.294726">
        <ele>2627.575</ele>
        <time>2021-05-12T06:15:54Z</time>
      </trkpt>
      <trkpt lat="33.380411" lon="49.295039">
        <ele>2629.228</ele>
        <time>2021-05-12T06:16:36Z</time>
      </trkpt>
      <trkpt lat="33.380398" lon="49.295719">
        <ele>2633.720</ele>
        <time>2021-05-12T06:17:34Z</time>
      </trkpt>
      <trkpt lat="33.379992" lon="49.297104">
        <ele>2640.208</ele>
        <time>2021-05-12T06:19:29Z</time>
      </trkpt>
      <trkpt lat="33.379809" lon="49.298714">
        <ele>2640.144</ele>
        <time>2021-05-12T06:22:28Z</time>
      </trkpt>
      <trkpt lat="33.379562" lon="49.299570">
        <ele>2643.680</ele>
        <time>2021-05-12T06:23:44Z</time>
      </trkpt>
      <trkpt lat="33.378855" lon="49.300913">
        <ele>2643.976</ele>
        <time>2021-05-12T06:25:50Z</time>
      </trkpt>
      <trkpt lat="33.377866" lon="49.301454">
        <ele>2653.425</ele>
        <time>2021-05-12T06:27:30Z</time>
      </trkpt>
      <trkpt lat="33.377310" lon="49.302128">
        <ele>2646.957</ele>
        <time>2021-05-12T06:28:38Z</time>
      </trkpt>
      <trkpt lat="33.376542" lon="49.302406">
        <ele>2654.377</ele>
        <time>2021-05-12T06:30:55Z</time>
      </trkpt>
      <trkpt lat="33.375751" lon="49.302944">
        <ele>2646.757</ele>
        <time>2021-05-12T06:32:17Z</time>
      </trkpt>
      <trkpt lat="33.375183" lon="49.303749">
        <ele>2639.240</ele>
        <time>2021-05-12T06:34:25Z</time>
      </trkpt>
      <trkpt lat="33.374924" lon="49.303871">
        <ele>2643.572</ele>
        <time>2021-05-12T06:35:05Z</time>
      </trkpt>
      <trkpt lat="33.374111" lon="49.304002">
        <ele>2666.913</ele>
        <time>2021-05-12T06:37:09Z</time>
      </trkpt>
      <trkpt lat="33.373720" lon="49.304218">
        <ele>2676.814</ele>
        <time>2021-05-12T06:39:26Z</time>
      </trkpt>
      <trkpt lat="33.373582" lon="49.303936">
        <ele>2684.208</ele>
        <time>2021-05-12T06:40:24Z</time>
      </trkpt>
      <trkpt lat="33.373509" lon="49.302485">
        <ele>2724.844</ele>
        <time>2021-05-12T06:45:33Z</time>
      </trkpt>
      <trkpt lat="33.372796" lon="49.301554">
        <ele>2743.650</ele>
        <time>2021-05-12T06:49:19Z</time>
      </trkpt>
      <trkpt lat="33.372474" lon="49.301362">
        <ele>2749.726</ele>
        <time>2021-05-12T06:50:37Z</time>
      </trkpt>
      <trkpt lat="33.372388" lon="49.301099">
        <ele>2751.495</ele>
        <time>2021-05-12T06:51:29Z</time>
      </trkpt>
      <trkpt lat="33.371868" lon="49.300778">
        <ele>2758.437</ele>
        <time>2021-05-12T07:14:31Z</time>
      </trkpt>
      <trkpt lat="33.370586" lon="49.302843">
        <ele>2782.217</ele>
        <time>2021-05-12T07:21:40Z</time>
      </trkpt>
      <trkpt lat="33.369539" lon="49.303166">
        <ele>2806.027</ele>
        <time>2021-05-12T07:25:46Z</time>
      </trkpt>
      <trkpt lat="33.368374" lon="49.303974">
        <ele>2826.250</ele>
        <time>2021-05-12T07:30:26Z</time>
      </trkpt>
      <trkpt lat="33.367641" lon="49.303995">
        <ele>2846.416</ele>
        <time>2021-05-12T07:33:53Z</time>
      </trkpt>
      <trkpt lat="33.366744" lon="49.303530">
        <ele>2873.476</ele>
        <time>2021-05-12T07:40:08Z</time>
      </trkpt>
      <trkpt lat="33.365621" lon="49.303647">
        <ele>2926.713</ele>
        <time>2021-05-12T07:47:30Z</time>
      </trkpt>
      <trkpt lat="33.364919" lon="49.303160">
        <ele>2972.708</ele>
        <time>2021-05-12T08:03:40Z</time>
      </trkpt>
      <trkpt lat="33.363627" lon="49.302888">
        <ele>3015.588</ele>
        <time>2021-05-12T08:15:13Z</time>
      </trkpt>
      <trkpt lat="33.363218" lon="49.302980">
        <ele>3029.454</ele>
        <time>2021-05-12T08:17:14Z</time>
      </trkpt>
      <trkpt lat="33.361997" lon="49.302835">
        <ele>3064.830</ele>
        <time>2021-05-12T08:26:26Z</time>
      </trkpt>
      <trkpt lat="33.361222" lon="49.302557">
        <ele>3103.739</ele>
        <time>2021-05-12T08:33:57Z</time>
      </trkpt>
      <trkpt lat="33.361085" lon="49.302666">
        <ele>3106.161</ele>
        <time>2021-05-12T08:34:54Z</time>
      </trkpt>
      <trkpt lat="33.360392" lon="49.301887">
        <ele>3162.161</ele>
        <time>2021-05-12T08:48:30Z</time>
      </trkpt>
      <trkpt lat="33.360083" lon="49.301698">
        <ele>3177.271</ele>
        <time>2021-05-12T08:51:56Z</time>
      </trkpt>
      <trkpt lat="33.359634" lon="49.301694">
        <ele>3202.084</ele>
        <time>2021-05-12T08:58:02Z</time>
      </trkpt>
      <trkpt lat="33.359276" lon="49.301234">
        <ele>3227.753</ele>
        <time>2021-05-12T09:08:59Z</time>
      </trkpt>
      <trkpt lat="33.358181" lon="49.300392">
        <ele>3295.304</ele>
        <time>2021-05-12T09:28:11Z</time>
      </trkpt>
      <trkpt lat="33.357789" lon="49.300272">
        <ele>3313.114</ele>
        <time>2021-05-12T09:30:34Z</time>
      </trkpt>
      <trkpt lat="33.357312" lon="49.299821">
        <ele>3340.908</ele>
        <time>2021-05-12T09:34:08Z</time>
      </trkpt>
      <trkpt lat="33.355727" lon="49.298983">
        <ele>3429.082</ele>
        <time>2021-05-12T09:53:27Z</time>
      </trkpt>
      <trkpt lat="33.355167" lon="49.298017">
        <ele>3483.498</ele>
        <time>2021-05-12T10:04:51Z</time>
      </trkpt>
      <trkpt lat="33.354910" lon="49.297810">
        <ele>3506.084</ele>
        <time>2021-05-12T10:09:17Z</time>
      </trkpt>
      <trkpt lat="33.354465" lon="49.297781">
        <ele>3540.483</ele>
        <time>2021-05-12T10:13:47Z</time>
      </trkpt>
      <trkpt lat="33.354250" lon="49.297567">
        <ele>3553.955</ele>
        <time>2021-05-12T10:15:41Z</time>
      </trkpt>
      <trkpt lat="33.353678" lon="49.297637">
        <ele>3584.445</ele>
        <time>2021-05-12T10:18:43Z</time>
      </trkpt>
      <trkpt lat="33.352312" lon="49.298317">
        <ele>3622.135</ele>
        <time>2021-05-12T10:35:48Z</time>
      </trkpt>
      <trkpt lat="33.352077" lon="49.298140">
        <ele>3624.918</ele>
        <time>2021-05-12T10:36:34Z</time>
      </trkpt>
      <trkpt lat="33.351289" lon="49.298015">
        <ele>3640.592</ele>
        <time>2021-05-12T10:38:30Z</time>
      </trkpt>
      <trkpt lat="33.351048" lon="49.298104">
        <ele>3642.973</ele>
        <time>2021-05-12T10:39:11Z</time>
      </trkpt>
      <trkpt lat="33.350745" lon="49.297877">
        <ele>3644.220</ele>
        <time>2021-05-12T10:40:56Z</time>
      </trkpt>
      <trkpt lat="33.349720" lon="49.297927">
        <ele>3636.008</ele>
        <time>2021-05-13T03:25:06Z</time>
      </trkpt>
      <trkpt lat="33.349734" lon="49.298748">
        <ele>3631.816</ele>
        <time>2021-05-13T03:28:25Z</time>
      </trkpt>
      <trkpt lat="33.349599" lon="49.299187">
        <ele>3629.282</ele>
        <time>2021-05-13T03:29:14Z</time>
      </trkpt>
      <trkpt lat="33.349796" lon="49.300051">
        <ele>3624.588</ele>
        <time>2021-05-13T03:30:40Z</time>
      </trkpt>
      <trkpt lat="33.349624" lon="49.301148">
        <ele>3625.687</ele>
        <time>2021-05-13T03:32:24Z</time>
      </trkpt>
      <trkpt lat="33.350075" lon="49.301973">
        <ele>3614.339</ele>
        <time>2021-05-13T03:35:00Z</time>
      </trkpt>
      <trkpt lat="33.349928" lon="49.302662">
        <ele>3623.599</ele>
        <time>2021-05-13T03:36:18Z</time>
      </trkpt>
      <trkpt lat="33.350076" lon="49.303010">
        <ele>3635.989</ele>
        <time>2021-05-13T03:37:19Z</time>
      </trkpt>
      <trkpt lat="33.350377" lon="49.303163">
        <ele>3639.312</ele>
        <time>2021-05-13T03:38:18Z</time>
      </trkpt>
      <trkpt lat="33.350550" lon="49.303666">
        <ele>3659.272</ele>
        <time>2021-05-13T03:44:40Z</time>
      </trkpt>
      <trkpt lat="33.350107" lon="49.304136">
        <ele>3690.213</ele>
        <time>2021-05-13T03:57:45Z</time>
      </trkpt>
      <trkpt lat="33.350090" lon="49.304412">
        <ele>3698.514</ele>
        <time>2021-05-13T03:59:05Z</time>
      </trkpt>
      <trkpt lat="33.349723" lon="49.304975">
        <ele>3722.808</ele>
        <time>2021-05-13T04:06:32Z</time>
      </trkpt>
      <trkpt lat="33.349438" lon="49.305201">
        <ele>3736.264</ele>
        <time>2021-05-13T04:09:08Z</time>
      </trkpt>
      <trkpt lat="33.349207" lon="49.305889">
        <ele>3769.840</ele>
        <time>2021-05-13T04:17:08Z</time>
      </trkpt>
      <trkpt lat="33.348939" lon="49.305977">
        <ele>3784.896</ele>
        <time>2021-05-13T04:19:21Z</time>
      </trkpt>
      <trkpt lat="33.348578" lon="49.305839">
        <ele>3802.615</ele>
        <time>2021-05-13T04:25:53Z</time>
      </trkpt>
      <trkpt lat="33.348479" lon="49.305648">
        <ele>3812.567</ele>
        <time>2021-05-13T04:28:01Z</time>
      </trkpt>
      <trkpt lat="33.348305" lon="49.305744">
        <ele>3823.967</ele>
        <time>2021-05-13T04:31:12Z</time>
      </trkpt>
      <trkpt lat="33.348121" lon="49.305406">
        <ele>3847.447</ele>
        <time>2021-05-13T04:35:57Z</time>
      </trkpt>
      <trkpt lat="33.347853" lon="49.305581">
        <ele>3864.240</ele>
        <time>2021-05-13T04:43:10Z</time>
      </trkpt>
      <trkpt lat="33.347338" lon="49.305531">
        <ele>3862.924</ele>
        <time>2021-05-13T04:48:06Z</time>
      </trkpt>
      <trkpt lat="33.346841" lon="49.305217">
        <ele>3870.604</ele>
        <time>2021-05-13T04:51:31Z</time>
      </trkpt>
      <trkpt lat="33.346415" lon="49.305201">
        <ele>3888.914</ele>
        <time>2021-05-13T04:55:48Z</time>
      </trkpt>
      <trkpt lat="33.346335" lon="49.305054">
        <ele>3891.908</ele>
        <time>2021-05-13T04:56:42Z</time>
      </trkpt>
      <trkpt lat="33.345631" lon="49.305172">
        <ele>3922.999</ele>
        <time>2021-05-13T05:07:53Z</time>
      </trkpt>
      <trkpt lat="33.345348" lon="49.305353">
        <ele>3923.565</ele>
        <time>2021-05-13T05:10:23Z</time>
      </trkpt>
      <trkpt lat="33.344818" lon="49.305232">
        <ele>3934.411</ele>
        <time>2021-05-13T05:20:39Z</time>
      </trkpt>
      <trkpt lat="33.344073" lon="49.305617">
        <ele>3943.210</ele>
        <time>2021-05-13T05:24:53Z</time>
      </trkpt>
      <trkpt lat="33.343347" lon="49.305743">
        <ele>3956.962</ele>
        <time>2021-05-13T05:29:57Z</time>
      </trkpt>
      <trkpt lat="33.343037" lon="49.305494">
        <ele>3964.532</ele>
        <time>2021-05-13T05:32:57Z</time>
      </trkpt>
      <trkpt lat="33.342851" lon="49.304890">
        <ele>3985.252</ele>
        <time>2021-05-13T05:37:34Z</time>
      </trkpt>
      <trkpt lat="33.341539" lon="49.304985">
        <ele>4032.515</ele>
        <time>2021-05-13T05:49:05Z</time>
      </trkpt>
      <trkpt lat="33.340554" lon="49.304396">
        <ele>4080.647</ele>
        <time>2021-05-13T05:58:28Z</time>
      </trkpt>
      <trkpt lat="33.340205" lon="49.304439">
        <ele>4091.329</ele>
        <time>2021-05-13T06:03:28Z</time>
      </trkpt>
      <trkpt lat="33.340430" lon="49.304305">
        <ele>4088.521</ele>
        <time>2021-05-13T06:41:05Z</time>
      </trkpt>
      <trkpt lat="33.340636" lon="49.303561">
        <ele>4072.708</ele>
        <time>2021-05-13T06:42:48Z</time>
      </trkpt>
      <trkpt lat="33.340454" lon="49.302843">
        <ele>4045.881</ele>
        <time>2021-05-13T06:46:24Z</time>
      </trkpt>
      <trkpt lat="33.340079" lon="49.302268">
        <ele>4049.947</ele>
        <time>2021-05-13T06:49:53Z</time>
      </trkpt>
      <trkpt lat="33.340206" lon="49.301939">
        <ele>4039.373</ele>
        <time>2021-05-13T06:50:46Z</time>
      </trkpt>
      <trkpt lat="33.340034" lon="49.301521">
        <ele>4044.562</ele>
        <time>2021-05-13T06:53:51Z</time>
      </trkpt>
      <trkpt lat="33.340232" lon="49.301244">
        <ele>4032.594</ele>
        <time>2021-05-13T06:59:07Z</time>
      </trkpt>
      <trkpt lat="33.340150" lon="49.300920">
        <ele>4017.264</ele>
        <time>2021-05-13T07:05:29Z</time>
      </trkpt>
      <trkpt lat="33.340360" lon="49.300728">
        <ele>4009.684</ele>
        <time>2021-05-13T07:09:45Z</time>
      </trkpt>
      <trkpt lat="33.340424" lon="49.300325">
        <ele>4009.417</ele>
        <time>2021-05-13T07:11:16Z</time>
      </trkpt>
      <trkpt lat="33.339917" lon="49.298897">
        <ele>4044.321</ele>
        <time>2021-05-13T07:28:26Z</time>
      </trkpt>
      <trkpt lat="33.339599" lon="49.298619">
        <ele>4058.141</ele>
        <time>2021-05-13T07:35:47Z</time>
      </trkpt>
      <trkpt lat="33.340114" lon="49.298046">
        <ele>4025.505</ele>
        <time>2021-05-13T07:43:21Z</time>
      </trkpt>
      <trkpt lat="33.340019" lon="49.298033">
        <ele>4021.108</ele>
        <time>2021-05-13T07:46:50Z</time>
      </trkpt>
      <trkpt lat="33.339867" lon="49.296874">
        <ele>4014.419</ele>
        <time>2021-05-13T08:05:24Z</time>
      </trkpt>
      <trkpt lat="33.340097" lon="49.296483">
        <ele>3995.975</ele>
        <time>2021-05-13T08:25:24Z</time>
      </trkpt>
      <trkpt lat="33.340055" lon="49.296303">
        <ele>3986.061</ele>
        <time>2021-05-13T08:30:04Z</time>
      </trkpt>
      <trkpt lat="33.340207" lon="49.296323">
        <ele>3974.070</ele>
        <time>2021-05-13T08:34:03Z</time>
      </trkpt>
      <trkpt lat="33.340156" lon="49.295991">
        <ele>3957.372</ele>
        <time>2021-05-13T09:00:15Z</time>
      </trkpt>
      <trkpt lat="33.340268" lon="49.295825">
        <ele>3947.272</ele>
        <time>2021-05-13T09:04:16Z</time>
      </trkpt>
      <trkpt lat="33.340034" lon="49.295794">
        <ele>3927.252</ele>
        <time>2021-05-13T09:08:20Z</time>
      </trkpt>
      <trkpt lat="33.339745" lon="49.295412">
        <ele>3887.225</ele>
        <time>2021-05-13T09:16:04Z</time>
      </trkpt>
      <trkpt lat="33.339529" lon="49.295415">
        <ele>3867.948</ele>
        <time>2021-05-13T09:22:29Z</time>
      </trkpt>
      <trkpt lat="33.339596" lon="49.295307">
        <ele>3860.161</ele>
        <time>2021-05-13T09:29:06Z</time>
      </trkpt>
      <trkpt lat="33.339511" lon="49.295464">
        <ele>3861.017</ele>
        <time>2021-05-13T09:29:46Z</time>
      </trkpt>
      <trkpt lat="33.339540" lon="49.295247">
        <ele>3863.308</ele>
        <time>2021-05-13T09:32:03Z</time>
      </trkpt>
      <trkpt lat="33.339506" lon="49.295404">
        <ele>3861.831</ele>
        <time>2021-05-13T09:32:57Z</time>
      </trkpt>
      <trkpt lat="33.339632" lon="49.295278">
        <ele>3864.077</ele>
        <time>2021-05-13T09:33:26Z</time>
      </trkpt>
      <trkpt lat="33.339554" lon="49.295371">
        <ele>3865.113</ele>
        <time>2021-05-13T09:33:35Z</time>
      </trkpt>
      <trkpt lat="33.339534" lon="49.295217">
        <ele>3867.342</ele>
        <time>2021-05-13T09:33:52Z</time>
      </trkpt>
      <trkpt lat="33.339418" lon="49.295827">
        <ele>3865.314</ele>
        <time>2021-05-13T09:34:17Z</time>
      </trkpt>
      <trkpt lat="33.339296" lon="49.295541">
        <ele>3864.764</ele>
        <time>2021-05-13T09:35:03Z</time>
      </trkpt>
      <trkpt lat="33.339571" lon="49.295390">
        <ele>3876.614</ele>
        <time>2021-05-13T09:35:18Z</time>
      </trkpt>
      <trkpt lat="33.339152" lon="49.295175">
        <ele>3832.897</ele>
        <time>2021-05-13T09:44:49Z</time>
      </trkpt>
      <trkpt lat="33.339200" lon="49.294947">
        <ele>3822.062</ele>
        <time>2021-05-13T09:47:55Z</time>
      </trkpt>
      <trkpt lat="33.339019" lon="49.294739">
        <ele>3808.983</ele>
        <time>2021-05-13T09:50:30Z</time>
      </trkpt>
      <trkpt lat="33.338934" lon="49.294802">
        <ele>3805.011</ele>
        <time>2021-05-13T09:51:00Z</time>
      </trkpt>
      <trkpt lat="33.338964" lon="49.294611">
        <ele>3801.608</ele>
        <time>2021-05-13T09:51:51Z</time>
      </trkpt>
      <trkpt lat="33.338820" lon="49.294684">
        <ele>3793.953</ele>
        <time>2021-05-13T09:52:58Z</time>
      </trkpt>
      <trkpt lat="33.338707" lon="49.294569">
        <ele>3781.019</ele>
        <time>2021-05-13T09:54:05Z</time>
      </trkpt>
      <trkpt lat="33.338694" lon="49.294330">
        <ele>3772.625</ele>
        <time>2021-05-13T09:54:42Z</time>
      </trkpt>
      <trkpt lat="33.338463" lon="49.294004">
        <ele>3744.544</ele>
        <time>2021-05-13T09:57:10Z</time>
      </trkpt>
      <trkpt lat="33.338292" lon="49.294010">
        <ele>3737.336</ele>
        <time>2021-05-13T09:59:18Z</time>
      </trkpt>
      <trkpt lat="33.338088" lon="49.293568">
        <ele>3712.636</ele>
        <time>2021-05-13T10:05:09Z</time>
      </trkpt>
      <trkpt lat="33.337577" lon="49.293346">
        <ele>3672.666</ele>
        <time>2021-05-13T10:08:15Z</time>
      </trkpt>
      <trkpt lat="33.337636" lon="49.293439">
        <ele>3668.279</ele>
        <time>2021-05-13T10:08:44Z</time>
      </trkpt>
      <trkpt lat="33.337660" lon="49.293266">
        <ele>3665.997</ele>
        <time>2021-05-13T10:09:19Z</time>
      </trkpt>
      <trkpt lat="33.337546" lon="49.293517">
        <ele>3664.023</ele>
        <time>2021-05-13T10:10:35Z</time>
      </trkpt>
      <trkpt lat="33.337539" lon="49.293347">
        <ele>3665.725</ele>
        <time>2021-05-13T10:12:26Z</time>
      </trkpt>
      <trkpt lat="33.337181" lon="49.293020">
        <ele>3643.408</ele>
        <time>2021-05-13T10:13:33Z</time>
      </trkpt>
      <trkpt lat="33.336957" lon="49.292870">
        <ele>3624.986</ele>
        <time>2021-05-13T10:14:16Z</time>
      </trkpt>
      <trkpt lat="33.336879" lon="49.293000">
        <ele>3610.052</ele>
        <time>2021-05-13T10:17:21Z</time>
      </trkpt>
      <trkpt lat="33.336948" lon="49.292918">
        <ele>3594.358</ele>
        <time>2021-05-13T10:21:06Z</time>
      </trkpt>
      <trkpt lat="33.336295" lon="49.292161">
        <ele>3544.317</ele>
        <time>2021-05-13T10:25:58Z</time>
      </trkpt>
      <trkpt lat="33.336045" lon="49.291953">
        <ele>3525.999</ele>
        <time>2021-05-13T10:28:51Z</time>
      </trkpt>
      <trkpt lat="33.335920" lon="49.292017">
        <ele>3521.239</ele>
        <time>2021-05-13T10:29:33Z</time>
      </trkpt>
      <trkpt lat="33.335723" lon="49.291725">
        <ele>3500.369</ele>
        <time>2021-05-13T10:31:55Z</time>
      </trkpt>
      <trkpt lat="33.335389" lon="49.291780">
        <ele>3482.662</ele>
        <time>2021-05-13T10:36:57Z</time>
      </trkpt>
      <trkpt lat="33.335207" lon="49.291547">
        <ele>3472.324</ele>
        <time>2021-05-13T10:42:42Z</time>
      </trkpt>
      <trkpt lat="33.334588" lon="49.291318">
        <ele>3422.504</ele>
        <time>2021-05-13T10:50:03Z</time>
      </trkpt>
      <trkpt lat="33.334236" lon="49.291010">
        <ele>3395.614</ele>
        <time>2021-05-13T10:52:22Z</time>
      </trkpt>
      <trkpt lat="33.334178" lon="49.291097">
        <ele>3395.008</ele>
        <time>2021-05-13T10:55:08Z</time>
      </trkpt>
      <trkpt lat="33.334232" lon="49.290978">
        <ele>3394.929</ele>
        <time>2021-05-13T10:55:43Z</time>
      </trkpt>
      <trkpt lat="33.334265" lon="49.291072">
        <ele>3394.935</ele>
        <time>2021-05-13T10:56:35Z</time>
      </trkpt>
      <trkpt lat="33.333825" lon="49.290993">
        <ele>3374.941</ele>
        <time>2021-05-13T11:01:41Z</time>
      </trkpt>
      <trkpt lat="33.333450" lon="49.290243">
        <ele>3312.190</ele>
        <time>2021-05-13T11:08:33Z</time>
      </trkpt>
      <trkpt lat="33.333274" lon="49.290221">
        <ele>3304.092</ele>
        <time>2021-05-13T11:10:13Z</time>
      </trkpt>
      <trkpt lat="33.333377" lon="49.290192">
        <ele>3300.642</ele>
        <time>2021-05-13T11:11:57Z</time>
      </trkpt>
      <trkpt lat="33.333140" lon="49.289973">
        <ele>3287.922</ele>
        <time>2021-05-13T11:22:09Z</time>
      </trkpt>
      <trkpt lat="33.333068" lon="49.290043">
        <ele>3286.495</ele>
        <time>2021-05-13T11:23:21Z</time>
      </trkpt>
      <trkpt lat="33.333137" lon="49.289953">
        <ele>3279.631</ele>
        <time>2021-05-13T11:26:58Z</time>
      </trkpt>
      <trkpt lat="33.333015" lon="49.289870">
        <ele>3274.361</ele>
        <time>2021-05-13T11:28:35Z</time>
      </trkpt>
      <trkpt lat="33.332399" lon="49.290079">
        <ele>3235.607</ele>
        <time>2021-05-13T11:46:42Z</time>
      </trkpt>
      <trkpt lat="33.331937" lon="49.290926">
        <ele>3181.608</ele>
        <time>2021-05-13T11:59:33Z</time>
      </trkpt>
      <trkpt lat="33.331523" lon="49.291038">
        <ele>3146.160</ele>
        <time>2021-05-13T12:03:03Z</time>
      </trkpt>
      <trkpt lat="33.330775" lon="49.291609">
        <ele>3088.826</ele>
        <time>2021-05-13T12:12:42Z</time>
      </trkpt>
      <trkpt lat="33.330546" lon="49.291323">
        <ele>3072.752</ele>
        <time>2021-05-13T12:29:21Z</time>
      </trkpt>
      <trkpt lat="33.330314" lon="49.291371">
        <ele>3056.411</ele>
        <time>2021-05-13T12:30:45Z</time>
      </trkpt>
      <trkpt lat="33.329479" lon="49.291086">
        <ele>3016.163</ele>
        <time>2021-05-13T12:35:09Z</time>
      </trkpt>
      <trkpt lat="33.328582" lon="49.291310">
        <ele>2956.923</ele>
        <time>2021-05-13T12:40:24Z</time>
      </trkpt>
      <trkpt lat="33.327776" lon="49.292184">
        <ele>2896.283</ele>
        <time>2021-05-13T12:46:22Z</time>
      </trkpt>
      <trkpt lat="33.327539" lon="49.292737">
        <ele>2874.956</ele>
        <time>2021-05-13T12:51:35Z</time>
      </trkpt>
      <trkpt lat="33.327215" lon="49.292346">
        <ele>2858.342</ele>
        <time>2021-05-13T14:03:23Z</time>
      </trkpt>
      <trkpt lat="33.326663" lon="49.292446">
        <ele>2826.422</ele>
        <time>2021-05-13T14:07:39Z</time>
      </trkpt>
      <trkpt lat="33.326102" lon="49.292137">
        <ele>2805.214</ele>
        <time>2021-05-13T14:11:14Z</time>
      </trkpt>
      <trkpt lat="33.324912" lon="49.292508">
        <ele>2756.308</ele>
        <time>2021-05-13T14:23:53Z</time>
      </trkpt>
      <trkpt lat="33.323972" lon="49.291772">
        <ele>2717.981</ele>
        <time>2021-05-13T14:31:00Z</time>
      </trkpt>
      <trkpt lat="33.323938" lon="49.291367">
        <ele>2698.137</ele>
        <time>2021-05-13T14:36:16Z</time>
      </trkpt>
      <trkpt lat="33.323600" lon="49.291116">
        <ele>2681.613</ele>
        <time>2021-05-13T14:45:46Z</time>
      </trkpt>
      <trkpt lat="33.322248" lon="49.290787">
        <ele>2631.762</ele>
        <time>2021-05-13T14:58:24Z</time>
      </trkpt>
      <trkpt lat="33.321315" lon="49.290959">
        <ele>2598.554</ele>
        <time>2021-05-13T15:04:08Z</time>
      </trkpt>
      <trkpt lat="33.320966" lon="49.290764">
        <ele>2579.244</ele>
        <time>2021-05-13T15:07:57Z</time>
      </trkpt>
      <trkpt lat="33.320560" lon="49.290793">
        <ele>2565.264</ele>
        <time>2021-05-13T15:09:18Z</time>
      </trkpt>
      <trkpt lat="33.319865" lon="49.290394">
        <ele>2548.097</ele>
        <time>2021-05-13T15:12:16Z</time>
      </trkpt>
      <trkpt lat="33.319693" lon="49.290204">
        <ele>2539.016</ele>
        <time>2021-05-13T15:13:23Z</time>
      </trkpt>
      <trkpt lat="33.319797" lon="49.289551">
        <ele>2528.776</ele>
        <time>2021-05-13T15:15:22Z</time>
      </trkpt>
      <trkpt lat="33.319696" lon="49.289583">
        <ele>2523.613</ele>
        <time>2021-05-13T15:16:00Z</time>
      </trkpt>
      <trkpt lat="33.319641" lon="49.289217">
        <ele>2520.508</ele>
        <time>2021-05-13T15:17:18Z</time>
      </trkpt>
      <trkpt lat="33.319441" lon="49.289102">
        <ele>2512.448</ele>
        <time>2021-05-13T15:18:03Z</time>
      </trkpt>
      <trkpt lat="33.319197" lon="49.288608">
        <ele>2506.784</ele>
        <time>2021-05-13T15:20:33Z</time>
      </trkpt>
      <trkpt lat="33.318697" lon="49.288044">
        <ele>2493.770</ele>
        <time>2021-05-13T15:22:15Z</time>
      </trkpt>
      <trkpt lat="33.318383" lon="49.288000">
        <ele>2480.259</ele>
        <time>2021-05-13T15:23:17Z</time>
      </trkpt>
      <trkpt lat="33.316871" lon="49.287119">
        <ele>2450.081</ele>
        <time>2021-05-13T15:27:08Z</time>
      </trkpt>
      <trkpt lat="33.315937" lon="49.285597">
        <ele>2410.951</ele>
        <time>2021-05-13T15:31:11Z</time>
      </trkpt>
      <trkpt lat="33.315959" lon="49.285205">
        <ele>2400.541</ele>
        <time>2021-05-13T15:32:10Z</time>
      </trkpt>
      <trkpt lat="33.315496" lon="49.284381">
        <ele>2382.374</ele>
        <time>2021-05-13T15:34:31Z</time>
      </trkpt>
      <trkpt lat="33.314952" lon="49.282580">
        <ele>2360.026</ele>
        <time>2021-05-13T15:38:47Z</time>
      </trkpt>
      <trkpt lat="33.314053" lon="49.281144">
        <ele>2347.747</ele>
        <time>2021-05-13T15:46:44Z</time>
      </trkpt>
      <trkpt lat="33.314140" lon="49.281116">
        <ele>2348.111</ele>
        <time>2021-05-13T15:49:48Z</time>
      </trkpt>
      <trkpt lat="33.314048" lon="49.281209">
        <ele>2346.608</ele>
        <time>2021-05-13T15:50:50Z</time>
      </trkpt>
      <trkpt lat="33.314107" lon="49.281134">
        <ele>2348.899</ele>
        <time>2021-05-13T15:53:01Z</time>
      </trkpt>
      <trkpt lat="33.313594" lon="49.280601">
        <ele>2341.375</ele>
        <time>2021-05-13T16:02:31Z</time>
      </trkpt>
      <trkpt lat="33.313400" lon="49.279906">
        <ele>2342.391</ele>
        <time>2021-05-13T16:03:33Z</time>
      </trkpt>
      <trkpt lat="33.313475" lon="49.279043">
        <ele>2343.620</ele>
        <time>2021-05-13T16:04:45Z</time>
      </trkpt>
      <trkpt lat="33.313034" lon="49.278285">
        <ele>2362.242</ele>
        <time>2021-05-13T16:06:48Z</time>
      </trkpt>
      <trkpt lat="33.313025" lon="49.277816">
        <ele>2367.022</ele>
        <time>2021-05-13T16:14:37Z</time>
      </trkpt>
      <trkpt lat="33.312859" lon="49.278202">
        <ele>2360.362</ele>
        <time>2021-05-13T16:19:52Z</time>
      </trkpt>
      <trkpt lat="33.312709" lon="49.278174">
        <ele>2357.765</ele>
        <time>2021-05-13T16:20:09Z</time>
      </trkpt>
      <trkpt lat="33.312145" lon="49.277435">
        <ele>2345.233</ele>
        <time>2021-05-13T16:21:33Z</time>
      </trkpt>
      <trkpt lat="33.310899" lon="49.276783">
        <ele>2343.523</ele>
        <time>2021-05-13T16:23:32Z</time>
      </trkpt>
      <trkpt lat="33.310740" lon="49.276765">
        <ele>2343.115</ele>
        <time>2021-05-13T16:23:58Z</time>
      </trkpt>
      <trkpt lat="33.310602" lon="49.276951">
        <ele>2341.108</ele>
        <time>2021-05-13T16:24:57Z</time>
      </trkpt>
      <trkpt lat="33.310715" lon="49.276791">
        <ele>2342.340</ele>
        <time>2021-05-13T16:25:50Z</time>
      </trkpt>
      <trkpt lat="33.311281" lon="49.277031">
        <ele>2344.286</ele>
        <time>2021-05-14T05:51:44Z</time>
      </trkpt>
      <trkpt lat="33.312047" lon="49.276991">
        <ele>2331.552</ele>
        <time>2021-05-14T05:53:57Z</time>
      </trkpt>
      <trkpt lat="33.312064" lon="49.276510">
        <ele>2334.141</ele>
        <time>2021-05-14T06:07:02Z</time>
      </trkpt>
      <trkpt lat="33.312192" lon="49.276709">
        <ele>2335.833</ele>
        <time>2021-05-14T06:11:18Z</time>
      </trkpt>
      <trkpt lat="33.312712" lon="49.276434">
        <ele>2336.513</ele>
        <time>2021-05-14T06:12:14Z</time>
      </trkpt>
      <trkpt lat="33.313290" lon="49.276467">
        <ele>2336.493</ele>
        <time>2021-05-14T06:13:07Z</time>
      </trkpt>
      <trkpt lat="33.313655" lon="49.276621">
        <ele>2337.076</ele>
        <time>2021-05-14T06:13:36Z</time>
      </trkpt>
      <trkpt lat="33.314641" lon="49.277845">
        <ele>2334.315</ele>
        <time>2021-05-14T06:15:26Z</time>
      </trkpt>
      <trkpt lat="33.315270" lon="49.278093">
        <ele>2330.465</ele>
        <time>2021-05-14T06:16:17Z</time>
      </trkpt>
      <trkpt lat="33.315815" lon="49.277931">
        <ele>2334.511</ele>
        <time>2021-05-14T06:17:07Z</time>
      </trkpt>
      <trkpt lat="33.316254" lon="49.277122">
        <ele>2338.408</ele>
        <time>2021-05-14T06:18:11Z</time>
      </trkpt>
      <trkpt lat="33.316804" lon="49.276747">
        <ele>2341.968</ele>
        <time>2021-05-14T06:19:16Z</time>
      </trkpt>
      <trkpt lat="33.318182" lon="49.274505">
        <ele>2356.134</ele>
        <time>2021-05-14T06:25:14Z</time>
      </trkpt>
      <trkpt lat="33.318475" lon="49.273441">
        <ele>2348.870</ele>
        <time>2021-05-14T06:26:27Z</time>
      </trkpt>
      <trkpt lat="33.318523" lon="49.272810">
        <ele>2355.999</ele>
        <time>2021-05-14T06:27:16Z</time>
      </trkpt>
      <trkpt lat="33.318064" lon="49.271914">
        <ele>2360.311</ele>
        <time>2021-05-14T06:29:32Z</time>
      </trkpt>
      <trkpt lat="33.318063" lon="49.270798">
        <ele>2350.271</ele>
        <time>2021-05-14T06:30:54Z</time>
      </trkpt>
      <trkpt lat="33.318334" lon="49.270337">
        <ele>2338.941</ele>
        <time>2021-05-14T06:31:34Z</time>
      </trkpt>
      <trkpt lat="33.318351" lon="49.269621">
        <ele>2328.394</ele>
        <time>2021-05-14T06:32:20Z</time>
      </trkpt>
      <trkpt lat="33.319247" lon="49.268772">
        <ele>2303.547</ele>
        <time>2021-05-14T06:33:45Z</time>
      </trkpt>
      <trkpt lat="33.319727" lon="49.267650">
        <ele>2289.729</ele>
        <time>2021-05-14T06:35:28Z</time>
      </trkpt>
      <trkpt lat="33.319955" lon="49.266692">
        <ele>2283.821</ele>
        <time>2021-05-14T06:36:30Z</time>
      </trkpt>
      <trkpt lat="33.320784" lon="49.264876">
        <ele>2270.108</ele>
        <time>2021-05-14T06:38:39Z</time>
      </trkpt>
      <trkpt lat="33.322368" lon="49.263051">
        <ele>2250.221</ele>
        <time>2021-05-14T06:41:22Z</time>
      </trkpt>
      <trkpt lat="33.322776" lon="49.262204">
        <ele>2241.727</ele>
        <time>2021-05-14T06:42:24Z</time>
      </trkpt>
      <trkpt lat="33.323929" lon="49.260693">
        <ele>2229.973</ele>
        <time>2021-05-14T06:44:32Z</time>
      </trkpt>
      <trkpt lat="33.324490" lon="49.259057">
        <ele>2217.252</ele>
        <time>2021-05-14T06:46:24Z</time>
      </trkpt>
      <trkpt lat="33.325071" lon="49.258125">
        <ele>2210.624</ele>
        <time>2021-05-14T06:47:37Z</time>
      </trkpt>
      <trkpt lat="33.325500" lon="49.257684">
        <ele>2207.524</ele>
        <time>2021-05-14T06:48:15Z</time>
      </trkpt>
      <trkpt lat="33.326012" lon="49.256768">
        <ele>2199.454</ele>
        <time>2021-05-14T06:49:26Z</time>
      </trkpt>
      <trkpt lat="33.326725" lon="49.256195">
        <ele>2193.387</ele>
        <time>2021-05-14T06:50:39Z</time>
      </trkpt>
      <trkpt lat="33.327092" lon="49.255013">
        <ele>2188.515</ele>
        <time>2021-05-14T06:52:05Z</time>
      </trkpt>
      <trkpt lat="33.327093" lon="49.254426">
        <ele>2182.265</ele>
        <time>2021-05-14T06:53:12Z</time>
      </trkpt>
      <trkpt lat="33.327554" lon="49.253756">
        <ele>2174.011</ele>
        <time>2021-05-14T06:54:23Z</time>
      </trkpt>
      <trkpt lat="33.328715" lon="49.253123">
        <ele>2171.108</ele>
        <time>2021-05-14T06:56:14Z</time>
      </trkpt>
      <trkpt lat="33.330115" lon="49.251191">
        <ele>2149.498</ele>
        <time>2021-05-14T06:59:19Z</time>
      </trkpt>
      <trkpt lat="33.331185" lon="49.250377">
        <ele>2141.344</ele>
        <time>2021-05-14T07:00:56Z</time>
      </trkpt>
      <trkpt lat="33.331969" lon="49.249522">
        <ele>2130.460</ele>
        <time>2021-05-14T07:02:43Z</time>
      </trkpt>
      <trkpt lat="33.333996" lon="49.245277">
        <ele>2116.789</ele>
        <time>2021-05-14T07:08:48Z</time>
      </trkpt>
      <trkpt lat="33.334575" lon="49.243705">
        <ele>2108.981</ele>
        <time>2021-05-14T07:11:15Z</time>
      </trkpt>
      <trkpt lat="33.334969" lon="49.243355">
        <ele>2104.791</ele>
        <time>2021-05-14T07:11:58Z</time>
      </trkpt>
      <trkpt lat="33.335576" lon="49.243181">
        <ele>2094.591</ele>
        <time>2021-05-14T07:12:47Z</time>
      </trkpt>
      <trkpt lat="33.335934" lon="49.242154">
        <ele>2084.214</ele>
        <time>2021-05-14T07:14:07Z</time>
      </trkpt>
      <trkpt lat="33.336545" lon="49.241823">
        <ele>2077.786</ele>
        <time>2021-05-14T07:14:56Z</time>
      </trkpt>
      <trkpt lat="33.336536" lon="49.241925">
        <ele>2077.460</ele>
        <time>2021-05-14T07:15:11Z</time>
      </trkpt>
      <trkpt lat="33.337093" lon="49.241415">
        <ele>2078.426</ele>
        <time>2021-05-14T07:17:39Z</time>
      </trkpt>
      <trkpt lat="33.337379" lon="49.241361">
        <ele>2077.408</ele>
        <time>2021-05-14T07:17:57Z</time>
      </trkpt>
      <trkpt lat="33.337907" lon="49.240808">
        <ele>2073.285</ele>
        <time>2021-05-14T07:18:47Z</time>
      </trkpt>
      <trkpt lat="33.338378" lon="49.238879">
        <ele>2077.411</ele>
        <time>2021-05-14T07:21:13Z</time>
      </trkpt>
      <trkpt lat="33.339137" lon="49.238329">
        <ele>2081.557</ele>
        <time>2021-05-14T07:27:29Z</time>
      </trkpt>
      <trkpt lat="33.339313" lon="49.238009">
        <ele>2080.056</ele>
        <time>2021-05-14T07:27:52Z</time>
      </trkpt>
      <trkpt lat="33.339893" lon="49.237694">
        <ele>2083.448</ele>
        <time>2021-05-14T07:28:41Z</time>
      </trkpt>
      <trkpt lat="33.340087" lon="49.237047">
        <ele>2091.338</ele>
        <time>2021-05-14T07:29:45Z</time>
      </trkpt>
      <trkpt lat="33.340578" lon="49.236893">
        <ele>2094.028</ele>
        <time>2021-05-14T07:30:25Z</time>
      </trkpt>
      <trkpt lat="33.341029" lon="49.236450">
        <ele>2103.561</ele>
        <time>2021-05-14T07:31:29Z</time>
      </trkpt>
      <trkpt lat="33.341272" lon="49.235541">
        <ele>2121.626</ele>
        <time>2021-05-14T07:33:47Z</time>
      </trkpt>
      <trkpt lat="33.341621" lon="49.234938">
        <ele>2134.447</ele>
        <time>2021-05-14T07:35:10Z</time>
      </trkpt>
      <trkpt lat="33.341556" lon="49.234683">
        <ele>2137.511</ele>
        <time>2021-05-14T07:35:31Z</time>
      </trkpt>
      <trkpt lat="33.341694" lon="49.234644">
        <ele>2143.208</ele>
        <time>2021-05-14T07:35:47Z</time>
      </trkpt>
      <trkpt lat="33.341400" lon="49.234247">
        <ele>2157.069</ele>
        <time>2021-05-14T07:36:45Z</time>
      </trkpt>
      <trkpt lat="33.342242" lon="49.233213">
        <ele>2188.525</ele>
        <time>2021-05-14T07:39:20Z</time>
      </trkpt>
      <trkpt lat="33.343115" lon="49.231259">
        <ele>2213.571</ele>
        <time>2021-05-14T07:42:02Z</time>
      </trkpt>
      <trkpt lat="33.342962" lon="49.230919">
        <ele>2219.340</ele>
        <time>2021-05-14T07:42:35Z</time>
      </trkpt>
      <trkpt lat="33.342268" lon="49.230481">
        <ele>2245.262</ele>
        <time>2021-05-14T07:44:28Z</time>
      </trkpt>
      <trkpt lat="33.343042" lon="49.229567">
        <ele>2270.922</ele>
        <time>2021-05-14T07:48:11Z</time>
      </trkpt>
      <trkpt lat="33.343390" lon="49.229571">
        <ele>2281.682</ele>
        <time>2021-05-14T07:48:56Z</time>
      </trkpt>
      <trkpt lat="33.344558" lon="49.229151">
        <ele>2313.995</ele>
        <time>2021-05-14T07:52:49Z</time>
      </trkpt>
      <trkpt lat="33.345663" lon="49.228389">
        <ele>2338.374</ele>
        <time>2021-05-14T07:55:27Z</time>
      </trkpt>
      <trkpt lat="33.345812" lon="49.228002">
        <ele>2345.656</ele>
        <time>2021-05-14T07:56:29Z</time>
      </trkpt>
      <trkpt lat="33.345528" lon="49.227449">
        <ele>2360.721</ele>
        <time>2021-05-14T07:57:41Z</time>
      </trkpt>
      <trkpt lat="33.345645" lon="49.227117">
        <ele>2366.008</ele>
        <time>2021-05-14T07:58:13Z</time>
      </trkpt>
      <trkpt lat="33.346444" lon="49.226567">
        <ele>2376.094</ele>
        <time>2021-05-14T07:59:36Z</time>
      </trkpt>
      <trkpt lat="33.346641" lon="49.225478">
        <ele>2395.210</ele>
        <time>2021-05-14T08:01:12Z</time>
      </trkpt>
      <trkpt lat="33.347155" lon="49.224754">
        <ele>2408.466</ele>
        <time>2021-05-14T08:02:43Z</time>
      </trkpt>
      <trkpt lat="33.347573" lon="49.224479">
        <ele>2418.295</ele>
        <time>2021-05-14T08:03:30Z</time>
      </trkpt>
      <trkpt lat="33.348043" lon="49.223385">
        <ele>2439.557</ele>
        <time>2021-05-14T08:05:56Z</time>
      </trkpt>
      <trkpt lat="33.350025" lon="49.221486">
        <ele>2504.537</ele>
        <time>2021-05-14T08:11:29Z</time>
      </trkpt>
      <trkpt lat="33.350838" lon="49.220173">
        <ele>2528.317</ele>
        <time>2021-05-14T08:16:06Z</time>
      </trkpt>
      <trkpt lat="33.352201" lon="49.219566">
        <ele>2513.520</ele>
        <time>2021-05-14T08:18:12Z</time>
      </trkpt>
      <trkpt lat="33.353033" lon="49.218531">
        <ele>2497.273</ele>
        <time>2021-05-14T08:20:04Z</time>
      </trkpt>
      <trkpt lat="33.353530" lon="49.217237">
        <ele>2484.385</ele>
        <time>2021-05-14T08:21:44Z</time>
      </trkpt>
      <trkpt lat="33.353855" lon="49.216857">
        <ele>2472.113</ele>
        <time>2021-05-14T08:22:30Z</time>
      </trkpt>
      <trkpt lat="33.354477" lon="49.215154">
        <ele>2453.308</ele>
        <time>2021-05-14T08:24:34Z</time>
      </trkpt>
      <trkpt lat="33.355336" lon="49.214008">
        <ele>2450.684</ele>
        <time>2021-05-14T08:26:09Z</time>
      </trkpt>
      <trkpt lat="33.355838" lon="49.212825">
        <ele>2446.980</ele>
        <time>2021-05-14T08:27:39Z</time>
      </trkpt>
      <trkpt lat="33.355990" lon="49.211928">
        <ele>2435.826</ele>
        <time>2021-05-14T08:28:44Z</time>
      </trkpt>
      <trkpt lat="33.356528" lon="49.210783">
        <ele>2441.035</ele>
        <time>2021-05-14T08:30:14Z</time>
      </trkpt>
      <trkpt lat="33.356934" lon="49.207292">
        <ele>2443.177</ele>
        <time>2021-05-14T08:33:47Z</time>
      </trkpt>
      <trkpt lat="33.357596" lon="49.205938">
        <ele>2444.197</ele>
        <time>2021-05-14T08:35:26Z</time>
      </trkpt>
      <trkpt lat="33.358199" lon="49.205217">
        <ele>2446.797</ele>
        <time>2021-05-14T08:36:41Z</time>
      </trkpt>
      <trkpt lat="33.358645" lon="49.204995">
        <ele>2448.620</ele>
        <time>2021-05-14T08:37:22Z</time>
      </trkpt>
      <trkpt lat="33.359102" lon="49.203490">
        <ele>2470.622</ele>
        <time>2021-05-14T08:39:38Z</time>
      </trkpt>
      <trkpt lat="33.359672" lon="49.202708">
        <ele>2479.262</ele>
        <time>2021-05-14T08:41:50Z</time>
      </trkpt>
      <trkpt lat="33.360192" lon="49.202311">
        <ele>2484.508</ele>
        <time>2021-05-14T08:42:37Z</time>
      </trkpt>
      <trkpt lat="33.361776" lon="49.200039">
        <ele>2493.308</ele>
        <time>2021-05-14T08:45:49Z</time>
      </trkpt>
      <trkpt lat="33.362810" lon="49.199532">
        <ele>2476.389</ele>
        <time>2021-05-14T08:48:22Z</time>
      </trkpt>
      <trkpt lat="33.363429" lon="49.199528">
        <ele>2466.015</ele>
        <time>2021-05-14T08:49:15Z</time>
      </trkpt>
      <trkpt lat="33.364383" lon="49.198868">
        <ele>2462.511</ele>
        <time>2021-05-14T08:50:48Z</time>
      </trkpt>
      <trkpt lat="33.364910" lon="49.198777">
        <ele>2458.450</ele>
        <time>2021-05-14T08:51:31Z</time>
      </trkpt>
      <trkpt lat="33.365216" lon="49.198515">
        <ele>2457.532</ele>
        <time>2021-05-14T08:52:02Z</time>
      </trkpt>
      <trkpt lat="33.366205" lon="49.198175">
        <ele>2445.742</ele>
        <time>2021-05-14T08:53:30Z</time>
      </trkpt>
      <trkpt lat="33.367497" lon="49.196545">
        <ele>2435.322</ele>
        <time>2021-05-14T08:56:03Z</time>
      </trkpt>
      <trkpt lat="33.368510" lon="49.195668">
        <ele>2416.135</ele>
        <time>2021-05-14T08:57:59Z</time>
      </trkpt>
      <trkpt lat="33.370264" lon="49.194655">
        <ele>2414.134</ele>
        <time>2021-05-14T09:00:34Z</time>
      </trkpt>
      <trkpt lat="33.370967" lon="49.193820">
        <ele>2402.655</ele>
        <time>2021-05-14T09:02:06Z</time>
      </trkpt>
      <trkpt lat="33.371323" lon="49.193737">
        <ele>2398.010</ele>
        <time>2021-05-14T09:02:38Z</time>
      </trkpt>
      <trkpt lat="33.372089" lon="49.193058">
        <ele>2377.308</ele>
        <time>2021-05-14T09:04:42Z</time>
      </trkpt>
      <trkpt lat="33.372323" lon="49.193101">
        <ele>2373.990</ele>
        <time>2021-05-14T09:05:03Z</time>
      </trkpt>
      <trkpt lat="33.372343" lon="49.193463">
        <ele>2373.146</ele>
        <time>2021-05-14T09:05:26Z</time>
      </trkpt>
      <trkpt lat="33.372537" lon="49.193646">
        <ele>2371.292</ele>
        <time>2021-05-14T09:05:49Z</time>
      </trkpt>
      <trkpt lat="33.373063" lon="49.193301">
        <ele>2360.491</ele>
        <time>2021-05-14T09:06:37Z</time>
      </trkpt>
      <trkpt lat="33.373771" lon="49.192532">
        <ele>2344.633</ele>
        <time>2021-05-14T09:07:55Z</time>
      </trkpt>
      <trkpt lat="33.374367" lon="49.192831">
        <ele>2340.183</ele>
        <time>2021-05-14T09:08:47Z</time>
      </trkpt>
      <trkpt lat="33.374947" lon="49.192751">
        <ele>2339.543</ele>
        <time>2021-05-14T09:09:31Z</time>
      </trkpt>
      <trkpt lat="33.375502" lon="49.192911">
        <ele>2337.866</ele>
        <time>2021-05-14T09:10:21Z</time>
      </trkpt>
    </trkseg>
  </trk></gpx>