<?xml version="1.0" encoding="UTF-8"?>
<gpx creator="Wikiloc - https://www.wikiloc.com" version="1.1" xmlns="http://www.topografix.com/GPX/1/1" xmlns:xsi="http://www.w3.org/2001/XMLSchema-instance" xsi:schemaLocation="http://www.topografix.com/GPX/1/1 http://www.topografix.com/GPX/1/1/gpx.xsd">
  <metadata>
    <name>Wikiloc - صعود یک روزه قله سنبران از بیدستانه ( طرح سیمرغ) بتاریخ ۱۴۰۵...</name>
    <link href="https://www.wikiloc.com/hiking-trails/swd-ykh-rwzh-qlh-snbrn-z-bydstnh-trh-symrg-btrykh-1405-6-6-282607621">
      <text>صعود یک روزه قله سنبران از بیدستانه ( طرح سیمرغ) بتاریخ ۱۴۰۵... on Wikiloc</text>
    </link>
    <time>2026-08-28T15:20:03Z</time>
  </metadata>
  <trk>
    <name>صعود یک روزه قله سنبران از بیدستانه ( طرح سیمرغ) بتاریخ ۱۴۰۵... - Wikiloc</name>
    <cmt></cmt>
    <desc></desc>
    <trkseg>
      <trkpt lat="33.400764" lon="49.272870">
        <ele>1995.576</ele>
        <time>2026-08-28T00:34:24Z</time>
      </trkpt>
      <trkpt lat="33.400095" lon="49.272756">
        <ele>1988.390</ele>
        <time>2026-08-28T00:36:26Z</time>
      </trkpt>
      <trkpt lat="33.399353" lon="49.273506">
        <ele>1973.719</ele>
        <time>2026-08-28T00:38:11Z</time>
      </trkpt>
      <trkpt lat="33.398930" lon="49.273575">
        <ele>1967.909</ele>
        <time>2026-08-28T00:38:57Z</time>
      </trkpt>
      <trkpt lat="33.398634" lon="49.273464">
        <ele>1965.479</ele>
        <time>2026-08-28T00:40:48Z</time>
      </trkpt>
      <trkpt lat="33.398340" lon="49.273627">
        <ele>1962.245</ele>
        <time>2026-08-28T00:41:28Z</time>
      </trkpt>
      <trkpt lat="33.397841" lon="49.273517">
        <ele>1954.729</ele>
        <time>2026-08-28T00:42:19Z</time>
      </trkpt>
      <trkpt lat="33.397599" lon="49.273313">
        <ele>1955.993</ele>
        <time>2026-08-28T00:42:51Z</time>
      </trkpt>
      <trkpt lat="33.397325" lon="49.273273">
        <ele>1956.737</ele>
        <time>2026-08-28T00:43:24Z</time>
      </trkpt>
      <trkpt lat="33.397286" lon="49.273185">
        <ele>1957.654</ele>
        <time>2026-08-28T00:43:34Z</time>
      </trkpt>
      <trkpt lat="33.396839" lon="49.273026">
        <ele>1965.553</ele>
        <time>2026-08-28T00:44:40Z</time>
      </trkpt>
      <trkpt lat="33.396091" lon="49.272537">
        <ele>1979.839</ele>
        <time>2026-08-28T00:46:36Z</time>
      </trkpt>
      <trkpt lat="33.395656" lon="49.272059">
        <ele>1987.588</ele>
        <time>2026-08-28T00:48:05Z</time>
      </trkpt>
      <trkpt lat="33.395213" lon="49.272074">
        <ele>1993.628</ele>
        <time>2026-08-28T00:49:12Z</time>
      </trkpt>
      <trkpt lat="33.395012" lon="49.272188">
        <ele>1996.289</ele>
        <time>2026-08-28T00:49:36Z</time>
      </trkpt>
      <trkpt lat="33.394923" lon="49.272409">
        <ele>1996.817</ele>
        <time>2026-08-28T00:50:01Z</time>
      </trkpt>
      <trkpt lat="33.394667" lon="49.272363">
        <ele>1999.109</ele>
        <time>2026-08-28T00:50:47Z</time>
      </trkpt>
      <trkpt lat="33.394393" lon="49.272581">
        <ele>2006.844</ele>
        <time>2026-08-28T00:51:55Z</time>
      </trkpt>
      <trkpt lat="33.394332" lon="49.272450">
        <ele>2012.630</ele>
        <time>2026-08-28T00:52:29Z</time>
      </trkpt>
      <trkpt lat="33.394220" lon="49.272516">
        <ele>2020.144</ele>
        <time>2026-08-28T00:53:26Z</time>
      </trkpt>
      <trkpt lat="33.394359" lon="49.272478">
        <ele>2023.948</ele>
        <time>2026-08-28T00:54:39Z</time>
      </trkpt>
      <trkpt lat="33.394403" lon="49.272578">
        <ele>2023.732</ele>
        <time>2026-08-28T00:55:01Z</time>
      </trkpt>
      <trkpt lat="33.394654" lon="49.272335">
        <ele>2011.969</ele>
        <time>2026-08-28T00:56:04Z</time>
      </trkpt>
      <trkpt lat="33.394800" lon="49.272384">
        <ele>2007.798</ele>
        <time>2026-08-28T00:56:30Z</time>
      </trkpt>
      <trkpt lat="33.394868" lon="49.272615">
        <ele>2002.224</ele>
        <time>2026-08-28T00:56:52Z</time>
      </trkpt>
      <trkpt lat="33.394529" lon="49.273182">
        <ele>2009.313</ele>
        <time>2026-08-28T00:58:17Z</time>
      </trkpt>
      <trkpt lat="33.393423" lon="49.273620">
        <ele>2023.414</ele>
        <time>2026-08-28T01:00:49Z</time>
      </trkpt>
      <trkpt lat="33.392860" lon="49.274154">
        <ele>2029.654</ele>
        <time>2026-08-28T01:02:12Z</time>
      </trkpt>
      <trkpt lat="33.392257" lon="49.274033">
        <ele>2037.709</ele>
        <time>2026-08-28T01:03:33Z</time>
      </trkpt>
      <trkpt lat="33.390864" lon="49.274276">
        <ele>2057.009</ele>
        <time>2026-08-28T01:06:58Z</time>
      </trkpt>
      <trkpt lat="33.390604" lon="49.274763">
        <ele>2056.453</ele>
        <time>2026-08-28T01:08:07Z</time>
      </trkpt>
      <trkpt lat="33.390494" lon="49.274735">
        <ele>2056.999</ele>
        <time>2026-08-28T01:08:24Z</time>
      </trkpt>
      <trkpt lat="33.390476" lon="49.274874">
        <ele>2062.293</ele>
        <time>2026-08-28T01:09:15Z</time>
      </trkpt>
      <trkpt lat="33.389572" lon="49.275601">
        <ele>2081.057</ele>
        <time>2026-08-28T01:12:28Z</time>
      </trkpt>
      <trkpt lat="33.389026" lon="49.276372">
        <ele>2088.621</ele>
        <time>2026-08-28T01:14:28Z</time>
      </trkpt>
      <trkpt lat="33.388409" lon="49.276994">
        <ele>2099.548</ele>
        <time>2026-08-28T01:16:26Z</time>
      </trkpt>
      <trkpt lat="33.387595" lon="49.277214">
        <ele>2122.957</ele>
        <time>2026-08-28T01:18:41Z</time>
      </trkpt>
      <trkpt lat="33.387343" lon="49.277725">
        <ele>2131.143</ele>
        <time>2026-08-28T01:22:20Z</time>
      </trkpt>
      <trkpt lat="33.386975" lon="49.277805">
        <ele>2138.982</ele>
        <time>2026-08-28T01:28:37Z</time>
      </trkpt>
      <trkpt lat="33.386526" lon="49.278045">
        <ele>2148.418</ele>
        <time>2026-08-28T01:29:57Z</time>
      </trkpt>
      <trkpt lat="33.386335" lon="49.278435">
        <ele>2148.698</ele>
        <time>2026-08-28T01:31:08Z</time>
      </trkpt>
      <trkpt lat="33.385843" lon="49.278388">
        <ele>2159.917</ele>
        <time>2026-08-28T01:32:23Z</time>
      </trkpt>
      <trkpt lat="33.385319" lon="49.278553">
        <ele>2163.109</ele>
        <time>2026-08-28T01:34:06Z</time>
      </trkpt>
      <trkpt lat="33.385187" lon="49.278786">
        <ele>2166.573</ele>
        <time>2026-08-28T01:34:57Z</time>
      </trkpt>
      <trkpt lat="33.384956" lon="49.278814">
        <ele>2171.649</ele>
        <time>2026-08-28T01:35:29Z</time>
      </trkpt>
      <trkpt lat="33.384585" lon="49.279173">
        <ele>2183.653</ele>
        <time>2026-08-28T01:37:11Z</time>
      </trkpt>
      <trkpt lat="33.384112" lon="49.279375">
        <ele>2196.397</ele>
        <time>2026-08-28T01:39:00Z</time>
      </trkpt>
      <trkpt lat="33.383370" lon="49.280057">
        <ele>2222.181</ele>
        <time>2026-08-28T01:42:28Z</time>
      </trkpt>
      <trkpt lat="33.382820" lon="49.281105">
        <ele>2236.798</ele>
        <time>2026-08-28T01:45:18Z</time>
      </trkpt>
      <trkpt lat="33.382530" lon="49.282021">
        <ele>2249.127</ele>
        <time>2026-08-28T01:52:50Z</time>
      </trkpt>
      <trkpt lat="33.382073" lon="49.282473">
        <ele>2261.953</ele>
        <time>2026-08-28T01:54:54Z</time>
      </trkpt>
      <trkpt lat="33.381914" lon="49.282986">
        <ele>2268.262</ele>
        <time>2026-08-28T01:57:01Z</time>
      </trkpt>
      <trkpt lat="33.381563" lon="49.283442">
        <ele>2274.867</ele>
        <time>2026-08-28T02:00:41Z</time>
      </trkpt>
      <trkpt lat="33.381572" lon="49.283565">
        <ele>2275.181</ele>
        <time>2026-08-28T02:01:01Z</time>
      </trkpt>
      <trkpt lat="33.381268" lon="49.283748">
        <ele>2283.419</ele>
        <time>2026-08-28T02:02:04Z</time>
      </trkpt>
      <trkpt lat="33.380663" lon="49.284471">
        <ele>2301.209</ele>
        <time>2026-08-28T02:04:57Z</time>
      </trkpt>
      <trkpt lat="33.380444" lon="49.285018">
        <ele>2313.518</ele>
        <time>2026-08-28T02:06:48Z</time>
      </trkpt>
      <trkpt lat="33.380127" lon="49.285204">
        <ele>2314.954</ele>
        <time>2026-08-28T02:07:48Z</time>
      </trkpt>
      <trkpt lat="33.380106" lon="49.285318">
        <ele>2316.338</ele>
        <time>2026-08-28T02:08:04Z</time>
      </trkpt>
      <trkpt lat="33.379705" lon="49.285543">
        <ele>2325.092</ele>
        <time>2026-08-28T02:09:31Z</time>
      </trkpt>
      <trkpt lat="33.379067" lon="49.285462">
        <ele>2330.316</ele>
        <time>2026-08-28T02:11:56Z</time>
      </trkpt>
      <trkpt lat="33.378751" lon="49.285246">
        <ele>2344.883</ele>
        <time>2026-08-28T02:14:12Z</time>
      </trkpt>
      <trkpt lat="33.378453" lon="49.285233">
        <ele>2353.772</ele>
        <time>2026-08-28T02:15:24Z</time>
      </trkpt>
      <trkpt lat="33.378223" lon="49.285359">
        <ele>2363.118</ele>
        <time>2026-08-28T02:16:16Z</time>
      </trkpt>
      <trkpt lat="33.378033" lon="49.285808">
        <ele>2377.217</ele>
        <time>2026-08-28T02:17:39Z</time>
      </trkpt>
      <trkpt lat="33.377702" lon="49.286096">
        <ele>2383.878</ele>
        <time>2026-08-28T02:18:51Z</time>
      </trkpt>
      <trkpt lat="33.377550" lon="49.286541">
        <ele>2391.433</ele>
        <time>2026-08-28T02:20:11Z</time>
      </trkpt>
      <trkpt lat="33.376836" lon="49.286840">
        <ele>2409.226</ele>
        <time>2026-08-28T02:23:00Z</time>
      </trkpt>
      <trkpt lat="33.376685" lon="49.286807">
        <ele>2411.209</ele>
        <time>2026-08-28T02:23:30Z</time>
      </trkpt>
      <trkpt lat="33.376562" lon="49.286989">
        <ele>2413.959</ele>
        <time>2026-08-28T02:24:18Z</time>
      </trkpt>
      <trkpt lat="33.376035" lon="49.287299">
        <ele>2429.945</ele>
        <time>2026-08-28T02:26:40Z</time>
      </trkpt>
      <trkpt lat="33.376036" lon="49.287492">
        <ele>2432.659</ele>
        <time>2026-08-28T02:27:14Z</time>
      </trkpt>
      <trkpt lat="33.375816" lon="49.287957">
        <ele>2447.243</ele>
        <time>2026-08-28T02:29:03Z</time>
      </trkpt>
      <trkpt lat="33.375463" lon="49.288133">
        <ele>2457.117</ele>
        <time>2026-08-28T02:30:36Z</time>
      </trkpt>
      <trkpt lat="33.375288" lon="49.288472">
        <ele>2470.574</ele>
        <time>2026-08-28T02:32:15Z</time>
      </trkpt>
      <trkpt lat="33.374896" lon="49.288281">
        <ele>2486.033</ele>
        <time>2026-08-28T02:34:20Z</time>
      </trkpt>
      <trkpt lat="33.374865" lon="49.288591">
        <ele>2496.959</ele>
        <time>2026-08-28T02:35:33Z</time>
      </trkpt>
      <trkpt lat="33.374757" lon="49.288465">
        <ele>2501.898</ele>
        <time>2026-08-28T02:36:06Z</time>
      </trkpt>
      <trkpt lat="33.374743" lon="49.288624">
        <ele>2505.534</ele>
        <time>2026-08-28T02:36:37Z</time>
      </trkpt>
      <trkpt lat="33.374626" lon="49.288539">
        <ele>2510.555</ele>
        <time>2026-08-28T02:37:16Z</time>
      </trkpt>
      <trkpt lat="33.374515" lon="49.289160">
        <ele>2526.810</ele>
        <time>2026-08-28T02:39:26Z</time>
      </trkpt>
      <trkpt lat="33.374081" lon="49.289352">
        <ele>2539.409</ele>
        <time>2026-08-28T02:41:24Z</time>
      </trkpt>
      <trkpt lat="33.374056" lon="49.289589">
        <ele>2545.645</ele>
        <time>2026-08-28T02:42:09Z</time>
      </trkpt>
      <trkpt lat="33.373835" lon="49.289588">
        <ele>2551.361</ele>
        <time>2026-08-28T02:43:01Z</time>
      </trkpt>
      <trkpt lat="33.373579" lon="49.289883">
        <ele>2565.225</ele>
        <time>2026-08-28T02:44:50Z</time>
      </trkpt>
      <trkpt lat="33.373069" lon="49.289987">
        <ele>2573.249</ele>
        <time>2026-08-28T02:46:34Z</time>
      </trkpt>
      <trkpt lat="33.372854" lon="49.290315">
        <ele>2587.263</ele>
        <time>2026-08-28T02:47:54Z</time>
      </trkpt>
      <trkpt lat="33.372518" lon="49.290399">
        <ele>2596.480</ele>
        <time>2026-08-28T02:49:25Z</time>
      </trkpt>
      <trkpt lat="33.372501" lon="49.290560">
        <ele>2600.449</ele>
        <time>2026-08-28T02:49:56Z</time>
      </trkpt>
      <trkpt lat="33.372258" lon="49.290628">
        <ele>2609.125</ele>
        <time>2026-08-28T02:51:06Z</time>
      </trkpt>
      <trkpt lat="33.371915" lon="49.291255">
        <ele>2627.494</ele>
        <time>2026-08-28T02:54:01Z</time>
      </trkpt>
      <trkpt lat="33.371732" lon="49.291404">
        <ele>2628.314</ele>
        <time>2026-08-28T02:54:37Z</time>
      </trkpt>
      <trkpt lat="33.370196" lon="49.291286">
        <ele>2645.354</ele>
        <time>2026-08-28T02:58:37Z</time>
      </trkpt>
      <trkpt lat="33.369227" lon="49.291714">
        <ele>2661.509</ele>
        <time>2026-08-28T03:01:27Z</time>
      </trkpt>
      <trkpt lat="33.368956" lon="49.292056">
        <ele>2672.909</ele>
        <time>2026-08-28T03:03:15Z</time>
      </trkpt>
      <trkpt lat="33.368413" lon="49.292194">
        <ele>2692.923</ele>
        <time>2026-08-28T03:05:42Z</time>
      </trkpt>
      <trkpt lat="33.367447" lon="49.292772">
        <ele>2730.629</ele>
        <time>2026-08-28T03:22:54Z</time>
      </trkpt>
      <trkpt lat="33.367410" lon="49.292710">
        <ele>2733.243</ele>
        <time>2026-08-28T03:38:35Z</time>
      </trkpt>
      <trkpt lat="33.367442" lon="49.292776">
        <ele>2730.157</ele>
        <time>2026-08-28T03:40:34Z</time>
      </trkpt>
      <trkpt lat="33.367381" lon="49.292723">
        <ele>2730.641</ele>
        <time>2026-08-28T03:42:59Z</time>
      </trkpt>
      <trkpt lat="33.367332" lon="49.292857">
        <ele>2734.648</ele>
        <time>2026-08-28T03:44:35Z</time>
      </trkpt>
      <trkpt lat="33.367111" lon="49.292879">
        <ele>2742.397</ele>
        <time>2026-08-28T03:46:04Z</time>
      </trkpt>
      <trkpt lat="33.366054" lon="49.294918">
        <ele>2821.273</ele>
        <time>2026-08-28T03:56:36Z</time>
      </trkpt>
      <trkpt lat="33.365443" lon="49.295572">
        <ele>2851.172</ele>
        <time>2026-08-28T04:00:21Z</time>
      </trkpt>
      <trkpt lat="33.364981" lon="49.296370">
        <ele>2876.937</ele>
        <time>2026-08-28T04:03:53Z</time>
      </trkpt>
      <trkpt lat="33.364709" lon="49.296660">
        <ele>2887.849</ele>
        <time>2026-08-28T04:05:09Z</time>
      </trkpt>
      <trkpt lat="33.364635" lon="49.296943">
        <ele>2894.413</ele>
        <time>2026-08-28T04:06:00Z</time>
      </trkpt>
      <trkpt lat="33.364086" lon="49.297655">
        <ele>2918.209</ele>
        <time>2026-08-28T04:09:15Z</time>
      </trkpt>
      <trkpt lat="33.364090" lon="49.297841">
        <ele>2922.895</ele>
        <time>2026-08-28T04:09:54Z</time>
      </trkpt>
      <trkpt lat="33.363915" lon="49.298119">
        <ele>2932.411</ele>
        <time>2026-08-28T04:11:28Z</time>
      </trkpt>
      <trkpt lat="33.363595" lon="49.298434">
        <ele>2953.915</ele>
        <time>2026-08-28T04:15:06Z</time>
      </trkpt>
      <trkpt lat="33.363734" lon="49.298632">
        <ele>2962.579</ele>
        <time>2026-08-28T04:16:29Z</time>
      </trkpt>
      <trkpt lat="33.363426" lon="49.299114">
        <ele>2987.073</ele>
        <time>2026-08-28T04:19:49Z</time>
      </trkpt>
      <trkpt lat="33.363406" lon="49.299395">
        <ele>3007.740</ele>
        <time>2026-08-28T04:26:07Z</time>
      </trkpt>
      <trkpt lat="33.363089" lon="49.299412">
        <ele>3011.499</ele>
        <time>2026-08-28T04:27:57Z</time>
      </trkpt>
      <trkpt lat="33.362801" lon="49.299523">
        <ele>3020.855</ele>
        <time>2026-08-28T04:29:25Z</time>
      </trkpt>
      <trkpt lat="33.362710" lon="49.299665">
        <ele>3024.814</ele>
        <time>2026-08-28T04:29:57Z</time>
      </trkpt>
      <trkpt lat="33.362466" lon="49.299672">
        <ele>3034.718</ele>
        <time>2026-08-28T04:31:13Z</time>
      </trkpt>
      <trkpt lat="33.362335" lon="49.299795">
        <ele>3041.898</ele>
        <time>2026-08-28T04:32:05Z</time>
      </trkpt>
      <trkpt lat="33.362232" lon="49.299732">
        <ele>3046.017</ele>
        <time>2026-08-28T04:32:36Z</time>
      </trkpt>
      <trkpt lat="33.361969" lon="49.299915">
        <ele>3056.109</ele>
        <time>2026-08-28T04:34:08Z</time>
      </trkpt>
      <trkpt lat="33.361925" lon="49.299829">
        <ele>3057.123</ele>
        <time>2026-08-28T04:34:19Z</time>
      </trkpt>
      <trkpt lat="33.361423" lon="49.300017">
        <ele>3071.899</ele>
        <time>2026-08-28T04:36:34Z</time>
      </trkpt>
      <trkpt lat="33.361283" lon="49.299983">
        <ele>3078.243</ele>
        <time>2026-08-28T04:37:19Z</time>
      </trkpt>
      <trkpt lat="33.361119" lon="49.300104">
        <ele>3085.047</ele>
        <time>2026-08-28T04:38:07Z</time>
      </trkpt>
      <trkpt lat="33.360767" lon="49.299972">
        <ele>3101.681</ele>
        <time>2026-08-28T04:42:50Z</time>
      </trkpt>
      <trkpt lat="33.360598" lon="49.300232">
        <ele>3114.718</ele>
        <time>2026-08-28T04:45:03Z</time>
      </trkpt>
      <trkpt lat="33.360463" lon="49.300264">
        <ele>3121.217</ele>
        <time>2026-08-28T04:46:25Z</time>
      </trkpt>
      <trkpt lat="33.360280" lon="49.300126">
        <ele>3131.593</ele>
        <time>2026-08-28T04:48:24Z</time>
      </trkpt>
      <trkpt lat="33.360116" lon="49.300180">
        <ele>3137.352</ele>
        <time>2026-08-28T04:49:55Z</time>
      </trkpt>
      <trkpt lat="33.359967" lon="49.300032">
        <ele>3160.374</ele>
        <time>2026-08-28T04:52:20Z</time>
      </trkpt>
      <trkpt lat="33.359732" lon="49.300154">
        <ele>3164.256</ele>
        <time>2026-08-28T04:54:02Z</time>
      </trkpt>
      <trkpt lat="33.359630" lon="49.300547">
        <ele>3186.821</ele>
        <time>2026-08-28T04:58:12Z</time>
      </trkpt>
      <trkpt lat="33.359392" lon="49.300454">
        <ele>3190.509</ele>
        <time>2026-08-28T04:59:34Z</time>
      </trkpt>
      <trkpt lat="33.358776" lon="49.299889">
        <ele>3226.369</ele>
        <time>2026-08-28T05:05:50Z</time>
      </trkpt>
      <trkpt lat="33.358728" lon="49.300027">
        <ele>3231.125</ele>
        <time>2026-08-28T05:06:26Z</time>
      </trkpt>
      <trkpt lat="33.358497" lon="49.299992">
        <ele>3240.079</ele>
        <time>2026-08-28T05:08:50Z</time>
      </trkpt>
      <trkpt lat="33.358473" lon="49.300153">
        <ele>3253.423</ele>
        <time>2026-08-28T05:10:22Z</time>
      </trkpt>
      <trkpt lat="33.358251" lon="49.300120">
        <ele>3261.877</ele>
        <time>2026-08-28T05:13:09Z</time>
      </trkpt>
      <trkpt lat="33.358226" lon="49.300432">
        <ele>3270.054</ele>
        <time>2026-08-28T05:14:40Z</time>
      </trkpt>
      <trkpt lat="33.357855" lon="49.300303">
        <ele>3288.813</ele>
        <time>2026-08-28T05:22:42Z</time>
      </trkpt>
      <trkpt lat="33.357451" lon="49.299913">
        <ele>3313.289</ele>
        <time>2026-08-28T05:26:59Z</time>
      </trkpt>
      <trkpt lat="33.357334" lon="49.299943">
        <ele>3314.818</ele>
        <time>2026-08-28T05:27:34Z</time>
      </trkpt>
      <trkpt lat="33.357313" lon="49.299815">
        <ele>3321.496</ele>
        <time>2026-08-28T05:28:38Z</time>
      </trkpt>
      <trkpt lat="33.357029" lon="49.299808">
        <ele>3328.731</ele>
        <time>2026-08-28T05:30:46Z</time>
      </trkpt>
      <trkpt lat="33.356974" lon="49.299637">
        <ele>3337.424</ele>
        <time>2026-08-28T05:32:13Z</time>
      </trkpt>
      <trkpt lat="33.356451" lon="49.299264">
        <ele>3368.909</ele>
        <time>2026-08-28T05:40:45Z</time>
      </trkpt>
      <trkpt lat="33.355927" lon="49.299142">
        <ele>3401.081</ele>
        <time>2026-08-28T05:46:55Z</time>
      </trkpt>
      <trkpt lat="33.355403" lon="49.298535">
        <ele>3439.977</ele>
        <time>2026-08-28T05:54:41Z</time>
      </trkpt>
      <trkpt lat="33.355364" lon="49.298273">
        <ele>3455.961</ele>
        <time>2026-08-28T05:57:21Z</time>
      </trkpt>
      <trkpt lat="33.355221" lon="49.298254">
        <ele>3464.675</ele>
        <time>2026-08-28T05:58:55Z</time>
      </trkpt>
      <trkpt lat="33.355204" lon="49.298021">
        <ele>3474.839</ele>
        <time>2026-08-28T06:02:04Z</time>
      </trkpt>
      <trkpt lat="33.355077" lon="49.298047">
        <ele>3476.766</ele>
        <time>2026-08-28T06:02:49Z</time>
      </trkpt>
      <trkpt lat="33.355069" lon="49.297895">
        <ele>3484.015</ele>
        <time>2026-08-28T06:04:00Z</time>
      </trkpt>
      <trkpt lat="33.354950" lon="49.297905">
        <ele>3490.221</ele>
        <time>2026-08-28T06:05:12Z</time>
      </trkpt>
      <trkpt lat="33.354943" lon="49.297811">
        <ele>3491.960</ele>
        <time>2026-08-28T06:05:41Z</time>
      </trkpt>
      <trkpt lat="33.354678" lon="49.297807">
        <ele>3502.735</ele>
        <time>2026-08-28T06:08:15Z</time>
      </trkpt>
      <trkpt lat="33.354573" lon="49.297685">
        <ele>3508.386</ele>
        <time>2026-08-28T06:09:36Z</time>
      </trkpt>
      <trkpt lat="33.354483" lon="49.297758">
        <ele>3513.014</ele>
        <time>2026-08-28T06:10:34Z</time>
      </trkpt>
      <trkpt lat="33.354237" lon="49.297486">
        <ele>3531.409</ele>
        <time>2026-08-28T06:14:01Z</time>
      </trkpt>
      <trkpt lat="33.354092" lon="49.297617">
        <ele>3542.575</ele>
        <time>2026-08-28T06:15:41Z</time>
      </trkpt>
      <trkpt lat="33.353663" lon="49.297602">
        <ele>3557.491</ele>
        <time>2026-08-28T06:18:54Z</time>
      </trkpt>
      <trkpt lat="33.352327" lon="49.298285">
        <ele>3597.685</ele>
        <time>2026-08-28T06:30:08Z</time>
      </trkpt>
      <trkpt lat="33.351997" lon="49.298055">
        <ele>3604.999</ele>
        <time>2026-08-28T06:31:12Z</time>
      </trkpt>
      <trkpt lat="33.351431" lon="49.298057">
        <ele>3611.283</ele>
        <time>2026-08-28T06:32:59Z</time>
      </trkpt>
      <trkpt lat="33.351270" lon="49.297966">
        <ele>3613.160</ele>
        <time>2026-08-28T06:33:32Z</time>
      </trkpt>
      <trkpt lat="33.351051" lon="49.298034">
        <ele>3615.949</ele>
        <time>2026-08-28T06:34:16Z</time>
      </trkpt>
      <trkpt lat="33.350492" lon="49.297726">
        <ele>3621.495</ele>
        <time>2026-08-28T06:35:55Z</time>
      </trkpt>
      <trkpt lat="33.350217" lon="49.297676">
        <ele>3626.164</ele>
        <time>2026-08-28T06:36:48Z</time>
      </trkpt>
      <trkpt lat="33.349910" lon="49.297760">
        <ele>3629.827</ele>
        <time>2026-08-28T06:37:45Z</time>
      </trkpt>
      <trkpt lat="33.349733" lon="49.297920">
        <ele>3632.768</ele>
        <time>2026-08-28T06:38:18Z</time>
      </trkpt>
      <trkpt lat="33.349707" lon="49.297741">
        <ele>3630.314</ele>
        <time>2026-08-28T06:45:31Z</time>
      </trkpt>
      <trkpt lat="33.349591" lon="49.298103">
        <ele>3657.809</ele>
        <time>2026-08-28T06:53:11Z</time>
      </trkpt>
      <trkpt lat="33.349615" lon="49.297960">
        <ele>3649.294</ele>
        <time>2026-08-28T06:53:26Z</time>
      </trkpt>
      <trkpt lat="33.349784" lon="49.297876">
        <ele>3633.110</ele>
        <time>2026-08-28T07:18:05Z</time>
      </trkpt>
      <trkpt lat="33.349684" lon="49.298067">
        <ele>3636.734</ele>
        <time>2026-08-28T07:23:10Z</time>
      </trkpt>
      <trkpt lat="33.349762" lon="49.298708">
        <ele>3626.168</ele>
        <time>2026-08-28T07:24:23Z</time>
      </trkpt>
      <trkpt lat="33.349610" lon="49.298872">
        <ele>3623.262</ele>
        <time>2026-08-28T07:24:56Z</time>
      </trkpt>
      <trkpt lat="33.349750" lon="49.299232">
        <ele>3619.199</ele>
        <time>2026-08-28T07:26:48Z</time>
      </trkpt>
      <trkpt lat="33.349795" lon="49.300077">
        <ele>3618.958</ele>
        <time>2026-08-28T07:28:17Z</time>
      </trkpt>
      <trkpt lat="33.349599" lon="49.300637">
        <ele>3616.624</ele>
        <time>2026-08-28T07:29:20Z</time>
      </trkpt>
      <trkpt lat="33.349664" lon="49.301324">
        <ele>3619.693</ele>
        <time>2026-08-28T07:30:40Z</time>
      </trkpt>
      <trkpt lat="33.349588" lon="49.301866">
        <ele>3613.536</ele>
        <time>2026-08-28T07:31:38Z</time>
      </trkpt>
      <trkpt lat="33.350029" lon="49.302792">
        <ele>3617.817</ele>
        <time>2026-08-28T07:34:36Z</time>
      </trkpt>
      <trkpt lat="33.350129" lon="49.303274">
        <ele>3632.418</ele>
        <time>2026-08-28T07:37:56Z</time>
      </trkpt>
      <trkpt lat="33.349829" lon="49.303732">
        <ele>3653.809</ele>
        <time>2026-08-28T07:40:57Z</time>
      </trkpt>
      <trkpt lat="33.349768" lon="49.304341">
        <ele>3679.285</ele>
        <time>2026-08-28T07:44:39Z</time>
      </trkpt>
      <trkpt lat="33.349487" lon="49.304565">
        <ele>3698.011</ele>
        <time>2026-08-28T07:48:31Z</time>
      </trkpt>
      <trkpt lat="33.349518" lon="49.304701">
        <ele>3702.785</ele>
        <time>2026-08-28T07:49:44Z</time>
      </trkpt>
      <trkpt lat="33.349390" lon="49.304711">
        <ele>3707.639</ele>
        <time>2026-08-28T07:50:26Z</time>
      </trkpt>
      <trkpt lat="33.349454" lon="49.305026">
        <ele>3719.033</ele>
        <time>2026-08-28T07:52:43Z</time>
      </trkpt>
      <trkpt lat="33.349387" lon="49.305168">
        <ele>3725.810</ele>
        <time>2026-08-28T07:53:39Z</time>
      </trkpt>
      <trkpt lat="33.349518" lon="49.305356">
        <ele>3742.189</ele>
        <time>2026-08-28T07:55:55Z</time>
      </trkpt>
      <trkpt lat="33.349395" lon="49.305613">
        <ele>3752.825</ele>
        <time>2026-08-28T07:57:50Z</time>
      </trkpt>
      <trkpt lat="33.348676" lon="49.305859">
        <ele>3791.594</ele>
        <time>2026-08-28T08:05:39Z</time>
      </trkpt>
      <trkpt lat="33.348459" lon="49.305574">
        <ele>3810.428</ele>
        <time>2026-08-28T08:15:20Z</time>
      </trkpt>
      <trkpt lat="33.348246" lon="49.305611">
        <ele>3820.589</ele>
        <time>2026-08-28T08:17:36Z</time>
      </trkpt>
      <trkpt lat="33.348216" lon="49.305204">
        <ele>3845.117</ele>
        <time>2026-08-28T08:20:48Z</time>
      </trkpt>
      <trkpt lat="33.347694" lon="49.305427">
        <ele>3856.009</ele>
        <time>2026-08-28T08:26:24Z</time>
      </trkpt>
      <trkpt lat="33.347688" lon="49.305561">
        <ele>3856.554</ele>
        <time>2026-08-28T08:26:42Z</time>
      </trkpt>
      <trkpt lat="33.347265" lon="49.305480">
        <ele>3851.690</ele>
        <time>2026-08-28T08:27:51Z</time>
      </trkpt>
      <trkpt lat="33.346996" lon="49.305215">
        <ele>3864.234</ele>
        <time>2026-08-28T08:34:54Z</time>
      </trkpt>
      <trkpt lat="33.346941" lon="49.305240">
        <ele>3864.768</ele>
        <time>2026-08-28T08:35:23Z</time>
      </trkpt>
      <trkpt lat="33.347060" lon="49.305301">
        <ele>3863.592</ele>
        <time>2026-08-28T08:41:02Z</time>
      </trkpt>
      <trkpt lat="33.346855" lon="49.305180">
        <ele>3869.969</ele>
        <time>2026-08-28T08:42:45Z</time>
      </trkpt>
      <trkpt lat="33.346476" lon="49.305189">
        <ele>3877.288</ele>
        <time>2026-08-28T08:45:10Z</time>
      </trkpt>
      <trkpt lat="33.346344" lon="49.304983">
        <ele>3884.354</ele>
        <time>2026-08-28T08:46:05Z</time>
      </trkpt>
      <trkpt lat="33.346082" lon="49.305165">
        <ele>3899.833</ele>
        <time>2026-08-28T08:48:18Z</time>
      </trkpt>
      <trkpt lat="33.345862" lon="49.305091">
        <ele>3906.491</ele>
        <time>2026-08-28T08:49:42Z</time>
      </trkpt>
      <trkpt lat="33.345567" lon="49.305149">
        <ele>3918.581</ele>
        <time>2026-08-28T08:53:02Z</time>
      </trkpt>
      <trkpt lat="33.345328" lon="49.305378">
        <ele>3916.419</ele>
        <time>2026-08-28T08:55:35Z</time>
      </trkpt>
      <trkpt lat="33.344866" lon="49.305161">
        <ele>3928.209</ele>
        <time>2026-08-28T08:59:53Z</time>
      </trkpt>
      <trkpt lat="33.344825" lon="49.305279">
        <ele>3931.111</ele>
        <time>2026-08-28T09:00:17Z</time>
      </trkpt>
      <trkpt lat="33.344706" lon="49.305212">
        <ele>3932.077</ele>
        <time>2026-08-28T09:00:35Z</time>
      </trkpt>
      <trkpt lat="33.344517" lon="49.305437">
        <ele>3934.111</ele>
        <time>2026-08-28T09:01:47Z</time>
      </trkpt>
      <trkpt lat="33.344515" lon="49.305309">
        <ele>3938.255</ele>
        <time>2026-08-28T09:02:02Z</time>
      </trkpt>
      <trkpt lat="33.344519" lon="49.305428">
        <ele>3942.089</ele>
        <time>2026-08-28T09:02:48Z</time>
      </trkpt>
      <trkpt lat="33.344422" lon="49.305351">
        <ele>3941.846</ele>
        <time>2026-08-28T09:03:34Z</time>
      </trkpt>
      <trkpt lat="33.344314" lon="49.305439">
        <ele>3942.615</ele>
        <time>2026-08-28T09:04:07Z</time>
      </trkpt>
      <trkpt lat="33.344098" lon="49.305400">
        <ele>3943.521</ele>
        <time>2026-08-28T09:05:04Z</time>
      </trkpt>
      <trkpt lat="33.343905" lon="49.305594">
        <ele>3943.710</ele>
        <time>2026-08-28T09:05:36Z</time>
      </trkpt>
      <trkpt lat="33.343460" lon="49.305650">
        <ele>3947.685</ele>
        <time>2026-08-28T09:06:35Z</time>
      </trkpt>
      <trkpt lat="33.343277" lon="49.305485">
        <ele>3949.789</ele>
        <time>2026-08-28T09:07:02Z</time>
      </trkpt>
      <trkpt lat="33.343227" lon="49.305538">
        <ele>3950.817</ele>
        <time>2026-08-28T09:07:16Z</time>
      </trkpt>
      <trkpt lat="33.343147" lon="49.305315">
        <ele>3954.909</ele>
        <time>2026-08-28T09:08:00Z</time>
      </trkpt>
      <trkpt lat="33.343067" lon="49.305337">
        <ele>3959.140</ele>
        <time>2026-08-28T09:08:24Z</time>
      </trkpt>
      <trkpt lat="33.343008" lon="49.305046">
        <ele>3968.116</ele>
        <time>2026-08-28T09:09:32Z</time>
      </trkpt>
      <trkpt lat="33.342960" lon="49.305112">
        <ele>3971.790</ele>
        <time>2026-08-28T09:09:48Z</time>
      </trkpt>
      <trkpt lat="33.342717" lon="49.304841">
        <ele>3985.534</ele>
        <time>2026-08-28T09:11:52Z</time>
      </trkpt>
      <trkpt lat="33.342682" lon="49.304907">
        <ele>3986.958</ele>
        <time>2026-08-28T09:12:06Z</time>
      </trkpt>
      <trkpt lat="33.342397" lon="49.304537">
        <ele>3993.325</ele>
        <time>2026-08-28T09:13:30Z</time>
      </trkpt>
      <trkpt lat="33.342094" lon="49.304802">
        <ele>3991.874</ele>
        <time>2026-08-28T09:15:30Z</time>
      </trkpt>
      <trkpt lat="33.341739" lon="49.304799">
        <ele>4008.940</ele>
        <time>2026-08-28T09:18:00Z</time>
      </trkpt>
      <trkpt lat="33.341681" lon="49.304971">
        <ele>4016.269</ele>
        <time>2026-08-28T09:18:51Z</time>
      </trkpt>
      <trkpt lat="33.341524" lon="49.304990">
        <ele>4023.893</ele>
        <time>2026-08-28T09:19:28Z</time>
      </trkpt>
      <trkpt lat="33.341330" lon="49.304792">
        <ele>4032.065</ele>
        <time>2026-08-28T09:20:18Z</time>
      </trkpt>
      <trkpt lat="33.340905" lon="49.304669">
        <ele>4048.121</ele>
        <time>2026-08-28T09:23:12Z</time>
      </trkpt>
      <trkpt lat="33.340829" lon="49.304405">
        <ele>4060.009</ele>
        <time>2026-08-28T09:25:22Z</time>
      </trkpt>
      <trkpt lat="33.340741" lon="49.304525">
        <ele>4062.781</ele>
        <time>2026-08-28T09:32:27Z</time>
      </trkpt>
      <trkpt lat="33.340620" lon="49.304146">
        <ele>4070.447</ele>
        <time>2026-08-28T09:34:09Z</time>
      </trkpt>
      <trkpt lat="33.340485" lon="49.304176">
        <ele>4075.311</ele>
        <time>2026-08-28T09:34:45Z</time>
      </trkpt>
      <trkpt lat="33.340453" lon="49.304331">
        <ele>4076.575</ele>
        <time>2026-08-28T09:35:03Z</time>
      </trkpt>
      <trkpt lat="33.340220" lon="49.304415">
        <ele>4082.339</ele>
        <time>2026-08-28T09:38:15Z</time>
      </trkpt>
      <trkpt lat="33.340410" lon="49.304378">
        <ele>4077.326</ele>
        <time>2026-08-28T09:54:26Z</time>
      </trkpt>
      <trkpt lat="33.340514" lon="49.304170">
        <ele>4075.535</ele>
        <time>2026-08-28T09:55:01Z</time>
      </trkpt>
      <trkpt lat="33.340604" lon="49.304164">
        <ele>4073.991</ele>
        <time>2026-08-28T09:55:21Z</time>
      </trkpt>
      <trkpt lat="33.340575" lon="49.304276">
        <ele>4077.550</ele>
        <time>2026-08-28T09:59:19Z</time>
      </trkpt>
      <trkpt lat="33.340215" lon="49.304423">
        <ele>4083.148</ele>
        <time>2026-08-28T10:10:44Z</time>
      </trkpt>
      <trkpt lat="33.340491" lon="49.304378">
        <ele>4076.261</ele>
        <time>2026-08-28T10:20:38Z</time>
      </trkpt>
      <trkpt lat="33.340636" lon="49.304457">
        <ele>4073.817</ele>
        <time>2026-08-28T10:22:00Z</time>
      </trkpt>
      <trkpt lat="33.340689" lon="49.304391">
        <ele>4070.009</ele>
        <time>2026-08-28T10:22:19Z</time>
      </trkpt>
      <trkpt lat="33.340934" lon="49.304667">
        <ele>4054.646</ele>
        <time>2026-08-28T10:23:54Z</time>
      </trkpt>
      <trkpt lat="33.341130" lon="49.304704">
        <ele>4046.812</ele>
        <time>2026-08-28T10:24:45Z</time>
      </trkpt>
      <trkpt lat="33.341400" lon="49.304936">
        <ele>4035.466</ele>
        <time>2026-08-28T10:26:06Z</time>
      </trkpt>
      <trkpt lat="33.341683" lon="49.304993">
        <ele>4025.270</ele>
        <time>2026-08-28T10:27:10Z</time>
      </trkpt>
      <trkpt lat="33.341737" lon="49.304808">
        <ele>4018.874</ele>
        <time>2026-08-28T10:27:55Z</time>
      </trkpt>
      <trkpt lat="33.341968" lon="49.304803">
        <ele>4012.141</ele>
        <time>2026-08-28T10:28:44Z</time>
      </trkpt>
      <trkpt lat="33.341912" lon="49.304664">
        <ele>4008.340</ele>
        <time>2026-08-28T10:29:16Z</time>
      </trkpt>
      <trkpt lat="33.342103" lon="49.304583">
        <ele>4002.086</ele>
        <time>2026-08-28T10:30:06Z</time>
      </trkpt>
      <trkpt lat="33.342047" lon="49.304519">
        <ele>3999.595</ele>
        <time>2026-08-28T10:30:22Z</time>
      </trkpt>
      <trkpt lat="33.342121" lon="49.304369">
        <ele>3995.571</ele>
        <time>2026-08-28T10:31:15Z</time>
      </trkpt>
      <trkpt lat="33.341992" lon="49.304296">
        <ele>3990.841</ele>
        <time>2026-08-28T10:31:55Z</time>
      </trkpt>
      <trkpt lat="33.342075" lon="49.303964">
        <ele>3977.615</ele>
        <time>2026-08-28T10:33:44Z</time>
      </trkpt>
      <trkpt lat="33.342024" lon="49.303752">
        <ele>3969.709</ele>
        <time>2026-08-28T10:35:09Z</time>
      </trkpt>
      <trkpt lat="33.342188" lon="49.303772">
        <ele>3965.069</ele>
        <time>2026-08-28T10:36:52Z</time>
      </trkpt>
      <trkpt lat="33.342268" lon="49.303679">
        <ele>3952.495</ele>
        <time>2026-08-28T10:38:56Z</time>
      </trkpt>
      <trkpt lat="33.342529" lon="49.303739">
        <ele>3938.769</ele>
        <time>2026-08-28T10:40:34Z</time>
      </trkpt>
      <trkpt lat="33.342971" lon="49.303282">
        <ele>3899.153</ele>
        <time>2026-08-28T10:45:47Z</time>
      </trkpt>
      <trkpt lat="33.342912" lon="49.303150">
        <ele>3894.787</ele>
        <time>2026-08-28T10:46:17Z</time>
      </trkpt>
      <trkpt lat="33.343044" lon="49.303061">
        <ele>3889.184</ele>
        <time>2026-08-28T10:46:57Z</time>
      </trkpt>
      <trkpt lat="33.343053" lon="49.302805">
        <ele>3878.163</ele>
        <time>2026-08-28T10:48:02Z</time>
      </trkpt>
      <trkpt lat="33.343421" lon="49.302795">
        <ele>3865.679</ele>
        <time>2026-08-28T10:49:12Z</time>
      </trkpt>
      <trkpt lat="33.343819" lon="49.302219">
        <ele>3842.158</ele>
        <time>2026-08-28T10:51:57Z</time>
      </trkpt>
      <trkpt lat="33.343950" lon="49.302310">
        <ele>3834.181</ele>
        <time>2026-08-28T10:52:48Z</time>
      </trkpt>
      <trkpt lat="33.343994" lon="49.302243">
        <ele>3831.561</ele>
        <time>2026-08-28T10:53:07Z</time>
      </trkpt>
      <trkpt lat="33.344101" lon="49.302423">
        <ele>3823.617</ele>
        <time>2026-08-28T10:53:58Z</time>
      </trkpt>
      <trkpt lat="33.344206" lon="49.302171">
        <ele>3812.609</ele>
        <time>2026-08-28T10:55:09Z</time>
      </trkpt>
      <trkpt lat="33.344491" lon="49.302266">
        <ele>3800.240</ele>
        <time>2026-08-28T10:57:43Z</time>
      </trkpt>
      <trkpt lat="33.344427" lon="49.302013">
        <ele>3786.446</ele>
        <time>2026-08-28T11:01:36Z</time>
      </trkpt>
      <trkpt lat="33.344642" lon="49.301995">
        <ele>3776.190</ele>
        <time>2026-08-28T11:03:05Z</time>
      </trkpt>
      <trkpt lat="33.344705" lon="49.302111">
        <ele>3768.174</ele>
        <time>2026-08-28T11:03:30Z</time>
      </trkpt>
      <trkpt lat="33.344754" lon="49.301915">
        <ele>3759.928</ele>
        <time>2026-08-28T11:04:03Z</time>
      </trkpt>
      <trkpt lat="33.344839" lon="49.301825">
        <ele>3754.025</ele>
        <time>2026-08-28T11:04:33Z</time>
      </trkpt>
      <trkpt lat="33.344897" lon="49.301906">
        <ele>3750.834</ele>
        <time>2026-08-28T11:04:50Z</time>
      </trkpt>
      <trkpt lat="33.344957" lon="49.301805">
        <ele>3747.530</ele>
        <time>2026-08-28T11:05:12Z</time>
      </trkpt>
      <trkpt lat="33.345114" lon="49.301991">
        <ele>3735.169</ele>
        <time>2026-08-28T11:06:24Z</time>
      </trkpt>
      <trkpt lat="33.345229" lon="49.301940">
        <ele>3729.291</ele>
        <time>2026-08-28T11:07:04Z</time>
      </trkpt>
      <trkpt lat="33.345416" lon="49.302226">
        <ele>3712.681</ele>
        <time>2026-08-28T11:08:09Z</time>
      </trkpt>
      <trkpt lat="33.345623" lon="49.302281">
        <ele>3704.419</ele>
        <time>2026-08-28T11:08:59Z</time>
      </trkpt>
      <trkpt lat="33.345773" lon="49.302136">
        <ele>3694.509</ele>
        <time>2026-08-28T11:09:58Z</time>
      </trkpt>
      <trkpt lat="33.345889" lon="49.302180">
        <ele>3688.191</ele>
        <time>2026-08-28T11:10:27Z</time>
      </trkpt>
      <trkpt lat="33.345949" lon="49.302031">
        <ele>3682.917</ele>
        <time>2026-08-28T11:11:00Z</time>
      </trkpt>
      <trkpt lat="33.346138" lon="49.302043">
        <ele>3677.351</ele>
        <time>2026-08-28T11:11:35Z</time>
      </trkpt>
      <trkpt lat="33.346509" lon="49.301793">
        <ele>3662.045</ele>
        <time>2026-08-28T11:13:10Z</time>
      </trkpt>
      <trkpt lat="33.346746" lon="49.301258">
        <ele>3648.979</ele>
        <time>2026-08-28T11:14:43Z</time>
      </trkpt>
      <trkpt lat="33.347208" lon="49.301227">
        <ele>3640.396</ele>
        <time>2026-08-28T11:15:45Z</time>
      </trkpt>
      <trkpt lat="33.347733" lon="49.300978">
        <ele>3635.635</ele>
        <time>2026-08-28T11:16:56Z</time>
      </trkpt>
      <trkpt lat="33.348348" lon="49.300439">
        <ele>3629.681</ele>
        <time>2026-08-28T11:18:22Z</time>
      </trkpt>
      <trkpt lat="33.348557" lon="49.300036">
        <ele>3624.920</ele>
        <time>2026-08-28T11:19:22Z</time>
      </trkpt>
      <trkpt lat="33.348670" lon="49.299465">
        <ele>3620.955</ele>
        <time>2026-08-28T11:20:30Z</time>
      </trkpt>
      <trkpt lat="33.349099" lon="49.299403">
        <ele>3621.007</ele>
        <time>2026-08-28T11:21:51Z</time>
      </trkpt>
      <trkpt lat="33.349253" lon="49.299202">
        <ele>3621.617</ele>
        <time>2026-08-28T11:22:15Z</time>
      </trkpt>
      <trkpt lat="33.349629" lon="49.298976">
        <ele>3617.909</ele>
        <time>2026-08-28T11:23:10Z</time>
      </trkpt>
      <trkpt lat="33.349616" lon="49.298855">
        <ele>3617.247</ele>
        <time>2026-08-28T11:23:23Z</time>
      </trkpt>
      <trkpt lat="33.349755" lon="49.298698">
        <ele>3618.943</ele>
        <time>2026-08-28T11:24:07Z</time>
      </trkpt>
      <trkpt lat="33.349732" lon="49.297836">
        <ele>3627.047</ele>
        <time>2026-08-28T11:26:52Z</time>
      </trkpt>
      <trkpt lat="33.349644" lon="49.297771">
        <ele>3627.081</ele>
        <time>2026-08-28T11:27:09Z</time>
      </trkpt>
      <trkpt lat="33.349494" lon="49.297865">
        <ele>3615.125</ele>
        <time>2026-08-28T11:30:04Z</time>
      </trkpt>
      <trkpt lat="33.349757" lon="49.297864">
        <ele>3617.922</ele>
        <time>2026-08-28T11:30:23Z</time>
      </trkpt>
      <trkpt lat="33.349707" lon="49.297791">
        <ele>3622.291</ele>
        <time>2026-08-28T11:30:30Z</time>
      </trkpt>
      <trkpt lat="33.350683" lon="49.297823">
        <ele>3616.357</ele>
        <time>2026-08-28T12:00:40Z</time>
      </trkpt>
      <trkpt lat="33.351059" lon="49.298041">
        <ele>3610.846</ele>
        <time>2026-08-28T12:02:04Z</time>
      </trkpt>
      <trkpt lat="33.351299" lon="49.297976">
        <ele>3608.012</ele>
        <time>2026-08-28T12:02:32Z</time>
      </trkpt>
      <trkpt lat="33.351422" lon="49.298054">
        <ele>3605.632</ele>
        <time>2026-08-28T12:02:47Z</time>
      </trkpt>
      <trkpt lat="33.352016" lon="49.298067">
        <ele>3595.005</ele>
        <time>2026-08-28T12:05:40Z</time>
      </trkpt>
      <trkpt lat="33.352321" lon="49.298293">
        <ele>3593.109</ele>
        <time>2026-08-28T12:06:15Z</time>
      </trkpt>
      <trkpt lat="33.353678" lon="49.297597">
        <ele>3557.853</ele>
        <time>2026-08-28T12:09:45Z</time>
      </trkpt>
      <trkpt lat="33.354034" lon="49.297644">
        <ele>3544.049</ele>
        <time>2026-08-28T12:11:01Z</time>
      </trkpt>
      <trkpt lat="33.354261" lon="49.297498">
        <ele>3532.033</ele>
        <time>2026-08-28T12:12:38Z</time>
      </trkpt>
      <trkpt lat="33.354499" lon="49.297759">
        <ele>3515.697</ele>
        <time>2026-08-28T12:14:22Z</time>
      </trkpt>
      <trkpt lat="33.354583" lon="49.297689">
        <ele>3510.431</ele>
        <time>2026-08-28T12:14:45Z</time>
      </trkpt>
      <trkpt lat="33.354711" lon="49.297813">
        <ele>3501.048</ele>
        <time>2026-08-28T12:16:36Z</time>
      </trkpt>
      <trkpt lat="33.354952" lon="49.297824">
        <ele>3494.067</ele>
        <time>2026-08-28T12:17:38Z</time>
      </trkpt>
      <trkpt lat="33.354970" lon="49.297916">
        <ele>3490.863</ele>
        <time>2026-08-28T12:18:00Z</time>
      </trkpt>
      <trkpt lat="33.355085" lon="49.297906">
        <ele>3486.722</ele>
        <time>2026-08-28T12:18:21Z</time>
      </trkpt>
      <trkpt lat="33.355099" lon="49.298058">
        <ele>3479.715</ele>
        <time>2026-08-28T12:18:57Z</time>
      </trkpt>
      <trkpt lat="33.355229" lon="49.298038">
        <ele>3475.965</ele>
        <time>2026-08-28T12:19:20Z</time>
      </trkpt>
      <trkpt lat="33.355238" lon="49.298250">
        <ele>3466.311</ele>
        <time>2026-08-28T12:20:07Z</time>
      </trkpt>
      <trkpt lat="33.355388" lon="49.298274">
        <ele>3457.909</ele>
        <time>2026-08-28T12:20:48Z</time>
      </trkpt>
      <trkpt lat="33.355426" lon="49.298534">
        <ele>3444.883</ele>
        <time>2026-08-28T12:22:04Z</time>
      </trkpt>
      <trkpt lat="33.355583" lon="49.298647">
        <ele>3434.719</ele>
        <time>2026-08-28T12:23:05Z</time>
      </trkpt>
      <trkpt lat="33.355595" lon="49.298779">
        <ele>3430.063</ele>
        <time>2026-08-28T12:23:42Z</time>
      </trkpt>
      <trkpt lat="33.355733" lon="49.298805">
        <ele>3424.517</ele>
        <time>2026-08-28T12:24:36Z</time>
      </trkpt>
      <trkpt lat="33.355881" lon="49.299098">
        <ele>3410.481</ele>
        <time>2026-08-28T12:25:58Z</time>
      </trkpt>
      <trkpt lat="33.356476" lon="49.299265">
        <ele>3373.588</ele>
        <time>2026-08-28T12:29:25Z</time>
      </trkpt>
      <trkpt lat="33.357076" lon="49.299786">
        <ele>3335.777</ele>
        <time>2026-08-28T12:33:32Z</time>
      </trkpt>
      <trkpt lat="33.357217" lon="49.299770">
        <ele>3329.333</ele>
        <time>2026-08-28T12:34:15Z</time>
      </trkpt>
      <trkpt lat="33.357225" lon="49.299874">
        <ele>3325.662</ele>
        <time>2026-08-28T12:34:33Z</time>
      </trkpt>
      <trkpt lat="33.357343" lon="49.299838">
        <ele>3320.513</ele>
        <time>2026-08-28T12:35:04Z</time>
      </trkpt>
      <trkpt lat="33.357353" lon="49.299961">
        <ele>3316.943</ele>
        <time>2026-08-28T12:35:26Z</time>
      </trkpt>
      <trkpt lat="33.357472" lon="49.299926">
        <ele>3313.607</ele>
        <time>2026-08-28T12:35:49Z</time>
      </trkpt>
      <trkpt lat="33.357563" lon="49.300080">
        <ele>3306.109</ele>
        <time>2026-08-28T12:36:39Z</time>
      </trkpt>
      <trkpt lat="33.357717" lon="49.300103">
        <ele>3300.283</ele>
        <time>2026-08-28T12:37:13Z</time>
      </trkpt>
      <trkpt lat="33.357861" lon="49.300301">
        <ele>3292.459</ele>
        <time>2026-08-28T12:38:04Z</time>
      </trkpt>
      <trkpt lat="33.358159" lon="49.300371">
        <ele>3279.413</ele>
        <time>2026-08-28T12:39:22Z</time>
      </trkpt>
      <trkpt lat="33.358398" lon="49.300626">
        <ele>3264.417</ele>
        <time>2026-08-28T12:41:03Z</time>
      </trkpt>
      <trkpt lat="33.358560" lon="49.300612">
        <ele>3258.271</ele>
        <time>2026-08-28T12:41:40Z</time>
      </trkpt>
      <trkpt lat="33.358775" lon="49.300885">
        <ele>3240.298</ele>
        <time>2026-08-28T12:43:23Z</time>
      </trkpt>
      <trkpt lat="33.358948" lon="49.300937">
        <ele>3231.647</ele>
        <time>2026-08-28T12:44:18Z</time>
      </trkpt>
      <trkpt lat="33.358951" lon="49.301040">
        <ele>3229.093</ele>
        <time>2026-08-28T12:44:36Z</time>
      </trkpt>
      <trkpt lat="33.359144" lon="49.301063">
        <ele>3219.322</ele>
        <time>2026-08-28T12:45:38Z</time>
      </trkpt>
      <trkpt lat="33.359184" lon="49.301197">
        <ele>3214.377</ele>
        <time>2026-08-28T12:46:07Z</time>
      </trkpt>
      <trkpt lat="33.359383" lon="49.301255">
        <ele>3203.661</ele>
        <time>2026-08-28T12:47:09Z</time>
      </trkpt>
      <trkpt lat="33.359588" lon="49.301632">
        <ele>3187.727</ele>
        <time>2026-08-28T12:49:09Z</time>
      </trkpt>
      <trkpt lat="33.360026" lon="49.301296">
        <ele>3159.609</ele>
        <time>2026-08-28T12:51:35Z</time>
      </trkpt>
      <trkpt lat="33.360347" lon="49.301389">
        <ele>3140.549</ele>
        <time>2026-08-28T12:53:08Z</time>
      </trkpt>
      <trkpt lat="33.360579" lon="49.300931">
        <ele>3117.895</ele>
        <time>2026-08-28T12:55:48Z</time>
      </trkpt>
      <trkpt lat="33.360782" lon="49.301006">
        <ele>3107.299</ele>
        <time>2026-08-28T12:56:49Z</time>
      </trkpt>
      <trkpt lat="33.361218" lon="49.299996">
        <ele>3080.443</ele>
        <time>2026-08-28T12:59:33Z</time>
      </trkpt>
      <trkpt lat="33.362129" lon="49.299852">
        <ele>3051.477</ele>
        <time>2026-08-28T13:04:08Z</time>
      </trkpt>
      <trkpt lat="33.362262" lon="49.299737">
        <ele>3046.274</ele>
        <time>2026-08-28T13:04:40Z</time>
      </trkpt>
      <trkpt lat="33.362353" lon="49.299783">
        <ele>3042.123</ele>
        <time>2026-08-28T13:05:03Z</time>
      </trkpt>
      <trkpt lat="33.362744" lon="49.299648">
        <ele>3029.189</ele>
        <time>2026-08-28T13:06:34Z</time>
      </trkpt>
      <trkpt lat="33.363023" lon="49.299432">
        <ele>3016.218</ele>
        <time>2026-08-28T13:07:42Z</time>
      </trkpt>
      <trkpt lat="33.363422" lon="49.299386">
        <ele>3004.081</ele>
        <time>2026-08-28T13:09:11Z</time>
      </trkpt>
      <trkpt lat="33.363428" lon="49.299093">
        <ele>2995.561</ele>
        <time>2026-08-28T13:10:11Z</time>
      </trkpt>
      <trkpt lat="33.363636" lon="49.298837">
        <ele>2983.017</ele>
        <time>2026-08-28T13:11:18Z</time>
      </trkpt>
      <trkpt lat="33.363583" lon="49.298781">
        <ele>2980.509</ele>
        <time>2026-08-28T13:11:30Z</time>
      </trkpt>
      <trkpt lat="33.363813" lon="49.298420">
        <ele>2961.240</ele>
        <time>2026-08-28T13:12:39Z</time>
      </trkpt>
      <trkpt lat="33.363842" lon="49.298154">
        <ele>2950.626</ele>
        <time>2026-08-28T13:13:26Z</time>
      </trkpt>
      <trkpt lat="33.364095" lon="49.297814">
        <ele>2930.560</ele>
        <time>2026-08-28T13:14:24Z</time>
      </trkpt>
      <trkpt lat="33.364107" lon="49.297624">
        <ele>2924.854</ele>
        <time>2026-08-28T13:15:07Z</time>
      </trkpt>
      <trkpt lat="33.364644" lon="49.296930">
        <ele>2897.828</ele>
        <time>2026-08-28T13:17:43Z</time>
      </trkpt>
      <trkpt lat="33.364723" lon="49.296642">
        <ele>2890.185</ele>
        <time>2026-08-28T13:18:12Z</time>
      </trkpt>
      <trkpt lat="33.365034" lon="49.296298">
        <ele>2877.724</ele>
        <time>2026-08-28T13:19:27Z</time>
      </trkpt>
      <trkpt lat="33.365437" lon="49.295587">
        <ele>2858.820</ele>
        <time>2026-08-28T13:21:16Z</time>
      </trkpt>
      <trkpt lat="33.366068" lon="49.294883">
        <ele>2826.479</ele>
        <time>2026-08-28T13:23:32Z</time>
      </trkpt>
      <trkpt lat="33.366876" lon="49.293378">
        <ele>2772.422</ele>
        <time>2026-08-28T13:27:06Z</time>
      </trkpt>
      <trkpt lat="33.366843" lon="49.293131">
        <ele>2762.862</ele>
        <time>2026-08-28T13:27:51Z</time>
      </trkpt>
      <trkpt lat="33.367032" lon="49.292889">
        <ele>2753.108</ele>
        <time>2026-08-28T13:28:52Z</time>
      </trkpt>
      <trkpt lat="33.367400" lon="49.292829">
        <ele>2738.509</ele>
        <time>2026-08-28T13:30:11Z</time>
      </trkpt>
      <trkpt lat="33.367504" lon="49.292671">
        <ele>2724.874</ele>
        <time>2026-08-28T13:49:45Z</time>
      </trkpt>
      <trkpt lat="33.368069" lon="49.292373">
        <ele>2711.210</ele>
        <time>2026-08-28T13:51:47Z</time>
      </trkpt>
      <trkpt lat="33.368743" lon="49.292059">
        <ele>2687.744</ele>
        <time>2026-08-28T13:53:20Z</time>
      </trkpt>
      <trkpt lat="33.368945" lon="49.292061">
        <ele>2681.888</ele>
        <time>2026-08-28T13:53:44Z</time>
      </trkpt>
      <trkpt lat="33.369402" lon="49.291522">
        <ele>2661.222</ele>
        <time>2026-08-28T13:55:00Z</time>
      </trkpt>
      <trkpt lat="33.370393" lon="49.291450">
        <ele>2647.259</ele>
        <time>2026-08-28T13:56:34Z</time>
      </trkpt>
      <trkpt lat="33.370638" lon="49.291269">
        <ele>2643.368</ele>
        <time>2026-08-28T13:57:02Z</time>
      </trkpt>
      <trkpt lat="33.371304" lon="49.291420">
        <ele>2634.864</ele>
        <time>2026-08-28T13:58:13Z</time>
      </trkpt>
      <trkpt lat="33.371881" lon="49.291377">
        <ele>2625.613</ele>
        <time>2026-08-28T13:59:11Z</time>
      </trkpt>
      <trkpt lat="33.372379" lon="49.290753">
        <ele>2620.229</ele>
        <time>2026-08-28T14:00:19Z</time>
      </trkpt>
      <trkpt lat="33.372353" lon="49.290580">
        <ele>2609.700</ele>
        <time>2026-08-28T14:02:22Z</time>
      </trkpt>
      <trkpt lat="33.372529" lon="49.290551">
        <ele>2606.720</ele>
        <time>2026-08-28T14:03:10Z</time>
      </trkpt>
      <trkpt lat="33.372567" lon="49.290389">
        <ele>2601.609</ele>
        <time>2026-08-28T14:03:36Z</time>
      </trkpt>
      <trkpt lat="33.372704" lon="49.290442">
        <ele>2598.624</ele>
        <time>2026-08-28T14:04:38Z</time>
      </trkpt>
      <trkpt lat="33.373086" lon="49.289984">
        <ele>2582.170</ele>
        <time>2026-08-28T14:05:55Z</time>
      </trkpt>
      <trkpt lat="33.373579" lon="49.289886">
        <ele>2568.414</ele>
        <time>2026-08-28T14:06:44Z</time>
      </trkpt>
      <trkpt lat="33.373839" lon="49.289592">
        <ele>2559.678</ele>
        <time>2026-08-28T14:07:37Z</time>
      </trkpt>
      <trkpt lat="33.374062" lon="49.289575">
        <ele>2552.332</ele>
        <time>2026-08-28T14:08:04Z</time>
      </trkpt>
      <trkpt lat="33.374092" lon="49.289346">
        <ele>2547.259</ele>
        <time>2026-08-28T14:08:29Z</time>
      </trkpt>
      <trkpt lat="33.374514" lon="49.289150">
        <ele>2532.758</ele>
        <time>2026-08-28T14:09:34Z</time>
      </trkpt>
      <trkpt lat="33.374632" lon="49.288529">
        <ele>2514.144</ele>
        <time>2026-08-28T14:13:45Z</time>
      </trkpt>
      <trkpt lat="33.374740" lon="49.288607">
        <ele>2511.823</ele>
        <time>2026-08-28T14:14:02Z</time>
      </trkpt>
      <trkpt lat="33.374755" lon="49.288467">
        <ele>2509.534</ele>
        <time>2026-08-28T14:14:19Z</time>
      </trkpt>
      <trkpt lat="33.374860" lon="49.288562">
        <ele>2503.155</ele>
        <time>2026-08-28T14:14:38Z</time>
      </trkpt>
      <trkpt lat="33.374906" lon="49.288286">
        <ele>2497.110</ele>
        <time>2026-08-28T14:15:20Z</time>
      </trkpt>
      <trkpt lat="33.375307" lon="49.288454">
        <ele>2482.809</ele>
        <time>2026-08-28T14:16:19Z</time>
      </trkpt>
      <trkpt lat="33.375356" lon="49.288258">
        <ele>2476.745</ele>
        <time>2026-08-28T14:16:44Z</time>
      </trkpt>
      <trkpt lat="33.375490" lon="49.288248">
        <ele>2469.761</ele>
        <time>2026-08-28T14:16:58Z</time>
      </trkpt>
      <trkpt lat="33.375485" lon="49.288138">
        <ele>2466.875</ele>
        <time>2026-08-28T14:17:08Z</time>
      </trkpt>
      <trkpt lat="33.375626" lon="49.288017">
        <ele>2461.489</ele>
        <time>2026-08-28T14:17:32Z</time>
      </trkpt>
      <trkpt lat="33.375764" lon="49.288016">
        <ele>2456.523</ele>
        <time>2026-08-28T14:17:46Z</time>
      </trkpt>
      <trkpt lat="33.376092" lon="49.287250">
        <ele>2436.390</ele>
        <time>2026-08-28T14:19:19Z</time>
      </trkpt>
      <trkpt lat="33.376580" lon="49.286989">
        <ele>2427.799</ele>
        <time>2026-08-28T14:20:41Z</time>
      </trkpt>
      <trkpt lat="33.376733" lon="49.286787">
        <ele>2423.845</ele>
        <time>2026-08-28T14:21:19Z</time>
      </trkpt>
      <trkpt lat="33.376886" lon="49.286820">
        <ele>2418.994</ele>
        <time>2026-08-28T14:21:36Z</time>
      </trkpt>
      <trkpt lat="33.376969" lon="49.286709">
        <ele>2415.192</ele>
        <time>2026-08-28T14:21:53Z</time>
      </trkpt>
      <trkpt lat="33.377263" lon="49.286667">
        <ele>2407.673</ele>
        <time>2026-08-28T14:22:29Z</time>
      </trkpt>
      <trkpt lat="33.377561" lon="49.286490">
        <ele>2399.320</ele>
        <time>2026-08-28T14:23:07Z</time>
      </trkpt>
      <trkpt lat="33.377703" lon="49.286083">
        <ele>2388.009</ele>
        <time>2026-08-28T14:23:52Z</time>
      </trkpt>
      <trkpt lat="33.378038" lon="49.285775">
        <ele>2379.421</ele>
        <time>2026-08-28T14:24:33Z</time>
      </trkpt>
      <trkpt lat="33.378216" lon="49.285329">
        <ele>2374.477</ele>
        <time>2026-08-28T14:25:20Z</time>
      </trkpt>
      <trkpt lat="33.378653" lon="49.285220">
        <ele>2364.411</ele>
        <time>2026-08-28T14:26:11Z</time>
      </trkpt>
      <trkpt lat="33.379088" lon="49.285454">
        <ele>2351.245</ele>
        <time>2026-08-28T14:27:15Z</time>
      </trkpt>
      <trkpt lat="33.379238" lon="49.285410">
        <ele>2347.899</ele>
        <time>2026-08-28T14:27:36Z</time>
      </trkpt>
      <trkpt lat="33.379735" lon="49.285522">
        <ele>2331.646</ele>
        <time>2026-08-28T14:28:39Z</time>
      </trkpt>
      <trkpt lat="33.380026" lon="49.285373">
        <ele>2327.275</ele>
        <time>2026-08-28T14:29:23Z</time>
      </trkpt>
      <trkpt lat="33.380294" lon="49.285064">
        <ele>2319.051</ele>
        <time>2026-08-28T14:30:09Z</time>
      </trkpt>
      <trkpt lat="33.380467" lon="49.285016">
        <ele>2315.980</ele>
        <time>2026-08-28T14:30:27Z</time>
      </trkpt>
      <trkpt lat="33.380682" lon="49.284442">
        <ele>2303.273</ele>
        <time>2026-08-28T14:31:44Z</time>
      </trkpt>
      <trkpt lat="33.381283" lon="49.283711">
        <ele>2284.885</ele>
        <time>2026-08-28T14:33:33Z</time>
      </trkpt>
      <trkpt lat="33.381538" lon="49.283542">
        <ele>2277.813</ele>
        <time>2026-08-28T14:34:11Z</time>
      </trkpt>
      <trkpt lat="33.381852" lon="49.283075">
        <ele>2268.609</ele>
        <time>2026-08-28T14:35:13Z</time>
      </trkpt>
      <trkpt lat="33.382083" lon="49.282431">
        <ele>2259.689</ele>
        <time>2026-08-28T14:36:26Z</time>
      </trkpt>
      <trkpt lat="33.382584" lon="49.281935">
        <ele>2248.095</ele>
        <time>2026-08-28T14:38:00Z</time>
      </trkpt>
      <trkpt lat="33.382578" lon="49.281615">
        <ele>2243.369</ele>
        <time>2026-08-28T14:38:39Z</time>
      </trkpt>
      <trkpt lat="33.383213" lon="49.280190">
        <ele>2227.973</ele>
        <time>2026-08-28T14:41:10Z</time>
      </trkpt>
      <trkpt lat="33.383782" lon="49.279616">
        <ele>2212.617</ele>
        <time>2026-08-28T14:43:00Z</time>
      </trkpt>
      <trkpt lat="33.384585" lon="49.279110">
        <ele>2189.944</ele>
        <time>2026-08-28T14:45:01Z</time>
      </trkpt>
      <trkpt lat="33.384757" lon="49.278875">
        <ele>2183.823</ele>
        <time>2026-08-28T14:45:41Z</time>
      </trkpt>
      <trkpt lat="33.385527" lon="49.278419">
        <ele>2165.649</ele>
        <time>2026-08-28T14:47:43Z</time>
      </trkpt>
      <trkpt lat="33.386351" lon="49.278404">
        <ele>2157.728</ele>
        <time>2026-08-28T14:49:13Z</time>
      </trkpt>
      <trkpt lat="33.387318" lon="49.277715">
        <ele>2138.549</ele>
        <time>2026-08-28T14:53:23Z</time>
      </trkpt>
      <trkpt lat="33.387601" lon="49.277167">
        <ele>2129.802</ele>
        <time>2026-08-28T14:54:20Z</time>
      </trkpt>
      <trkpt lat="33.388385" lon="49.276965">
        <ele>2117.022</ele>
        <time>2026-08-28T14:56:09Z</time>
      </trkpt>
      <trkpt lat="33.389157" lon="49.276158">
        <ele>2098.909</ele>
        <time>2026-08-28T14:58:07Z</time>
      </trkpt>
      <trkpt lat="33.389539" lon="49.275566">
        <ele>2088.946</ele>
        <time>2026-08-28T14:59:10Z</time>
      </trkpt>
      <trkpt lat="33.390871" lon="49.274523">
        <ele>2062.522</ele>
        <time>2026-08-28T15:02:17Z</time>
      </trkpt>
      <trkpt lat="33.391179" lon="49.274479">
        <ele>2054.996</ele>
        <time>2026-08-28T15:02:53Z</time>
      </trkpt>
      <trkpt lat="33.391263" lon="49.274194">
        <ele>2047.380</ele>
        <time>2026-08-28T15:03:26Z</time>
      </trkpt>
      <trkpt lat="33.392514" lon="49.273991">
        <ele>2031.514</ele>
        <time>2026-08-28T15:07:44Z</time>
      </trkpt>
      <trkpt lat="33.392871" lon="49.274104">
        <ele>2032.371</ele>
        <time>2026-08-28T15:08:33Z</time>
      </trkpt>
      <trkpt lat="33.393427" lon="49.273591">
        <ele>2025.360</ele>
        <time>2026-08-28T15:09:45Z</time>
      </trkpt>
      <trkpt lat="33.393702" lon="49.273512">
        <ele>2023.616</ele>
        <time>2026-08-28T15:10:10Z</time>
      </trkpt>
      <trkpt lat="33.394123" lon="49.273202">
        <ele>2020.165</ele>
        <time>2026-08-28T15:10:53Z</time>
      </trkpt>
      <trkpt lat="33.394519" lon="49.273132">
        <ele>2017.994</ele>
        <time>2026-08-28T15:11:32Z</time>
      </trkpt>
      <trkpt lat="33.394795" lon="49.272796">
        <ele>2010.457</ele>
        <time>2026-08-28T15:12:18Z</time>
      </trkpt>
      <trkpt lat="33.394994" lon="49.272182">
        <ele>2000.722</ele>
        <time>2026-08-28T15:13:19Z</time>
      </trkpt>
      <trkpt lat="33.395197" lon="49.272089">
        <ele>1995.709</ele>
        <time>2026-08-28T15:13:38Z</time>
      </trkpt>
      <trkpt lat="33.395761" lon="49.272075">
        <ele>1990.441</ele>
        <time>2026-08-28T15:14:30Z</time>
      </trkpt>
      <trkpt lat="33.396059" lon="49.272345">
        <ele>1984.537</ele>
        <time>2026-08-28T15:15:05Z</time>
      </trkpt>
      <trkpt lat="33.396118" lon="49.272547">
        <ele>1983.131</ele>
        <time>2026-08-28T15:15:23Z</time>
      </trkpt>
      <trkpt lat="33.396503" lon="49.272726">
        <ele>1971.955</ele>
        <time>2026-08-28T15:16:02Z</time>
      </trkpt>
      <trkpt lat="33.396834" lon="49.273013">
        <ele>1967.699</ele>
        <time>2026-08-28T15:16:40Z</time>
      </trkpt>
      <trkpt lat="33.397622" lon="49.273304">
        <ele>1959.596</ele>
        <time>2026-08-28T15:18:03Z</time>
      </trkpt>
      <trkpt lat="33.397898" lon="49.273523">
        <ele>1954.745</ele>
        <time>2026-08-28T15:18:32Z</time>
      </trkpt>
      <trkpt lat="33.398385" lon="49.273616">
        <ele>1955.131</ele>
        <time>2026-08-28T15:19:15Z</time>
      </trkpt>
      <trkpt lat="33.398620" lon="49.273437">
        <ele>1959.110</ele>
        <time>2026-08-28T15:19:44Z</time>
      </trkpt>
      <trkpt lat="33.398773" lon="49.273483">
        <ele>1960.186</ele>
        <time>2026-08-28T15:20:03Z</time>
      </trkpt>
    </trkseg>
  </trk></gpx>