<?xml version="1.0" encoding="UTF-8"?>
<gpx creator="Wikiloc - https://www.wikiloc.com" version="1.1" xmlns="http://www.topografix.com/GPX/1/1" xmlns:xsi="http://www.w3.org/2001/XMLSchema-instance" xsi:schemaLocation="http://www.topografix.com/GPX/1/1 http://www.topografix.com/GPX/1/1/gpx.xsd">
  <metadata>
    <name>Wikiloc - 1404/07/18 - قله شاه کوه اصفهان</name>
    <link href="https://www.wikiloc.com/hiking-trails/1404-07-18-qlh-shh-khwh-sfhn-235327400">
      <text>1404/07/18 - قله شاه کوه اصفهان - Wikiloc on Wikiloc</text>
    </link>
    <time>2025-10-10T09:11:21.768Z</time>
  </metadata>
  <trk>
    <name>1404/07/18 - قله شاه کوه اصفهان - Wikiloc</name>
    <cmt></cmt>
    <desc></desc>
    <trkseg>
      <trkpt lat="32.491603" lon="51.716321">
        <ele>1579.363</ele>
        <time>2025-10-10T01:26:41.765Z</time>
      </trkpt>
      <trkpt lat="32.489760" lon="51.714620">
        <ele>1590.944</ele>
        <time>2025-10-10T01:31:18.765Z</time>
      </trkpt>
      <trkpt lat="32.489617" lon="51.714578">
        <ele>1590.718</ele>
        <time>2025-10-10T01:31:29.765Z</time>
      </trkpt>
      <trkpt lat="32.488778" lon="51.713873">
        <ele>1597.809</ele>
        <time>2025-10-10T01:32:47.765Z</time>
      </trkpt>
      <trkpt lat="32.487535" lon="51.712593">
        <ele>1608.438</ele>
        <time>2025-10-10T01:35:00.765Z</time>
      </trkpt>
      <trkpt lat="32.486386" lon="51.711619">
        <ele>1615.549</ele>
        <time>2025-10-10T01:36:55.765Z</time>
      </trkpt>
      <trkpt lat="32.484818" lon="51.710079">
        <ele>1618.371</ele>
        <time>2025-10-10T01:39:33.765Z</time>
      </trkpt>
      <trkpt lat="32.484784" lon="51.709820">
        <ele>1624.099</ele>
        <time>2025-10-10T01:39:55.765Z</time>
      </trkpt>
      <trkpt lat="32.484303" lon="51.709303">
        <ele>1626.688</ele>
        <time>2025-10-10T01:40:49.765Z</time>
      </trkpt>
      <trkpt lat="32.484201" lon="51.708916">
        <ele>1626.873</ele>
        <time>2025-10-10T01:41:25.765Z</time>
      </trkpt>
      <trkpt lat="32.483879" lon="51.708409">
        <ele>1631.410</ele>
        <time>2025-10-10T01:42:11.766Z</time>
      </trkpt>
      <trkpt lat="32.483937" lon="51.707996">
        <ele>1632.396</ele>
        <time>2025-10-10T01:42:44.766Z</time>
      </trkpt>
      <trkpt lat="32.483806" lon="51.707493">
        <ele>1636.096</ele>
        <time>2025-10-10T01:43:24.765Z</time>
      </trkpt>
      <trkpt lat="32.483357" lon="51.706454">
        <ele>1641.916</ele>
        <time>2025-10-10T01:44:47.766Z</time>
      </trkpt>
      <trkpt lat="32.483006" lon="51.705944">
        <ele>1639.976</ele>
        <time>2025-10-10T01:45:42.765Z</time>
      </trkpt>
      <trkpt lat="32.482153" lon="51.705865">
        <ele>1666.513</ele>
        <time>2025-10-10T01:47:51.765Z</time>
      </trkpt>
      <trkpt lat="32.481686" lon="51.705922">
        <ele>1679.709</ele>
        <time>2025-10-10T01:49:36.765Z</time>
      </trkpt>
      <trkpt lat="32.481502" lon="51.705842">
        <ele>1685.833</ele>
        <time>2025-10-10T01:50:18.766Z</time>
      </trkpt>
      <trkpt lat="32.481420" lon="51.705696">
        <ele>1696.644</ele>
        <time>2025-10-10T01:50:53.766Z</time>
      </trkpt>
      <trkpt lat="32.481322" lon="51.705731">
        <ele>1703.496</ele>
        <time>2025-10-10T01:54:25.765Z</time>
      </trkpt>
      <trkpt lat="32.481419" lon="51.705742">
        <ele>1706.294</ele>
        <time>2025-10-10T01:55:21.765Z</time>
      </trkpt>
      <trkpt lat="32.481316" lon="51.705588">
        <ele>1707.913</ele>
        <time>2025-10-10T01:58:34.765Z</time>
      </trkpt>
      <trkpt lat="32.481190" lon="51.705676">
        <ele>1708.438</ele>
        <time>2025-10-10T01:59:04.765Z</time>
      </trkpt>
      <trkpt lat="32.480811" lon="51.705425">
        <ele>1743.985</ele>
        <time>2025-10-10T02:02:59.765Z</time>
      </trkpt>
      <trkpt lat="32.480752" lon="51.705198">
        <ele>1753.981</ele>
        <time>2025-10-10T02:05:45.766Z</time>
      </trkpt>
      <trkpt lat="32.480704" lon="51.705316">
        <ele>1758.271</ele>
        <time>2025-10-10T02:06:31.766Z</time>
      </trkpt>
      <trkpt lat="32.480631" lon="51.705129">
        <ele>1767.357</ele>
        <time>2025-10-10T02:08:07.766Z</time>
      </trkpt>
      <trkpt lat="32.480466" lon="51.705036">
        <ele>1779.900</ele>
        <time>2025-10-10T02:09:20.765Z</time>
      </trkpt>
      <trkpt lat="32.480324" lon="51.705025">
        <ele>1777.820</ele>
        <time>2025-10-10T02:11:02.766Z</time>
      </trkpt>
      <trkpt lat="32.480252" lon="51.705148">
        <ele>1777.809</ele>
        <time>2025-10-10T02:12:16.765Z</time>
      </trkpt>
      <trkpt lat="32.479834" lon="51.705286">
        <ele>1776.987</ele>
        <time>2025-10-10T02:14:24.765Z</time>
      </trkpt>
      <trkpt lat="32.479735" lon="51.705275">
        <ele>1778.818</ele>
        <time>2025-10-10T02:14:38.765Z</time>
      </trkpt>
      <trkpt lat="32.479660" lon="51.705133">
        <ele>1779.250</ele>
        <time>2025-10-10T02:15:07.766Z</time>
      </trkpt>
      <trkpt lat="32.479429" lon="51.705148">
        <ele>1780.448</ele>
        <time>2025-10-10T02:15:49.765Z</time>
      </trkpt>
      <trkpt lat="32.479327" lon="51.705338">
        <ele>1779.187</ele>
        <time>2025-10-10T02:16:32.765Z</time>
      </trkpt>
      <trkpt lat="32.479024" lon="51.705509">
        <ele>1776.892</ele>
        <time>2025-10-10T02:17:21.765Z</time>
      </trkpt>
      <trkpt lat="32.478745" lon="51.705448">
        <ele>1779.529</ele>
        <time>2025-10-10T02:18:02.765Z</time>
      </trkpt>
      <trkpt lat="32.478727" lon="51.705500">
        <ele>1779.265</ele>
        <time>2025-10-10T02:18:10.765Z</time>
      </trkpt>
      <trkpt lat="32.478529" lon="51.705365">
        <ele>1780.155</ele>
        <time>2025-10-10T02:18:57.765Z</time>
      </trkpt>
      <trkpt lat="32.478543" lon="51.705202">
        <ele>1782.014</ele>
        <time>2025-10-10T02:19:29.765Z</time>
      </trkpt>
      <trkpt lat="32.478472" lon="51.705127">
        <ele>1787.254</ele>
        <time>2025-10-10T02:19:50.766Z</time>
      </trkpt>
      <trkpt lat="32.478430" lon="51.705175">
        <ele>1786.309</ele>
        <time>2025-10-10T02:19:57.766Z</time>
      </trkpt>
      <trkpt lat="32.478357" lon="51.705023">
        <ele>1793.409</ele>
        <time>2025-10-10T02:20:32.765Z</time>
      </trkpt>
      <trkpt lat="32.477550" lon="51.704988">
        <ele>1819.193</ele>
        <time>2025-10-10T02:26:00.765Z</time>
      </trkpt>
      <trkpt lat="32.477429" lon="51.704762">
        <ele>1827.184</ele>
        <time>2025-10-10T02:28:51.765Z</time>
      </trkpt>
      <trkpt lat="32.477133" lon="51.704731">
        <ele>1841.696</ele>
        <time>2025-10-10T02:31:07.765Z</time>
      </trkpt>
      <trkpt lat="32.477196" lon="51.704605">
        <ele>1841.724</ele>
        <time>2025-10-10T02:31:51.766Z</time>
      </trkpt>
      <trkpt lat="32.477079" lon="51.704659">
        <ele>1849.843</ele>
        <time>2025-10-10T02:32:20.765Z</time>
      </trkpt>
      <trkpt lat="32.477119" lon="51.704554">
        <ele>1855.018</ele>
        <time>2025-10-10T02:34:15.765Z</time>
      </trkpt>
      <trkpt lat="32.477050" lon="51.704567">
        <ele>1854.985</ele>
        <time>2025-10-10T02:34:43.765Z</time>
      </trkpt>
      <trkpt lat="32.477122" lon="51.704522">
        <ele>1857.371</ele>
        <time>2025-10-10T02:35:12.766Z</time>
      </trkpt>
      <trkpt lat="32.476899" lon="51.704467">
        <ele>1864.931</ele>
        <time>2025-10-10T02:36:40.765Z</time>
      </trkpt>
      <trkpt lat="32.476709" lon="51.704640">
        <ele>1861.812</ele>
        <time>2025-10-10T02:37:25.765Z</time>
      </trkpt>
      <trkpt lat="32.476612" lon="51.704553">
        <ele>1866.232</ele>
        <time>2025-10-10T02:38:03.765Z</time>
      </trkpt>
      <trkpt lat="32.476314" lon="51.704702">
        <ele>1876.105</ele>
        <time>2025-10-10T02:40:03.765Z</time>
      </trkpt>
      <trkpt lat="32.476244" lon="51.704558">
        <ele>1879.609</ele>
        <time>2025-10-10T02:40:34.765Z</time>
      </trkpt>
      <trkpt lat="32.476200" lon="51.704661">
        <ele>1876.263</ele>
        <time>2025-10-10T02:40:51.765Z</time>
      </trkpt>
      <trkpt lat="32.476144" lon="51.704585">
        <ele>1875.734</ele>
        <time>2025-10-10T02:41:13.765Z</time>
      </trkpt>
      <trkpt lat="32.475909" lon="51.704591">
        <ele>1891.146</ele>
        <time>2025-10-10T02:41:56.765Z</time>
      </trkpt>
      <trkpt lat="32.475637" lon="51.703824">
        <ele>1918.274</ele>
        <time>2025-10-10T02:51:10.765Z</time>
      </trkpt>
      <trkpt lat="32.475841" lon="51.703358">
        <ele>1935.213</ele>
        <time>2025-10-10T02:53:11.764Z</time>
      </trkpt>
      <trkpt lat="32.475779" lon="51.702926">
        <ele>1947.518</ele>
        <time>2025-10-10T02:55:43.764Z</time>
      </trkpt>
      <trkpt lat="32.475996" lon="51.702909">
        <ele>1957.675</ele>
        <time>2025-10-10T02:57:16.764Z</time>
      </trkpt>
      <trkpt lat="32.475996" lon="51.702723">
        <ele>1966.211</ele>
        <time>2025-10-10T02:58:28.765Z</time>
      </trkpt>
      <trkpt lat="32.475868" lon="51.702571">
        <ele>1976.991</ele>
        <time>2025-10-10T02:59:30.764Z</time>
      </trkpt>
      <trkpt lat="32.475942" lon="51.702217">
        <ele>1989.948</ele>
        <time>2025-10-10T03:01:25.764Z</time>
      </trkpt>
      <trkpt lat="32.476096" lon="51.702008">
        <ele>1997.461</ele>
        <time>2025-10-10T03:02:28.764Z</time>
      </trkpt>
      <trkpt lat="32.476103" lon="51.701727">
        <ele>2008.117</ele>
        <time>2025-10-10T03:03:50.764Z</time>
      </trkpt>
      <trkpt lat="32.476186" lon="51.701681">
        <ele>2012.809</ele>
        <time>2025-10-10T03:04:38.765Z</time>
      </trkpt>
      <trkpt lat="32.476103" lon="51.701482">
        <ele>2026.056</ele>
        <time>2025-10-10T03:06:11.764Z</time>
      </trkpt>
      <trkpt lat="32.476303" lon="51.701393">
        <ele>2043.137</ele>
        <time>2025-10-10T03:10:12.763Z</time>
      </trkpt>
      <trkpt lat="32.476215" lon="51.701253">
        <ele>2040.989</ele>
        <time>2025-10-10T03:10:43.763Z</time>
      </trkpt>
      <trkpt lat="32.476150" lon="51.700663">
        <ele>2071.317</ele>
        <time>2025-10-10T03:15:28.763Z</time>
      </trkpt>
      <trkpt lat="32.476172" lon="51.700171">
        <ele>2066.486</ele>
        <time>2025-10-10T03:17:41.763Z</time>
      </trkpt>
      <trkpt lat="32.476283" lon="51.700104">
        <ele>2074.451</ele>
        <time>2025-10-10T03:19:14.763Z</time>
      </trkpt>
      <trkpt lat="32.476280" lon="51.699873">
        <ele>2088.828</ele>
        <time>2025-10-10T03:20:59.764Z</time>
      </trkpt>
      <trkpt lat="32.476374" lon="51.699927">
        <ele>2089.544</ele>
        <time>2025-10-10T03:21:10.763Z</time>
      </trkpt>
      <trkpt lat="32.476412" lon="51.699832">
        <ele>2094.644</ele>
        <time>2025-10-10T03:21:57.763Z</time>
      </trkpt>
      <trkpt lat="32.476503" lon="51.699866">
        <ele>2096.835</ele>
        <time>2025-10-10T03:22:13.763Z</time>
      </trkpt>
      <trkpt lat="32.476338" lon="51.699683">
        <ele>2111.486</ele>
        <time>2025-10-10T03:35:56.768Z</time>
      </trkpt>
      <trkpt lat="32.476431" lon="51.699364">
        <ele>2127.314</ele>
        <time>2025-10-10T03:38:38.768Z</time>
      </trkpt>
      <trkpt lat="32.476302" lon="51.699290">
        <ele>2133.509</ele>
        <time>2025-10-10T03:39:28.768Z</time>
      </trkpt>
      <trkpt lat="32.476283" lon="51.699133">
        <ele>2137.985</ele>
        <time>2025-10-10T03:41:18.768Z</time>
      </trkpt>
      <trkpt lat="32.476388" lon="51.699027">
        <ele>2146.156</ele>
        <time>2025-10-10T03:43:25.768Z</time>
      </trkpt>
      <trkpt lat="32.476294" lon="51.698834">
        <ele>2160.168</ele>
        <time>2025-10-10T03:47:10.768Z</time>
      </trkpt>
      <trkpt lat="32.476448" lon="51.697953">
        <ele>2168.256</ele>
        <time>2025-10-10T03:49:40.768Z</time>
      </trkpt>
      <trkpt lat="32.476308" lon="51.697342">
        <ele>2182.085</ele>
        <time>2025-10-10T03:51:28.768Z</time>
      </trkpt>
      <trkpt lat="32.476464" lon="51.696803">
        <ele>2181.470</ele>
        <time>2025-10-10T03:52:33.768Z</time>
      </trkpt>
      <trkpt lat="32.476466" lon="51.696369">
        <ele>2195.357</ele>
        <time>2025-10-10T03:54:03.768Z</time>
      </trkpt>
      <trkpt lat="32.476542" lon="51.696302">
        <ele>2189.653</ele>
        <time>2025-10-10T03:54:33.768Z</time>
      </trkpt>
      <trkpt lat="32.476474" lon="51.696200">
        <ele>2194.873</ele>
        <time>2025-10-10T03:55:13.768Z</time>
      </trkpt>
      <trkpt lat="32.476527" lon="51.696177">
        <ele>2201.311</ele>
        <time>2025-10-10T03:55:42.768Z</time>
      </trkpt>
      <trkpt lat="32.476525" lon="51.696332">
        <ele>2201.521</ele>
        <time>2025-10-10T03:55:48.768Z</time>
      </trkpt>
      <trkpt lat="32.476587" lon="51.696172">
        <ele>2201.203</ele>
        <time>2025-10-10T03:56:01.768Z</time>
      </trkpt>
      <trkpt lat="32.476503" lon="51.695925">
        <ele>2216.109</ele>
        <time>2025-10-10T03:57:04.768Z</time>
      </trkpt>
      <trkpt lat="32.476835" lon="51.695360">
        <ele>2223.243</ele>
        <time>2025-10-10T03:59:54.768Z</time>
      </trkpt>
      <trkpt lat="32.476683" lon="51.694934">
        <ele>2234.614</ele>
        <time>2025-10-10T04:01:04.768Z</time>
      </trkpt>
      <trkpt lat="32.476757" lon="51.694310">
        <ele>2245.586</ele>
        <time>2025-10-10T04:02:41.768Z</time>
      </trkpt>
      <trkpt lat="32.476836" lon="51.694048">
        <ele>2253.054</ele>
        <time>2025-10-10T04:03:53.768Z</time>
      </trkpt>
      <trkpt lat="32.477036" lon="51.693831">
        <ele>2259.023</ele>
        <time>2025-10-10T04:05:09.768Z</time>
      </trkpt>
      <trkpt lat="32.477079" lon="51.693433">
        <ele>2267.498</ele>
        <time>2025-10-10T04:06:24.768Z</time>
      </trkpt>
      <trkpt lat="32.477453" lon="51.692368">
        <ele>2292.485</ele>
        <time>2025-10-10T04:11:03.768Z</time>
      </trkpt>
      <trkpt lat="32.477456" lon="51.692097">
        <ele>2300.881</ele>
        <time>2025-10-10T04:17:00.768Z</time>
      </trkpt>
      <trkpt lat="32.477624" lon="51.691758">
        <ele>2310.081</ele>
        <time>2025-10-10T04:18:43.768Z</time>
      </trkpt>
      <trkpt lat="32.477629" lon="51.691256">
        <ele>2326.391</ele>
        <time>2025-10-10T04:20:59.768Z</time>
      </trkpt>
      <trkpt lat="32.477709" lon="51.691061">
        <ele>2333.681</ele>
        <time>2025-10-10T04:22:18.768Z</time>
      </trkpt>
      <trkpt lat="32.477659" lon="51.690970">
        <ele>2339.919</ele>
        <time>2025-10-10T04:22:57.768Z</time>
      </trkpt>
      <trkpt lat="32.477719" lon="51.690648">
        <ele>2350.109</ele>
        <time>2025-10-10T04:24:58.768Z</time>
      </trkpt>
      <trkpt lat="32.477222" lon="51.689560">
        <ele>2387.611</ele>
        <time>2025-10-10T04:37:02.768Z</time>
      </trkpt>
      <trkpt lat="32.477331" lon="51.689724">
        <ele>2396.932</ele>
        <time>2025-10-10T04:37:19.768Z</time>
      </trkpt>
      <trkpt lat="32.477311" lon="51.689669">
        <ele>2398.474</ele>
        <time>2025-10-10T04:37:27.768Z</time>
      </trkpt>
      <trkpt lat="32.477446" lon="51.692357">
        <ele>2305.392</ele>
        <time>2025-10-10T05:18:25.768Z</time>
      </trkpt>
      <trkpt lat="32.477051" lon="51.693532">
        <ele>2281.571</ele>
        <time>2025-10-10T05:21:21.768Z</time>
      </trkpt>
      <trkpt lat="32.477007" lon="51.693883">
        <ele>2274.686</ele>
        <time>2025-10-10T05:21:59.768Z</time>
      </trkpt>
      <trkpt lat="32.476741" lon="51.694370">
        <ele>2257.923</ele>
        <time>2025-10-10T05:23:47.768Z</time>
      </trkpt>
      <trkpt lat="32.476662" lon="51.694875">
        <ele>2248.569</ele>
        <time>2025-10-10T05:24:42.768Z</time>
      </trkpt>
      <trkpt lat="32.476724" lon="51.695544">
        <ele>2241.219</ele>
        <time>2025-10-10T05:26:12.768Z</time>
      </trkpt>
      <trkpt lat="32.476526" lon="51.695742">
        <ele>2229.987</ele>
        <time>2025-10-10T05:27:48.768Z</time>
      </trkpt>
      <trkpt lat="32.476485" lon="51.695518">
        <ele>2225.542</ele>
        <time>2025-10-10T05:28:22.768Z</time>
      </trkpt>
      <trkpt lat="32.476413" lon="51.695528">
        <ele>2230.126</ele>
        <time>2025-10-10T05:29:01.768Z</time>
      </trkpt>
      <trkpt lat="32.476571" lon="51.695605">
        <ele>2230.309</ele>
        <time>2025-10-10T05:56:24.768Z</time>
      </trkpt>
      <trkpt lat="32.476530" lon="51.695525">
        <ele>2232.130</ele>
        <time>2025-10-10T06:35:10.768Z</time>
      </trkpt>
      <trkpt lat="32.476594" lon="51.696199">
        <ele>2217.721</ele>
        <time>2025-10-10T06:39:08.768Z</time>
      </trkpt>
      <trkpt lat="32.476475" lon="51.696315">
        <ele>2209.163</ele>
        <time>2025-10-10T06:41:43.768Z</time>
      </trkpt>
      <trkpt lat="32.476454" lon="51.696769">
        <ele>2198.571</ele>
        <time>2025-10-10T06:43:35.768Z</time>
      </trkpt>
      <trkpt lat="32.476283" lon="51.697365">
        <ele>2196.420</ele>
        <time>2025-10-10T06:44:59.768Z</time>
      </trkpt>
      <trkpt lat="32.476432" lon="51.698082">
        <ele>2185.125</ele>
        <time>2025-10-10T06:46:57.768Z</time>
      </trkpt>
      <trkpt lat="32.476297" lon="51.698964">
        <ele>2173.812</ele>
        <time>2025-10-10T06:48:55.768Z</time>
      </trkpt>
      <trkpt lat="32.476368" lon="51.699037">
        <ele>2168.148</ele>
        <time>2025-10-10T06:49:30.768Z</time>
      </trkpt>
      <trkpt lat="32.476314" lon="51.698986">
        <ele>2166.978</ele>
        <time>2025-10-10T06:50:28.768Z</time>
      </trkpt>
      <trkpt lat="32.476298" lon="51.699101">
        <ele>2157.595</ele>
        <time>2025-10-10T06:53:09.768Z</time>
      </trkpt>
      <trkpt lat="32.476401" lon="51.699272">
        <ele>2151.749</ele>
        <time>2025-10-10T06:55:07.768Z</time>
      </trkpt>
      <trkpt lat="32.476306" lon="51.699393">
        <ele>2150.623</ele>
        <time>2025-10-10T06:55:58.768Z</time>
      </trkpt>
      <trkpt lat="32.476392" lon="51.699519">
        <ele>2149.509</ele>
        <time>2025-10-10T06:56:31.768Z</time>
      </trkpt>
      <trkpt lat="32.476356" lon="51.699613">
        <ele>2141.951</ele>
        <time>2025-10-10T06:57:12.768Z</time>
      </trkpt>
      <trkpt lat="32.476495" lon="51.699816">
        <ele>2128.532</ele>
        <time>2025-10-10T06:59:53.768Z</time>
      </trkpt>
      <trkpt lat="32.476390" lon="51.699807">
        <ele>2114.814</ele>
        <time>2025-10-10T07:01:53.768Z</time>
      </trkpt>
      <trkpt lat="32.476319" lon="51.699961">
        <ele>2106.882</ele>
        <time>2025-10-10T07:02:27.768Z</time>
      </trkpt>
      <trkpt lat="32.476254" lon="51.699862">
        <ele>2100.381</ele>
        <time>2025-10-10T07:03:03.768Z</time>
      </trkpt>
      <trkpt lat="32.476263" lon="51.700136">
        <ele>2088.166</ele>
        <time>2025-10-10T07:05:15.768Z</time>
      </trkpt>
      <trkpt lat="32.476186" lon="51.700165">
        <ele>2081.043</ele>
        <time>2025-10-10T07:06:21.768Z</time>
      </trkpt>
      <trkpt lat="32.476131" lon="51.700065">
        <ele>2079.099</ele>
        <time>2025-10-10T07:07:28.768Z</time>
      </trkpt>
      <trkpt lat="32.476108" lon="51.700187">
        <ele>2084.049</ele>
        <time>2025-10-10T07:07:31.768Z</time>
      </trkpt>
      <trkpt lat="32.476198" lon="51.700265">
        <ele>2074.163</ele>
        <time>2025-10-10T07:09:02.768Z</time>
      </trkpt>
      <trkpt lat="32.476203" lon="51.700957">
        <ele>2073.844</ele>
        <time>2025-10-10T07:13:08.768Z</time>
      </trkpt>
      <trkpt lat="32.476131" lon="51.701155">
        <ele>2071.918</ele>
        <time>2025-10-10T07:14:49.768Z</time>
      </trkpt>
      <trkpt lat="32.476193" lon="51.701440">
        <ele>2061.209</ele>
        <time>2025-10-10T07:16:49.768Z</time>
      </trkpt>
      <trkpt lat="32.476284" lon="51.701425">
        <ele>2057.238</ele>
        <time>2025-10-10T07:17:12.768Z</time>
      </trkpt>
      <trkpt lat="32.476251" lon="51.701535">
        <ele>2054.769</ele>
        <time>2025-10-10T07:18:35.768Z</time>
      </trkpt>
      <trkpt lat="32.476141" lon="51.701446">
        <ele>2049.651</ele>
        <time>2025-10-10T07:19:50.768Z</time>
      </trkpt>
      <trkpt lat="32.476109" lon="51.701500">
        <ele>2044.519</ele>
        <time>2025-10-10T07:21:22.768Z</time>
      </trkpt>
      <trkpt lat="32.476144" lon="51.701758">
        <ele>2036.238</ele>
        <time>2025-10-10T07:23:04.768Z</time>
      </trkpt>
      <trkpt lat="32.475888" lon="51.702471">
        <ele>1998.673</ele>
        <time>2025-10-10T07:26:20.768Z</time>
      </trkpt>
      <trkpt lat="32.475933" lon="51.702575">
        <ele>1994.830</ele>
        <time>2025-10-10T07:26:37.768Z</time>
      </trkpt>
      <trkpt lat="32.475871" lon="51.702668">
        <ele>1989.556</ele>
        <time>2025-10-10T07:27:02.768Z</time>
      </trkpt>
      <trkpt lat="32.475990" lon="51.702792">
        <ele>1982.846</ele>
        <time>2025-10-10T07:27:50.768Z</time>
      </trkpt>
      <trkpt lat="32.475924" lon="51.702982">
        <ele>1975.282</ele>
        <time>2025-10-10T07:28:57.768Z</time>
      </trkpt>
      <trkpt lat="32.475837" lon="51.702973">
        <ele>1971.943</ele>
        <time>2025-10-10T07:29:29.768Z</time>
      </trkpt>
      <trkpt lat="32.475811" lon="51.703393">
        <ele>1956.217</ele>
        <time>2025-10-10T07:31:19.768Z</time>
      </trkpt>
      <trkpt lat="32.475595" lon="51.703893">
        <ele>1928.809</ele>
        <time>2025-10-10T07:33:02.768Z</time>
      </trkpt>
      <trkpt lat="32.475713" lon="51.704194">
        <ele>1921.810</ele>
        <time>2025-10-10T07:33:32.768Z</time>
      </trkpt>
      <trkpt lat="32.475890" lon="51.704336">
        <ele>1912.351</ele>
        <time>2025-10-10T07:34:06.768Z</time>
      </trkpt>
      <trkpt lat="32.475826" lon="51.704461">
        <ele>1910.773</ele>
        <time>2025-10-10T07:35:06.768Z</time>
      </trkpt>
      <trkpt lat="32.475979" lon="51.704596">
        <ele>1901.621</ele>
        <time>2025-10-10T07:35:31.768Z</time>
      </trkpt>
      <trkpt lat="32.476482" lon="51.704548">
        <ele>1882.610</ele>
        <time>2025-10-10T07:53:43.768Z</time>
      </trkpt>
      <trkpt lat="32.476563" lon="51.704431">
        <ele>1878.675</ele>
        <time>2025-10-10T07:54:05.768Z</time>
      </trkpt>
      <trkpt lat="32.476657" lon="51.704554">
        <ele>1874.822</ele>
        <time>2025-10-10T07:55:01.768Z</time>
      </trkpt>
      <trkpt lat="32.476884" lon="51.704457">
        <ele>1870.568</ele>
        <time>2025-10-10T07:56:18.768Z</time>
      </trkpt>
      <trkpt lat="32.477151" lon="51.704529">
        <ele>1868.648</ele>
        <time>2025-10-10T07:57:41.768Z</time>
      </trkpt>
      <trkpt lat="32.477189" lon="51.704691">
        <ele>1866.873</ele>
        <time>2025-10-10T07:59:25.768Z</time>
      </trkpt>
      <trkpt lat="32.477109" lon="51.704826">
        <ele>1873.385</ele>
        <time>2025-10-10T07:59:52.768Z</time>
      </trkpt>
      <trkpt lat="32.477245" lon="51.704653">
        <ele>1863.413</ele>
        <time>2025-10-10T08:00:47.768Z</time>
      </trkpt>
      <trkpt lat="32.477212" lon="51.704789">
        <ele>1862.909</ele>
        <time>2025-10-10T08:00:59.768Z</time>
      </trkpt>
      <trkpt lat="32.477267" lon="51.704800">
        <ele>1863.199</ele>
        <time>2025-10-10T08:01:40.768Z</time>
      </trkpt>
      <trkpt lat="32.477160" lon="51.704891">
        <ele>1857.360</ele>
        <time>2025-10-10T08:02:55.768Z</time>
      </trkpt>
      <trkpt lat="32.477213" lon="51.704744">
        <ele>1848.692</ele>
        <time>2025-10-10T08:04:34.768Z</time>
      </trkpt>
      <trkpt lat="32.477360" lon="51.704794">
        <ele>1844.870</ele>
        <time>2025-10-10T08:05:35.768Z</time>
      </trkpt>
      <trkpt lat="32.477336" lon="51.704747">
        <ele>1845.199</ele>
        <time>2025-10-10T08:05:42.768Z</time>
      </trkpt>
      <trkpt lat="32.477433" lon="51.705020">
        <ele>1822.074</ele>
        <time>2025-10-10T08:07:36.768Z</time>
      </trkpt>
      <trkpt lat="32.477609" lon="51.704957">
        <ele>1821.931</ele>
        <time>2025-10-10T08:08:15.768Z</time>
      </trkpt>
      <trkpt lat="32.477748" lon="51.705063">
        <ele>1808.667</ele>
        <time>2025-10-10T08:10:43.768Z</time>
      </trkpt>
      <trkpt lat="32.477960" lon="51.704975">
        <ele>1811.097</ele>
        <time>2025-10-10T08:11:55.768Z</time>
      </trkpt>
      <trkpt lat="32.478087" lon="51.705032">
        <ele>1805.059</ele>
        <time>2025-10-10T08:12:38.768Z</time>
      </trkpt>
      <trkpt lat="32.478232" lon="51.704941">
        <ele>1804.603</ele>
        <time>2025-10-10T08:12:56.768Z</time>
      </trkpt>
      <trkpt lat="32.478541" lon="51.705136">
        <ele>1791.423</ele>
        <time>2025-10-10T08:14:47.768Z</time>
      </trkpt>
      <trkpt lat="32.478629" lon="51.705291">
        <ele>1787.709</ele>
        <time>2025-10-10T08:15:29.768Z</time>
      </trkpt>
      <trkpt lat="32.479032" lon="51.705286">
        <ele>1785.287</ele>
        <time>2025-10-10T08:16:17.768Z</time>
      </trkpt>
      <trkpt lat="32.479215" lon="51.705411">
        <ele>1771.658</ele>
        <time>2025-10-10T08:17:32.768Z</time>
      </trkpt>
      <trkpt lat="32.479450" lon="51.705301">
        <ele>1771.550</ele>
        <time>2025-10-10T08:18:20.768Z</time>
      </trkpt>
      <trkpt lat="32.479918" lon="51.705442">
        <ele>1774.968</ele>
        <time>2025-10-10T08:20:02.768Z</time>
      </trkpt>
      <trkpt lat="32.480291" lon="51.705262">
        <ele>1768.857</ele>
        <time>2025-10-10T08:22:01.768Z</time>
      </trkpt>
      <trkpt lat="32.480429" lon="51.705083">
        <ele>1772.822</ele>
        <time>2025-10-10T08:23:23.768Z</time>
      </trkpt>
      <trkpt lat="32.480607" lon="51.705060">
        <ele>1777.119</ele>
        <time>2025-10-10T08:24:05.768Z</time>
      </trkpt>
      <trkpt lat="32.480904" lon="51.705451">
        <ele>1747.795</ele>
        <time>2025-10-10T08:32:28.768Z</time>
      </trkpt>
      <trkpt lat="32.481009" lon="51.705426">
        <ele>1743.475</ele>
        <time>2025-10-10T08:33:17.768Z</time>
      </trkpt>
      <trkpt lat="32.481073" lon="51.705571">
        <ele>1736.151</ele>
        <time>2025-10-10T08:34:19.768Z</time>
      </trkpt>
      <trkpt lat="32.481507" lon="51.705687">
        <ele>1716.201</ele>
        <time>2025-10-10T08:36:47.768Z</time>
      </trkpt>
      <trkpt lat="32.481621" lon="51.705885">
        <ele>1706.911</ele>
        <time>2025-10-10T08:38:05.768Z</time>
      </trkpt>
      <trkpt lat="32.482282" lon="51.705862">
        <ele>1683.309</ele>
        <time>2025-10-10T08:40:28.768Z</time>
      </trkpt>
      <trkpt lat="32.483036" lon="51.705961">
        <ele>1662.537</ele>
        <time>2025-10-10T08:42:12.768Z</time>
      </trkpt>
      <trkpt lat="32.483413" lon="51.706504">
        <ele>1657.038</ele>
        <time>2025-10-10T08:43:20.768Z</time>
      </trkpt>
      <trkpt lat="32.483600" lon="51.707119">
        <ele>1653.110</ele>
        <time>2025-10-10T08:46:07.768Z</time>
      </trkpt>
      <trkpt lat="32.483847" lon="51.707454">
        <ele>1650.248</ele>
        <time>2025-10-10T08:46:58.768Z</time>
      </trkpt>
      <trkpt lat="32.484275" lon="51.707749">
        <ele>1644.117</ele>
        <time>2025-10-10T08:48:07.768Z</time>
      </trkpt>
      <trkpt lat="32.484667" lon="51.708186">
        <ele>1641.582</ele>
        <time>2025-10-10T08:49:12.768Z</time>
      </trkpt>
      <trkpt lat="32.484955" lon="51.709078">
        <ele>1635.559</ele>
        <time>2025-10-10T08:50:49.768Z</time>
      </trkpt>
      <trkpt lat="32.484971" lon="51.709745">
        <ele>1635.165</ele>
        <time>2025-10-10T08:51:47.768Z</time>
      </trkpt>
      <trkpt lat="32.484803" lon="51.710028">
        <ele>1635.665</ele>
        <time>2025-10-10T08:52:20.768Z</time>
      </trkpt>
      <trkpt lat="32.484903" lon="51.710201">
        <ele>1636.834</ele>
        <time>2025-10-10T08:52:43.768Z</time>
      </trkpt>
      <trkpt lat="32.487135" lon="51.712284">
        <ele>1616.855</ele>
        <time>2025-10-10T08:58:01.768Z</time>
      </trkpt>
      <trkpt lat="32.487403" lon="51.712397">
        <ele>1616.610</ele>
        <time>2025-10-10T08:58:32.768Z</time>
      </trkpt>
      <trkpt lat="32.488682" lon="51.713734">
        <ele>1609.609</ele>
        <time>2025-10-10T09:01:25.768Z</time>
      </trkpt>
      <trkpt lat="32.491636" lon="51.716318">
        <ele>1595.635</ele>
        <time>2025-10-10T09:07:43.768Z</time>
      </trkpt>
      <trkpt lat="32.491733" lon="51.716323">
        <ele>1595.356</ele>
        <time>2025-10-10T09:07:56.768Z</time>
      </trkpt>
      <trkpt lat="32.491635" lon="51.716288">
        <ele>1595.828</ele>
        <time>2025-10-10T09:11:21.768Z</time>
      </trkpt>
    </trkseg>
  </trk></gpx>