<?xml version="1.0" encoding="UTF-8"?>
<gpx creator="Wikiloc - https://www.wikiloc.com" version="1.1" xmlns="http://www.topografix.com/GPX/1/1" xmlns:xsi="http://www.w3.org/2001/XMLSchema-instance" xsi:schemaLocation="http://www.topografix.com/GPX/1/1 http://www.topografix.com/GPX/1/1/gpx.xsd">
  <metadata>
    <name>Wikiloc - کوه صفه از مسیر پروانه و غار چکاد ۱۴۰۰.۱.۳</name>
    <link href="https://www.wikiloc.com/hiking-trails/khwh-sfh-z-msyr-prwnh-w-gr-chkhd-1400-1-3-68580522">
      <text>کوه صفه از مسیر پروانه و غار چکاد ۱۴۰۰.۱.۳ - Wikiloc on Wikiloc</text>
    </link>
    <time>2021-03-23T16:47:26Z</time>
  </metadata>
  <wpt lat="32.601384" lon="51.650097">
    <ele>1726.1</ele>
    <time>2021-03-23T12:41:46Z</time>
    <name>Fountain</name>
    <cmt></cmt>
    <desc></desc>
  </wpt>
  <wpt lat="32.600056" lon="51.649853">
    <ele>1746.7</ele>
    <time>2021-03-23T12:45:23Z</time>
    <name>Tree</name>
    <cmt></cmt>
    <desc></desc>
  </wpt>
  <wpt lat="32.598459" lon="51.645771">
    <ele>1842.8</ele>
    <time>2021-03-23T13:01:35Z</time>
    <name>Tree</name>
    <cmt></cmt>
    <desc></desc>
  </wpt>
  <wpt lat="32.598553" lon="51.644801">
    <ele>1861.7</ele>
    <time>2021-03-23T13:04:07Z</time>
    <name>Tree</name>
    <cmt></cmt>
    <desc></desc>
  </wpt>
  <wpt lat="32.598584" lon="51.643017">
    <ele>1876.2</ele>
    <time>2021-03-23T13:07:00Z</time>
    <name>Tree</name>
    <cmt></cmt>
    <desc></desc>
  </wpt>
  <wpt lat="32.598421" lon="51.638508">
    <ele>1912.9</ele>
    <time>2021-03-23T13:22:57Z</time>
    <name>Tree</name>
    <cmt></cmt>
    <desc></desc>
  </wpt>
  <wpt lat="32.597849" lon="51.637523">
    <ele>2004.9</ele>
    <time>2021-03-23T13:38:32Z</time>
    <name>Tree</name>
    <cmt></cmt>
    <desc></desc>
  </wpt>
  <wpt lat="32.598308" lon="51.637360">
    <ele>2022.1</ele>
    <time>2021-03-23T13:40:59Z</time>
    <name>Tree</name>
    <cmt></cmt>
    <desc></desc>
  </wpt>
  <wpt lat="32.597841" lon="51.637624">
    <ele>2025.5</ele>
    <time>2021-03-23T13:41:55Z</time>
    <name>Tree</name>
    <cmt></cmt>
    <desc></desc>
  </wpt>
  <wpt lat="32.597403" lon="51.637915">
    <ele>2073.6</ele>
    <time>2021-03-23T13:58:44Z</time>
    <name>Tree</name>
    <cmt></cmt>
    <desc></desc>
  </wpt>
  <wpt lat="32.597060" lon="51.639681">
    <ele>2028.9</ele>
    <time>2021-03-23T14:11:04Z</time>
    <name>Tree</name>
    <cmt></cmt>
    <desc></desc>
  </wpt>
  <wpt lat="32.596967" lon="51.641815">
    <ele>2058.8</ele>
    <time>2021-03-23T14:16:21Z</time>
    <name>Tree</name>
    <cmt></cmt>
    <desc></desc>
  </wpt>
  <wpt lat="32.594438" lon="51.642760">
    <ele>2173.5</ele>
    <time>2021-03-23T14:30:01Z</time>
    <name>Tree</name>
    <cmt></cmt>
    <desc></desc>
  </wpt>
  <wpt lat="32.594438" lon="51.642760">
    <ele>2173.5</ele>
    <time>2021-03-23T14:30:17Z</time>
    <name>Tree</name>
    <cmt></cmt>
    <desc></desc>
  </wpt>
  <wpt lat="32.593881" lon="51.642769">
    <ele>2192.6</ele>
    <time>2021-03-23T14:32:45Z</time>
    <name>Tree</name>
    <cmt></cmt>
    <desc></desc>
  </wpt>
  <wpt lat="32.593637" lon="51.643265">
    <ele>2211.1</ele>
    <time>2021-03-23T14:35:50Z</time>
    <name>Tree</name>
    <cmt></cmt>
    <desc></desc>
  </wpt>
  <wpt lat="32.593257" lon="51.643475">
    <ele>2233.6</ele>
    <time>2021-03-23T14:37:33Z</time>
    <name>Tree</name>
    <cmt></cmt>
    <desc></desc>
  </wpt>
  <wpt lat="32.593165" lon="51.643457">
    <ele>2235.5</ele>
    <time>2021-03-23T14:39:13Z</time>
    <name>Tree</name>
    <cmt></cmt>
    <desc></desc>
  </wpt>
  <wpt lat="32.592701" lon="51.643208">
    <ele>2251.9</ele>
    <time>2021-03-23T14:42:55Z</time>
    <name>Tree</name>
    <cmt></cmt>
    <desc></desc>
  </wpt>
  <wpt lat="32.592787" lon="51.642107">
    <ele>2213.1</ele>
    <time>2021-03-23T14:47:35Z</time>
    <name>Tree</name>
    <cmt></cmt>
    <desc></desc>
  </wpt>
  <wpt lat="32.592371" lon="51.640157">
    <ele>2124.4</ele>
    <time>2021-03-23T14:55:50Z</time>
    <name>Tree</name>
    <cmt></cmt>
    <desc></desc>
  </wpt>
  <wpt lat="32.592124" lon="51.639336">
    <ele>2105.2</ele>
    <time>2021-03-23T14:59:35Z</time>
    <name>Tree</name>
    <cmt></cmt>
    <desc></desc>
  </wpt>
  <wpt lat="32.591283" lon="51.643140">
    <ele>2040.2</ele>
    <time>2021-03-23T15:09:46Z</time>
    <name>Tree</name>
    <cmt></cmt>
    <desc></desc>
  </wpt>
  <wpt lat="32.591594" lon="51.647244">
    <ele>1942.6</ele>
    <time>2021-03-23T15:21:33Z</time>
    <name>Tree</name>
    <cmt></cmt>
    <desc></desc>
  </wpt>
  <wpt lat="32.596008" lon="51.649641">
    <ele>1821.1</ele>
    <time>2021-03-23T15:34:56Z</time>
    <name>Tree</name>
    <cmt></cmt>
    <desc></desc>
  </wpt>
  <wpt lat="32.601467" lon="51.650498">
    <ele>1728.4</ele>
    <time>2021-03-23T15:48:59Z</time>
    <name>Tree</name>
    <cmt></cmt>
    <desc></desc>
  </wpt>
  <trk>
    <name>کوه صفه از مسیر پروانه و غار چکاد ۱۴۰۰.۱.۳ - Wikiloc</name>
    <cmt></cmt>
    <desc></desc>
    <trkseg>
      <trkpt lat="32.601384" lon="51.650097">
        <ele>1724.841</ele>
        <time>2021-03-23T13:41:24Z</time>
      </trkpt>
      <trkpt lat="32.600722" lon="51.650021">
        <ele>1733.581</ele>
        <time>2021-03-23T13:43:21Z</time>
      </trkpt>
      <trkpt lat="32.600704" lon="51.650077">
        <ele>1734.509</ele>
        <time>2021-03-23T13:43:31Z</time>
      </trkpt>
      <trkpt lat="32.600626" lon="51.649996">
        <ele>1735.608</ele>
        <time>2021-03-23T13:43:42Z</time>
      </trkpt>
      <trkpt lat="32.600535" lon="51.650035">
        <ele>1736.060</ele>
        <time>2021-03-23T13:43:53Z</time>
      </trkpt>
      <trkpt lat="32.600064" lon="51.649916">
        <ele>1746.822</ele>
        <time>2021-03-23T13:44:56Z</time>
      </trkpt>
      <trkpt lat="32.600054" lon="51.649851">
        <ele>1746.829</ele>
        <time>2021-03-23T13:45:02Z</time>
      </trkpt>
      <trkpt lat="32.599453" lon="51.649752">
        <ele>1752.982</ele>
        <time>2021-03-23T13:46:33Z</time>
      </trkpt>
      <trkpt lat="32.599226" lon="51.649616">
        <ele>1759.894</ele>
        <time>2021-03-23T13:47:06Z</time>
      </trkpt>
      <trkpt lat="32.599203" lon="51.649676">
        <ele>1760.339</ele>
        <time>2021-03-23T13:47:11Z</time>
      </trkpt>
      <trkpt lat="32.599138" lon="51.649591">
        <ele>1761.666</ele>
        <time>2021-03-23T13:47:21Z</time>
      </trkpt>
      <trkpt lat="32.599052" lon="51.649625">
        <ele>1761.436</ele>
        <time>2021-03-23T13:47:32Z</time>
      </trkpt>
      <trkpt lat="32.598988" lon="51.649528">
        <ele>1761.628</ele>
        <time>2021-03-23T13:47:45Z</time>
      </trkpt>
      <trkpt lat="32.598847" lon="51.649535">
        <ele>1764.289</ele>
        <time>2021-03-23T13:48:05Z</time>
      </trkpt>
      <trkpt lat="32.598545" lon="51.649352">
        <ele>1770.317</ele>
        <time>2021-03-23T13:48:57Z</time>
      </trkpt>
      <trkpt lat="32.598454" lon="51.649367">
        <ele>1771.208</ele>
        <time>2021-03-23T13:49:07Z</time>
      </trkpt>
      <trkpt lat="32.598449" lon="51.649307">
        <ele>1772.458</ele>
        <time>2021-03-23T13:49:13Z</time>
      </trkpt>
      <trkpt lat="32.598198" lon="51.649262">
        <ele>1778.830</ele>
        <time>2021-03-23T13:49:56Z</time>
      </trkpt>
      <trkpt lat="32.598157" lon="51.649159">
        <ele>1780.557</ele>
        <time>2021-03-23T13:50:05Z</time>
      </trkpt>
      <trkpt lat="32.597950" lon="51.649128">
        <ele>1785.550</ele>
        <time>2021-03-23T13:50:49Z</time>
      </trkpt>
      <trkpt lat="32.597816" lon="51.648978">
        <ele>1789.742</ele>
        <time>2021-03-23T13:51:18Z</time>
      </trkpt>
      <trkpt lat="32.597737" lon="51.649010">
        <ele>1791.057</ele>
        <time>2021-03-23T13:51:30Z</time>
      </trkpt>
      <trkpt lat="32.597709" lon="51.648905">
        <ele>1791.854</ele>
        <time>2021-03-23T13:51:42Z</time>
      </trkpt>
      <trkpt lat="32.597177" lon="51.648638">
        <ele>1806.884</ele>
        <time>2021-03-23T13:54:49Z</time>
      </trkpt>
      <trkpt lat="32.597015" lon="51.648452">
        <ele>1812.577</ele>
        <time>2021-03-23T13:55:24Z</time>
      </trkpt>
      <trkpt lat="32.597003" lon="51.648286">
        <ele>1817.761</ele>
        <time>2021-03-23T13:55:44Z</time>
      </trkpt>
      <trkpt lat="32.597099" lon="51.648140">
        <ele>1819.527</ele>
        <time>2021-03-23T13:55:59Z</time>
      </trkpt>
      <trkpt lat="32.597429" lon="51.647961">
        <ele>1821.708</ele>
        <time>2021-03-23T13:56:34Z</time>
      </trkpt>
      <trkpt lat="32.597853" lon="51.647449">
        <ele>1824.143</ele>
        <time>2021-03-23T13:57:31Z</time>
      </trkpt>
      <trkpt lat="32.598034" lon="51.647018">
        <ele>1831.445</ele>
        <time>2021-03-23T13:58:10Z</time>
      </trkpt>
      <trkpt lat="32.598395" lon="51.646729">
        <ele>1829.592</ele>
        <time>2021-03-23T13:59:01Z</time>
      </trkpt>
      <trkpt lat="32.598449" lon="51.646450">
        <ele>1831.535</ele>
        <time>2021-03-23T13:59:31Z</time>
      </trkpt>
      <trkpt lat="32.598382" lon="51.646364">
        <ele>1832.877</ele>
        <time>2021-03-23T13:59:42Z</time>
      </trkpt>
      <trkpt lat="32.598351" lon="51.646404">
        <ele>1834.052</ele>
        <time>2021-03-23T13:59:49Z</time>
      </trkpt>
      <trkpt lat="32.598414" lon="51.646078">
        <ele>1838.929</ele>
        <time>2021-03-23T14:00:26Z</time>
      </trkpt>
      <trkpt lat="32.598512" lon="51.645980">
        <ele>1838.529</ele>
        <time>2021-03-23T14:00:43Z</time>
      </trkpt>
      <trkpt lat="32.598438" lon="51.645725">
        <ele>1843.792</ele>
        <time>2021-03-23T14:01:40Z</time>
      </trkpt>
      <trkpt lat="32.598356" lon="51.645671">
        <ele>1845.073</ele>
        <time>2021-03-23T14:01:58Z</time>
      </trkpt>
      <trkpt lat="32.598335" lon="51.645448">
        <ele>1851.420</ele>
        <time>2021-03-23T14:02:25Z</time>
      </trkpt>
      <trkpt lat="32.598461" lon="51.644955">
        <ele>1860.908</ele>
        <time>2021-03-23T14:03:22Z</time>
      </trkpt>
      <trkpt lat="32.598575" lon="51.644860">
        <ele>1861.375</ele>
        <time>2021-03-23T14:03:39Z</time>
      </trkpt>
      <trkpt lat="32.598480" lon="51.644516">
        <ele>1862.857</ele>
        <time>2021-03-23T14:04:33Z</time>
      </trkpt>
      <trkpt lat="32.598601" lon="51.643876">
        <ele>1870.194</ele>
        <time>2021-03-23T14:05:24Z</time>
      </trkpt>
      <trkpt lat="32.598540" lon="51.643172">
        <ele>1873.527</ele>
        <time>2021-03-23T14:06:25Z</time>
      </trkpt>
      <trkpt lat="32.598587" lon="51.642967">
        <ele>1878.059</ele>
        <time>2021-03-23T14:07:06Z</time>
      </trkpt>
      <trkpt lat="32.598165" lon="51.642105">
        <ele>1880.474</ele>
        <time>2021-03-23T14:12:30Z</time>
      </trkpt>
      <trkpt lat="32.598119" lon="51.641531">
        <ele>1885.211</ele>
        <time>2021-03-23T14:13:29Z</time>
      </trkpt>
      <trkpt lat="32.597943" lon="51.640998">
        <ele>1886.551</ele>
        <time>2021-03-23T14:14:18Z</time>
      </trkpt>
      <trkpt lat="32.598003" lon="51.640776">
        <ele>1890.395</ele>
        <time>2021-03-23T14:14:31Z</time>
      </trkpt>
      <trkpt lat="32.597894" lon="51.640823">
        <ele>1887.449</ele>
        <time>2021-03-23T14:14:37Z</time>
      </trkpt>
      <trkpt lat="32.597901" lon="51.640902">
        <ele>1885.023</ele>
        <time>2021-03-23T14:14:39Z</time>
      </trkpt>
      <trkpt lat="32.597969" lon="51.640868">
        <ele>1884.508</ele>
        <time>2021-03-23T14:14:42Z</time>
      </trkpt>
      <trkpt lat="32.597915" lon="51.640778">
        <ele>1883.685</ele>
        <time>2021-03-23T14:14:54Z</time>
      </trkpt>
      <trkpt lat="32.598075" lon="51.640359">
        <ele>1897.547</ele>
        <time>2021-03-23T14:15:42Z</time>
      </trkpt>
      <trkpt lat="32.598006" lon="51.640219">
        <ele>1899.684</ele>
        <time>2021-03-23T14:16:12Z</time>
      </trkpt>
      <trkpt lat="32.598252" lon="51.639714">
        <ele>1891.257</ele>
        <time>2021-03-23T14:17:14Z</time>
      </trkpt>
      <trkpt lat="32.598248" lon="51.639428">
        <ele>1891.289</ele>
        <time>2021-03-23T14:17:47Z</time>
      </trkpt>
      <trkpt lat="32.598533" lon="51.639185">
        <ele>1892.984</ele>
        <time>2021-03-23T14:18:33Z</time>
      </trkpt>
      <trkpt lat="32.598603" lon="51.638992">
        <ele>1891.791</ele>
        <time>2021-03-23T14:18:49Z</time>
      </trkpt>
      <trkpt lat="32.598561" lon="51.638819">
        <ele>1900.541</ele>
        <time>2021-03-23T14:19:54Z</time>
      </trkpt>
      <trkpt lat="32.598470" lon="51.638847">
        <ele>1900.954</ele>
        <time>2021-03-23T14:20:07Z</time>
      </trkpt>
      <trkpt lat="32.598395" lon="51.638701">
        <ele>1904.956</ele>
        <time>2021-03-23T14:21:15Z</time>
      </trkpt>
      <trkpt lat="32.598462" lon="51.638473">
        <ele>1910.111</ele>
        <time>2021-03-23T14:21:51Z</time>
      </trkpt>
      <trkpt lat="32.598253" lon="51.638439">
        <ele>1921.308</ele>
        <time>2021-03-23T14:23:57Z</time>
      </trkpt>
      <trkpt lat="32.598338" lon="51.638283">
        <ele>1925.931</ele>
        <time>2021-03-23T14:24:17Z</time>
      </trkpt>
      <trkpt lat="32.598300" lon="51.638213">
        <ele>1927.193</ele>
        <time>2021-03-23T14:24:33Z</time>
      </trkpt>
      <trkpt lat="32.598422" lon="51.638065">
        <ele>1939.260</ele>
        <time>2021-03-23T14:26:25Z</time>
      </trkpt>
      <trkpt lat="32.598307" lon="51.638007">
        <ele>1944.813</ele>
        <time>2021-03-23T14:27:30Z</time>
      </trkpt>
      <trkpt lat="32.598360" lon="51.637918">
        <ele>1950.445</ele>
        <time>2021-03-23T14:27:57Z</time>
      </trkpt>
      <trkpt lat="32.598265" lon="51.637791">
        <ele>1961.950</ele>
        <time>2021-03-23T14:29:44Z</time>
      </trkpt>
      <trkpt lat="32.598283" lon="51.637693">
        <ele>1966.947</ele>
        <time>2021-03-23T14:30:09Z</time>
      </trkpt>
      <trkpt lat="32.598153" lon="51.637772">
        <ele>1969.187</ele>
        <time>2021-03-23T14:31:00Z</time>
      </trkpt>
      <trkpt lat="32.598183" lon="51.637730">
        <ele>1970.733</ele>
        <time>2021-03-23T14:31:56Z</time>
      </trkpt>
      <trkpt lat="32.598057" lon="51.637683">
        <ele>1982.223</ele>
        <time>2021-03-23T14:34:22Z</time>
      </trkpt>
      <trkpt lat="32.597919" lon="51.637713">
        <ele>1989.815</ele>
        <time>2021-03-23T14:35:27Z</time>
      </trkpt>
      <trkpt lat="32.597856" lon="51.637527">
        <ele>2004.508</ele>
        <time>2021-03-23T14:37:00Z</time>
      </trkpt>
      <trkpt lat="32.597815" lon="51.637557">
        <ele>2005.989</ele>
        <time>2021-03-23T14:38:44Z</time>
      </trkpt>
      <trkpt lat="32.597847" lon="51.637596">
        <ele>2007.091</ele>
        <time>2021-03-23T14:38:58Z</time>
      </trkpt>
      <trkpt lat="32.597899" lon="51.637562">
        <ele>2007.778</ele>
        <time>2021-03-23T14:39:44Z</time>
      </trkpt>
      <trkpt lat="32.597825" lon="51.637553">
        <ele>2011.561</ele>
        <time>2021-03-23T14:39:46Z</time>
      </trkpt>
      <trkpt lat="32.598474" lon="51.637338">
        <ele>2025.893</ele>
        <time>2021-03-23T14:41:01Z</time>
      </trkpt>
      <trkpt lat="32.597966" lon="51.637615">
        <ele>2027.028</ele>
        <time>2021-03-23T14:41:03Z</time>
      </trkpt>
      <trkpt lat="32.597965" lon="51.637536">
        <ele>2029.325</ele>
        <time>2021-03-23T14:41:23Z</time>
      </trkpt>
      <trkpt lat="32.597840" lon="51.637543">
        <ele>2025.365</ele>
        <time>2021-03-23T14:41:28Z</time>
      </trkpt>
      <trkpt lat="32.598169" lon="51.637513">
        <ele>2029.324</ele>
        <time>2021-03-23T14:41:31Z</time>
      </trkpt>
      <trkpt lat="32.597715" lon="51.637508">
        <ele>2022.004</ele>
        <time>2021-03-23T14:41:34Z</time>
      </trkpt>
      <trkpt lat="32.597967" lon="51.637570">
        <ele>2020.914</ele>
        <time>2021-03-23T14:41:36Z</time>
      </trkpt>
      <trkpt lat="32.597905" lon="51.637655">
        <ele>2021.308</ele>
        <time>2021-03-23T14:41:37Z</time>
      </trkpt>
      <trkpt lat="32.598098" lon="51.637559">
        <ele>2021.578</ele>
        <time>2021-03-23T14:41:38Z</time>
      </trkpt>
      <trkpt lat="32.597907" lon="51.637775">
        <ele>2022.220</ele>
        <time>2021-03-23T14:41:41Z</time>
      </trkpt>
      <trkpt lat="32.598121" lon="51.637587">
        <ele>2025.897</ele>
        <time>2021-03-23T14:41:43Z</time>
      </trkpt>
      <trkpt lat="32.597916" lon="51.637489">
        <ele>2023.310</ele>
        <time>2021-03-23T14:41:48Z</time>
      </trkpt>
      <trkpt lat="32.597856" lon="51.637609">
        <ele>2019.922</ele>
        <time>2021-03-23T14:41:50Z</time>
      </trkpt>
      <trkpt lat="32.597959" lon="51.637511">
        <ele>2023.837</ele>
        <time>2021-03-23T14:41:51Z</time>
      </trkpt>
      <trkpt lat="32.598036" lon="51.637617">
        <ele>2026.764</ele>
        <time>2021-03-23T14:41:52Z</time>
      </trkpt>
      <trkpt lat="32.597849" lon="51.637630">
        <ele>2025.214</ele>
        <time>2021-03-23T14:41:53Z</time>
      </trkpt>
      <trkpt lat="32.598055" lon="51.637488">
        <ele>2029.232</ele>
        <time>2021-03-23T14:41:58Z</time>
      </trkpt>
      <trkpt lat="32.597721" lon="51.637630">
        <ele>2024.392</ele>
        <time>2021-03-23T14:42:02Z</time>
      </trkpt>
      <trkpt lat="32.597969" lon="51.637558">
        <ele>2025.211</ele>
        <time>2021-03-23T14:42:04Z</time>
      </trkpt>
      <trkpt lat="32.597965" lon="51.637484">
        <ele>2033.508</ele>
        <time>2021-03-23T14:42:26Z</time>
      </trkpt>
      <trkpt lat="32.597931" lon="51.637584">
        <ele>2024.339</ele>
        <time>2021-03-23T14:42:58Z</time>
      </trkpt>
      <trkpt lat="32.598318" lon="51.637634">
        <ele>2028.311</ele>
        <time>2021-03-23T14:43:31Z</time>
      </trkpt>
      <trkpt lat="32.598456" lon="51.637585">
        <ele>2032.358</ele>
        <time>2021-03-23T14:43:32Z</time>
      </trkpt>
      <trkpt lat="32.597352" lon="51.637924">
        <ele>2078.971</ele>
        <time>2021-03-23T14:58:14Z</time>
      </trkpt>
      <trkpt lat="32.597403" lon="51.637915">
        <ele>2078.673</ele>
        <time>2021-03-23T14:58:18Z</time>
      </trkpt>
      <trkpt lat="32.597283" lon="51.637792">
        <ele>2065.558</ele>
        <time>2021-03-23T15:04:33Z</time>
      </trkpt>
      <trkpt lat="32.597326" lon="51.637770">
        <ele>2068.865</ele>
        <time>2021-03-23T15:04:38Z</time>
      </trkpt>
      <trkpt lat="32.597411" lon="51.637954">
        <ele>2061.645</ele>
        <time>2021-03-23T15:05:50Z</time>
      </trkpt>
      <trkpt lat="32.597033" lon="51.638627">
        <ele>2045.145</ele>
        <time>2021-03-23T15:08:31Z</time>
      </trkpt>
      <trkpt lat="32.596979" lon="51.639074">
        <ele>2041.647</ele>
        <time>2021-03-23T15:09:14Z</time>
      </trkpt>
      <trkpt lat="32.597072" lon="51.639115">
        <ele>2038.311</ele>
        <time>2021-03-23T15:09:32Z</time>
      </trkpt>
      <trkpt lat="32.596963" lon="51.639208">
        <ele>2033.508</ele>
        <time>2021-03-23T15:09:46Z</time>
      </trkpt>
      <trkpt lat="32.597109" lon="51.639516">
        <ele>2028.380</ele>
        <time>2021-03-23T15:10:10Z</time>
      </trkpt>
      <trkpt lat="32.597025" lon="51.639716">
        <ele>2029.192</ele>
        <time>2021-03-23T15:11:13Z</time>
      </trkpt>
      <trkpt lat="32.597061" lon="51.639933">
        <ele>2033.349</ele>
        <time>2021-03-23T15:11:45Z</time>
      </trkpt>
      <trkpt lat="32.596959" lon="51.640350">
        <ele>2040.242</ele>
        <time>2021-03-23T15:12:52Z</time>
      </trkpt>
      <trkpt lat="32.597038" lon="51.640688">
        <ele>2046.734</ele>
        <time>2021-03-23T15:13:22Z</time>
      </trkpt>
      <trkpt lat="32.596794" lon="51.641205">
        <ele>2053.139</ele>
        <time>2021-03-23T15:14:25Z</time>
      </trkpt>
      <trkpt lat="32.596932" lon="51.641386">
        <ele>2054.056</ele>
        <time>2021-03-23T15:14:56Z</time>
      </trkpt>
      <trkpt lat="32.596964" lon="51.641816">
        <ele>2058.996</ele>
        <time>2021-03-23T15:15:35Z</time>
      </trkpt>
      <trkpt lat="32.596831" lon="51.641963">
        <ele>2064.636</ele>
        <time>2021-03-23T15:16:44Z</time>
      </trkpt>
      <trkpt lat="32.596509" lon="51.642092">
        <ele>2075.517</ele>
        <time>2021-03-23T15:18:10Z</time>
      </trkpt>
      <trkpt lat="32.596466" lon="51.641992">
        <ele>2078.818</ele>
        <time>2021-03-23T15:18:35Z</time>
      </trkpt>
      <trkpt lat="32.596387" lon="51.642023">
        <ele>2082.308</ele>
        <time>2021-03-23T15:18:55Z</time>
      </trkpt>
      <trkpt lat="32.596233" lon="51.641917">
        <ele>2089.719</ele>
        <time>2021-03-23T15:19:34Z</time>
      </trkpt>
      <trkpt lat="32.596107" lon="51.642130">
        <ele>2098.771</ele>
        <time>2021-03-23T15:20:26Z</time>
      </trkpt>
      <trkpt lat="32.595944" lon="51.642091">
        <ele>2106.468</ele>
        <time>2021-03-23T15:21:20Z</time>
      </trkpt>
      <trkpt lat="32.595828" lon="51.641894">
        <ele>2112.151</ele>
        <time>2021-03-23T15:22:19Z</time>
      </trkpt>
      <trkpt lat="32.595717" lon="51.642019">
        <ele>2119.473</ele>
        <time>2021-03-23T15:22:56Z</time>
      </trkpt>
      <trkpt lat="32.595534" lon="51.642039">
        <ele>2121.378</ele>
        <time>2021-03-23T15:23:29Z</time>
      </trkpt>
      <trkpt lat="32.595472" lon="51.642126">
        <ele>2123.065</ele>
        <time>2021-03-23T15:23:48Z</time>
      </trkpt>
      <trkpt lat="32.595495" lon="51.642284">
        <ele>2129.685</ele>
        <time>2021-03-23T15:25:30Z</time>
      </trkpt>
      <trkpt lat="32.595112" lon="51.642643">
        <ele>2143.621</ele>
        <time>2021-03-23T15:26:43Z</time>
      </trkpt>
      <trkpt lat="32.594708" lon="51.642627">
        <ele>2160.341</ele>
        <time>2021-03-23T15:28:45Z</time>
      </trkpt>
      <trkpt lat="32.594666" lon="51.642722">
        <ele>2164.505</ele>
        <time>2021-03-23T15:29:07Z</time>
      </trkpt>
      <trkpt lat="32.594433" lon="51.642762">
        <ele>2173.508</ele>
        <time>2021-03-23T15:29:47Z</time>
      </trkpt>
      <trkpt lat="32.594158" lon="51.642656">
        <ele>2186.178</ele>
        <time>2021-03-23T15:31:32Z</time>
      </trkpt>
      <trkpt lat="32.593968" lon="51.642706">
        <ele>2191.330</ele>
        <time>2021-03-23T15:32:23Z</time>
      </trkpt>
      <trkpt lat="32.593844" lon="51.642817">
        <ele>2194.487</ele>
        <time>2021-03-23T15:33:07Z</time>
      </trkpt>
      <trkpt lat="32.593795" lon="51.643041">
        <ele>2198.550</ele>
        <time>2021-03-23T15:33:41Z</time>
      </trkpt>
      <trkpt lat="32.593608" lon="51.643221">
        <ele>2207.662</ele>
        <time>2021-03-23T15:34:30Z</time>
      </trkpt>
      <trkpt lat="32.593614" lon="51.643357">
        <ele>2217.077</ele>
        <time>2021-03-23T15:36:07Z</time>
      </trkpt>
      <trkpt lat="32.593297" lon="51.643493">
        <ele>2232.644</ele>
        <time>2021-03-23T15:36:58Z</time>
      </trkpt>
      <trkpt lat="32.593026" lon="51.643439">
        <ele>2241.834</ele>
        <time>2021-03-23T15:40:18Z</time>
      </trkpt>
      <trkpt lat="32.592669" lon="51.643166">
        <ele>2253.052</ele>
        <time>2021-03-23T15:43:42Z</time>
      </trkpt>
      <trkpt lat="32.592669" lon="51.643108">
        <ele>2252.753</ele>
        <time>2021-03-23T15:43:56Z</time>
      </trkpt>
      <trkpt lat="32.592760" lon="51.643145">
        <ele>2251.108</ele>
        <time>2021-03-23T15:44:14Z</time>
      </trkpt>
      <trkpt lat="32.592766" lon="51.643085">
        <ele>2249.508</ele>
        <time>2021-03-23T15:44:26Z</time>
      </trkpt>
      <trkpt lat="32.592857" lon="51.643083">
        <ele>2245.521</ele>
        <time>2021-03-23T15:44:43Z</time>
      </trkpt>
      <trkpt lat="32.592724" lon="51.642532">
        <ele>2226.613</ele>
        <time>2021-03-23T15:46:56Z</time>
      </trkpt>
      <trkpt lat="32.592795" lon="51.641997">
        <ele>2214.880</ele>
        <time>2021-03-23T15:47:54Z</time>
      </trkpt>
      <trkpt lat="32.593028" lon="51.641453">
        <ele>2200.313</ele>
        <time>2021-03-23T15:48:59Z</time>
      </trkpt>
      <trkpt lat="32.593117" lon="51.640499">
        <ele>2173.445</ele>
        <time>2021-03-23T15:51:50Z</time>
      </trkpt>
      <trkpt lat="32.593077" lon="51.639866">
        <ele>2160.310</ele>
        <time>2021-03-23T15:52:37Z</time>
      </trkpt>
      <trkpt lat="32.593005" lon="51.639896">
        <ele>2158.787</ele>
        <time>2021-03-23T15:53:09Z</time>
      </trkpt>
      <trkpt lat="32.592899" lon="51.640185">
        <ele>2154.477</ele>
        <time>2021-03-23T15:53:40Z</time>
      </trkpt>
      <trkpt lat="32.592867" lon="51.640120">
        <ele>2151.745</ele>
        <time>2021-03-23T15:53:52Z</time>
      </trkpt>
      <trkpt lat="32.592386" lon="51.640322">
        <ele>2127.047</ele>
        <time>2021-03-23T15:55:13Z</time>
      </trkpt>
      <trkpt lat="32.592274" lon="51.639842">
        <ele>2119.011</ele>
        <time>2021-03-23T15:57:17Z</time>
      </trkpt>
      <trkpt lat="32.592322" lon="51.639609">
        <ele>2114.408</ele>
        <time>2021-03-23T15:58:09Z</time>
      </trkpt>
      <trkpt lat="32.592204" lon="51.639370">
        <ele>2111.290</ele>
        <time>2021-03-23T15:58:54Z</time>
      </trkpt>
      <trkpt lat="32.592068" lon="51.639343">
        <ele>2101.922</ele>
        <time>2021-03-23T15:59:43Z</time>
      </trkpt>
      <trkpt lat="32.591806" lon="51.639477">
        <ele>2086.859</ele>
        <time>2021-03-23T16:00:27Z</time>
      </trkpt>
      <trkpt lat="32.591471" lon="51.639495">
        <ele>2081.882</ele>
        <time>2021-03-23T16:01:28Z</time>
      </trkpt>
      <trkpt lat="32.591324" lon="51.639198">
        <ele>2075.814</ele>
        <time>2021-03-23T16:02:31Z</time>
      </trkpt>
      <trkpt lat="32.591140" lon="51.639189">
        <ele>2075.759</ele>
        <time>2021-03-23T16:02:50Z</time>
      </trkpt>
      <trkpt lat="32.590982" lon="51.639493">
        <ele>2074.376</ele>
        <time>2021-03-23T16:03:22Z</time>
      </trkpt>
      <trkpt lat="32.591118" lon="51.640001">
        <ele>2066.276</ele>
        <time>2021-03-23T16:04:19Z</time>
      </trkpt>
      <trkpt lat="32.591106" lon="51.640991">
        <ele>2055.497</ele>
        <time>2021-03-23T16:05:35Z</time>
      </trkpt>
      <trkpt lat="32.591176" lon="51.641462">
        <ele>2050.723</ele>
        <time>2021-03-23T16:06:21Z</time>
      </trkpt>
      <trkpt lat="32.591007" lon="51.642578">
        <ele>2038.225</ele>
        <time>2021-03-23T16:08:11Z</time>
      </trkpt>
      <trkpt lat="32.591291" lon="51.643202">
        <ele>2039.008</ele>
        <time>2021-03-23T16:09:48Z</time>
      </trkpt>
      <trkpt lat="32.591254" lon="51.643657">
        <ele>2029.865</ele>
        <time>2021-03-23T16:10:28Z</time>
      </trkpt>
      <trkpt lat="32.591316" lon="51.644098">
        <ele>2021.457</ele>
        <time>2021-03-23T16:11:13Z</time>
      </trkpt>
      <trkpt lat="32.591548" lon="51.644986">
        <ele>2006.284</ele>
        <time>2021-03-23T16:12:38Z</time>
      </trkpt>
      <trkpt lat="32.591912" lon="51.645292">
        <ele>1998.967</ele>
        <time>2021-03-23T16:13:15Z</time>
      </trkpt>
      <trkpt lat="32.591773" lon="51.645535">
        <ele>1997.789</ele>
        <time>2021-03-23T16:13:32Z</time>
      </trkpt>
      <trkpt lat="32.591824" lon="51.645679">
        <ele>1996.144</ele>
        <time>2021-03-23T16:13:54Z</time>
      </trkpt>
      <trkpt lat="32.592048" lon="51.645692">
        <ele>1991.341</ele>
        <time>2021-03-23T16:14:20Z</time>
      </trkpt>
      <trkpt lat="32.591656" lon="51.646271">
        <ele>1986.451</ele>
        <time>2021-03-23T16:15:56Z</time>
      </trkpt>
      <trkpt lat="32.591375" lon="51.646357">
        <ele>1979.964</ele>
        <time>2021-03-23T16:16:23Z</time>
      </trkpt>
      <trkpt lat="32.591194" lon="51.646006">
        <ele>1975.306</ele>
        <time>2021-03-23T16:17:02Z</time>
      </trkpt>
      <trkpt lat="32.591176" lon="51.645355">
        <ele>1967.016</ele>
        <time>2021-03-23T16:17:57Z</time>
      </trkpt>
      <trkpt lat="32.591072" lon="51.645360">
        <ele>1966.308</ele>
        <time>2021-03-23T16:18:10Z</time>
      </trkpt>
      <trkpt lat="32.591038" lon="51.646539">
        <ele>1956.682</ele>
        <time>2021-03-23T16:20:01Z</time>
      </trkpt>
      <trkpt lat="32.591320" lon="51.647310">
        <ele>1944.184</ele>
        <time>2021-03-23T16:20:57Z</time>
      </trkpt>
      <trkpt lat="32.591504" lon="51.647304">
        <ele>1943.381</ele>
        <time>2021-03-23T16:21:13Z</time>
      </trkpt>
      <trkpt lat="32.592007" lon="51.646804">
        <ele>1939.364</ele>
        <time>2021-03-23T16:22:17Z</time>
      </trkpt>
      <trkpt lat="32.592414" lon="51.646960">
        <ele>1933.566</ele>
        <time>2021-03-23T16:22:49Z</time>
      </trkpt>
      <trkpt lat="32.593043" lon="51.646761">
        <ele>1927.671</ele>
        <time>2021-03-23T16:23:43Z</time>
      </trkpt>
      <trkpt lat="32.592687" lon="51.647180">
        <ele>1916.718</ele>
        <time>2021-03-23T16:24:31Z</time>
      </trkpt>
      <trkpt lat="32.592874" lon="51.647385">
        <ele>1912.928</ele>
        <time>2021-03-23T16:24:58Z</time>
      </trkpt>
      <trkpt lat="32.593493" lon="51.647242">
        <ele>1900.574</ele>
        <time>2021-03-23T16:25:54Z</time>
      </trkpt>
      <trkpt lat="32.593746" lon="51.647310">
        <ele>1896.156</ele>
        <time>2021-03-23T16:26:12Z</time>
      </trkpt>
      <trkpt lat="32.593845" lon="51.647445">
        <ele>1892.021</ele>
        <time>2021-03-23T16:26:39Z</time>
      </trkpt>
      <trkpt lat="32.594112" lon="51.647570">
        <ele>1885.408</ele>
        <time>2021-03-23T16:27:22Z</time>
      </trkpt>
      <trkpt lat="32.594744" lon="51.647711">
        <ele>1871.343</ele>
        <time>2021-03-23T16:28:26Z</time>
      </trkpt>
      <trkpt lat="32.594927" lon="51.647872">
        <ele>1867.085</ele>
        <time>2021-03-23T16:28:49Z</time>
      </trkpt>
      <trkpt lat="32.594886" lon="51.648305">
        <ele>1859.322</ele>
        <time>2021-03-23T16:29:57Z</time>
      </trkpt>
      <trkpt lat="32.594926" lon="51.648342">
        <ele>1857.255</ele>
        <time>2021-03-23T16:30:02Z</time>
      </trkpt>
      <trkpt lat="32.595092" lon="51.648122">
        <ele>1854.147</ele>
        <time>2021-03-23T16:30:22Z</time>
      </trkpt>
      <trkpt lat="32.595217" lon="51.648098">
        <ele>1852.282</ele>
        <time>2021-03-23T16:30:35Z</time>
      </trkpt>
      <trkpt lat="32.595355" lon="51.648446">
        <ele>1844.639</ele>
        <time>2021-03-23T16:31:26Z</time>
      </trkpt>
      <trkpt lat="32.595715" lon="51.648997">
        <ele>1832.889</ele>
        <time>2021-03-23T16:32:50Z</time>
      </trkpt>
      <trkpt lat="32.595755" lon="51.649230">
        <ele>1828.145</ele>
        <time>2021-03-23T16:33:15Z</time>
      </trkpt>
      <trkpt lat="32.595797" lon="51.649202">
        <ele>1827.547</ele>
        <time>2021-03-23T16:33:25Z</time>
      </trkpt>
      <trkpt lat="32.595960" lon="51.649479">
        <ele>1822.411</ele>
        <time>2021-03-23T16:34:16Z</time>
      </trkpt>
      <trkpt lat="32.596303" lon="51.650169">
        <ele>1808.408</ele>
        <time>2021-03-23T16:35:46Z</time>
      </trkpt>
      <trkpt lat="32.596471" lon="51.650280">
        <ele>1804.940</ele>
        <time>2021-03-23T16:36:03Z</time>
      </trkpt>
      <trkpt lat="32.596711" lon="51.650084">
        <ele>1801.932</ele>
        <time>2021-03-23T16:36:28Z</time>
      </trkpt>
      <trkpt lat="32.596921" lon="51.650053">
        <ele>1801.229</ele>
        <time>2021-03-23T16:36:47Z</time>
      </trkpt>
      <trkpt lat="32.597169" lon="51.649741">
        <ele>1800.142</ele>
        <time>2021-03-23T16:37:35Z</time>
      </trkpt>
      <trkpt lat="32.597568" lon="51.649739">
        <ele>1798.194</ele>
        <time>2021-03-23T16:38:08Z</time>
      </trkpt>
      <trkpt lat="32.597992" lon="51.649118">
        <ele>1796.719</ele>
        <time>2021-03-23T16:39:26Z</time>
      </trkpt>
      <trkpt lat="32.598889" lon="51.649564">
        <ele>1774.086</ele>
        <time>2021-03-23T16:41:21Z</time>
      </trkpt>
      <trkpt lat="32.599345" lon="51.649663">
        <ele>1765.986</ele>
        <time>2021-03-23T16:42:30Z</time>
      </trkpt>
      <trkpt lat="32.599502" lon="51.649777">
        <ele>1763.511</ele>
        <time>2021-03-23T16:42:55Z</time>
      </trkpt>
      <trkpt lat="32.599673" lon="51.649759">
        <ele>1760.921</ele>
        <time>2021-03-23T16:43:15Z</time>
      </trkpt>
      <trkpt lat="32.600093" lon="51.649943">
        <ele>1755.603</ele>
        <time>2021-03-23T16:43:58Z</time>
      </trkpt>
      <trkpt lat="32.600194" lon="51.649911">
        <ele>1753.908</ele>
        <time>2021-03-23T16:44:06Z</time>
      </trkpt>
      <trkpt lat="32.600570" lon="51.650050">
        <ele>1746.597</ele>
        <time>2021-03-23T16:44:40Z</time>
      </trkpt>
      <trkpt lat="32.600608" lon="51.649999">
        <ele>1746.029</ele>
        <time>2021-03-23T16:44:44Z</time>
      </trkpt>
      <trkpt lat="32.601605" lon="51.650105">
        <ele>1730.516</ele>
        <time>2021-03-23T16:46:46Z</time>
      </trkpt>
      <trkpt lat="32.601637" lon="51.650192">
        <ele>1729.369</ele>
        <time>2021-03-23T16:46:58Z</time>
      </trkpt>
      <trkpt lat="32.601460" lon="51.650501">
        <ele>1727.391</ele>
        <time>2021-03-23T16:47:26Z</time>
      </trkpt>
    </trkseg>
  </trk></gpx>