<?xml version="1.0" encoding="UTF-8"?>
<gpx creator="Wikiloc - https://www.wikiloc.com" version="1.1" xmlns="http://www.topografix.com/GPX/1/1" xmlns:xsi="http://www.w3.org/2001/XMLSchema-instance" xsi:schemaLocation="http://www.topografix.com/GPX/1/1 http://www.topografix.com/GPX/1/1/gpx.xsd">
  <metadata>
    <name>Wikiloc - قله قبله افوس</name>
    <link href="https://www.wikiloc.com/hiking-trails/ghole-ghebleh-afoos-111153448">
      <text>قله قبله افوس - Wikiloc on Wikiloc</text>
    </link>
    <time>2022-08-19T13:07:21Z</time>
  </metadata>
  <trk>
    <name>قله قبله افوس - Wikiloc</name>
    <cmt></cmt>
    <desc></desc>
    <trkseg>
      <trkpt lat="33.002234" lon="50.069872">
        <ele>2623.018</ele>
        <time>2022-08-19T05:19:11Z</time>
      </trkpt>
      <trkpt lat="33.002150" lon="50.069875">
        <ele>2623.098</ele>
        <time>2022-08-19T05:19:18Z</time>
      </trkpt>
      <trkpt lat="33.002404" lon="50.069715">
        <ele>2623.017</ele>
        <time>2022-08-19T05:19:49Z</time>
      </trkpt>
      <trkpt lat="33.002319" lon="50.069510">
        <ele>2623.009</ele>
        <time>2022-08-19T05:20:15Z</time>
      </trkpt>
      <trkpt lat="33.001694" lon="50.068708">
        <ele>2661.072</ele>
        <time>2022-08-19T05:22:55Z</time>
      </trkpt>
      <trkpt lat="33.001086" lon="50.067765">
        <ele>2673.052</ele>
        <time>2022-08-19T05:25:25Z</time>
      </trkpt>
      <trkpt lat="32.999863" lon="50.066388">
        <ele>2696.042</ele>
        <time>2022-08-19T05:30:32Z</time>
      </trkpt>
      <trkpt lat="32.998777" lon="50.065452">
        <ele>2714.012</ele>
        <time>2022-08-19T05:34:36Z</time>
      </trkpt>
      <trkpt lat="32.998182" lon="50.065589">
        <ele>2734.046</ele>
        <time>2022-08-19T05:36:36Z</time>
      </trkpt>
      <trkpt lat="32.997848" lon="50.065533">
        <ele>2745.094</ele>
        <time>2022-08-19T05:37:36Z</time>
      </trkpt>
      <trkpt lat="32.997459" lon="50.065345">
        <ele>2748.075</ele>
        <time>2022-08-19T05:39:00Z</time>
      </trkpt>
      <trkpt lat="32.996882" lon="50.064892">
        <ele>2764.085</ele>
        <time>2022-08-19T05:41:34Z</time>
      </trkpt>
      <trkpt lat="32.996477" lon="50.064891">
        <ele>2772.039</ele>
        <time>2022-08-19T05:43:12Z</time>
      </trkpt>
      <trkpt lat="32.995738" lon="50.064497">
        <ele>2791.057</ele>
        <time>2022-08-19T05:46:43Z</time>
      </trkpt>
      <trkpt lat="32.995640" lon="50.064527">
        <ele>2793.000</ele>
        <time>2022-08-19T05:47:06Z</time>
      </trkpt>
      <trkpt lat="32.995697" lon="50.064719">
        <ele>2789.020</ele>
        <time>2022-08-19T05:48:37Z</time>
      </trkpt>
      <trkpt lat="32.995476" lon="50.064922">
        <ele>2811.009</ele>
        <time>2022-08-19T05:50:08Z</time>
      </trkpt>
      <trkpt lat="32.995341" lon="50.065124">
        <ele>2825.096</ele>
        <time>2022-08-19T05:51:07Z</time>
      </trkpt>
      <trkpt lat="32.995372" lon="50.065172">
        <ele>2816.066</ele>
        <time>2022-08-19T05:51:45Z</time>
      </trkpt>
      <trkpt lat="32.994623" lon="50.064982">
        <ele>2852.066</ele>
        <time>2022-08-19T05:55:08Z</time>
      </trkpt>
      <trkpt lat="32.994398" lon="50.064856">
        <ele>2858.016</ele>
        <time>2022-08-19T05:55:48Z</time>
      </trkpt>
      <trkpt lat="32.994163" lon="50.064573">
        <ele>2866.020</ele>
        <time>2022-08-19T05:56:57Z</time>
      </trkpt>
      <trkpt lat="32.994086" lon="50.064646">
        <ele>2880.028</ele>
        <time>2022-08-19T05:57:43Z</time>
      </trkpt>
      <trkpt lat="32.993844" lon="50.064689">
        <ele>2888.019</ele>
        <time>2022-08-19T05:59:01Z</time>
      </trkpt>
      <trkpt lat="32.993504" lon="50.064523">
        <ele>2895.049</ele>
        <time>2022-08-19T06:00:32Z</time>
      </trkpt>
      <trkpt lat="32.993212" lon="50.064488">
        <ele>2898.033</ele>
        <time>2022-08-19T06:02:08Z</time>
      </trkpt>
      <trkpt lat="32.993198" lon="50.064540">
        <ele>2890.019</ele>
        <time>2022-08-19T06:03:43Z</time>
      </trkpt>
      <trkpt lat="32.993205" lon="50.064475">
        <ele>2886.009</ele>
        <time>2022-08-19T06:04:49Z</time>
      </trkpt>
      <trkpt lat="32.993129" lon="50.064542">
        <ele>2910.019</ele>
        <time>2022-08-19T06:06:01Z</time>
      </trkpt>
      <trkpt lat="32.993032" lon="50.064460">
        <ele>2920.009</ele>
        <time>2022-08-19T06:06:49Z</time>
      </trkpt>
      <trkpt lat="32.993010" lon="50.064612">
        <ele>2919.072</ele>
        <time>2022-08-19T06:07:27Z</time>
      </trkpt>
      <trkpt lat="32.992695" lon="50.064633">
        <ele>2926.092</ele>
        <time>2022-08-19T06:09:42Z</time>
      </trkpt>
      <trkpt lat="32.992374" lon="50.064244">
        <ele>2950.032</ele>
        <time>2022-08-19T06:12:13Z</time>
      </trkpt>
      <trkpt lat="32.991952" lon="50.064007">
        <ele>2955.042</ele>
        <time>2022-08-19T06:14:48Z</time>
      </trkpt>
      <trkpt lat="32.991964" lon="50.063952">
        <ele>2955.076</ele>
        <time>2022-08-19T06:14:58Z</time>
      </trkpt>
      <trkpt lat="32.991653" lon="50.063613">
        <ele>2963.044</ele>
        <time>2022-08-19T06:16:59Z</time>
      </trkpt>
      <trkpt lat="32.991694" lon="50.063648">
        <ele>2969.065</ele>
        <time>2022-08-19T06:17:18Z</time>
      </trkpt>
      <trkpt lat="32.991469" lon="50.063666">
        <ele>2994.095</ele>
        <time>2022-08-19T06:19:08Z</time>
      </trkpt>
      <trkpt lat="32.991399" lon="50.063747">
        <ele>2998.039</ele>
        <time>2022-08-19T06:19:53Z</time>
      </trkpt>
      <trkpt lat="32.991272" lon="50.063593">
        <ele>2989.094</ele>
        <time>2022-08-19T06:21:02Z</time>
      </trkpt>
      <trkpt lat="32.991308" lon="50.063639">
        <ele>3004.057</ele>
        <time>2022-08-19T06:21:30Z</time>
      </trkpt>
      <trkpt lat="32.991016" lon="50.063590">
        <ele>3021.022</ele>
        <time>2022-08-19T06:23:21Z</time>
      </trkpt>
      <trkpt lat="32.990897" lon="50.063344">
        <ele>3019.009</ele>
        <time>2022-08-19T06:24:20Z</time>
      </trkpt>
      <trkpt lat="32.990748" lon="50.063355">
        <ele>3026.040</ele>
        <time>2022-08-19T06:25:42Z</time>
      </trkpt>
      <trkpt lat="32.990566" lon="50.063233">
        <ele>3030.080</ele>
        <time>2022-08-19T06:26:39Z</time>
      </trkpt>
      <trkpt lat="32.990243" lon="50.063375">
        <ele>3043.060</ele>
        <time>2022-08-19T06:28:22Z</time>
      </trkpt>
      <trkpt lat="32.990184" lon="50.063556">
        <ele>3055.050</ele>
        <time>2022-08-19T06:29:27Z</time>
      </trkpt>
      <trkpt lat="32.989894" lon="50.063238">
        <ele>3065.024</ele>
        <time>2022-08-19T06:31:19Z</time>
      </trkpt>
      <trkpt lat="32.989806" lon="50.063028">
        <ele>3072.082</ele>
        <time>2022-08-19T06:32:25Z</time>
      </trkpt>
      <trkpt lat="32.989713" lon="50.063022">
        <ele>3070.023</ele>
        <time>2022-08-19T06:32:58Z</time>
      </trkpt>
      <trkpt lat="32.989565" lon="50.062837">
        <ele>3075.073</ele>
        <time>2022-08-19T06:34:16Z</time>
      </trkpt>
      <trkpt lat="32.989564" lon="50.062675">
        <ele>3077.077</ele>
        <time>2022-08-19T06:34:49Z</time>
      </trkpt>
      <trkpt lat="32.989388" lon="50.062563">
        <ele>3081.016</ele>
        <time>2022-08-19T06:35:55Z</time>
      </trkpt>
      <trkpt lat="32.989253" lon="50.062601">
        <ele>3089.076</ele>
        <time>2022-08-19T06:36:36Z</time>
      </trkpt>
      <trkpt lat="32.989115" lon="50.062543">
        <ele>3087.013</ele>
        <time>2022-08-19T06:37:33Z</time>
      </trkpt>
      <trkpt lat="32.988924" lon="50.062387">
        <ele>3097.009</ele>
        <time>2022-08-19T06:38:59Z</time>
      </trkpt>
      <trkpt lat="32.988855" lon="50.062455">
        <ele>3104.022</ele>
        <time>2022-08-19T06:39:25Z</time>
      </trkpt>
      <trkpt lat="32.988756" lon="50.062312">
        <ele>3113.012</ele>
        <time>2022-08-19T06:40:28Z</time>
      </trkpt>
      <trkpt lat="32.988646" lon="50.062415">
        <ele>3119.042</ele>
        <time>2022-08-19T06:41:29Z</time>
      </trkpt>
      <trkpt lat="32.988639" lon="50.062631">
        <ele>3118.032</ele>
        <time>2022-08-19T06:48:15Z</time>
      </trkpt>
      <trkpt lat="32.988682" lon="50.062606">
        <ele>3128.046</ele>
        <time>2022-08-19T06:49:24Z</time>
      </trkpt>
      <trkpt lat="32.988457" lon="50.062451">
        <ele>3123.014</ele>
        <time>2022-08-19T07:10:44Z</time>
      </trkpt>
      <trkpt lat="32.988447" lon="50.062590">
        <ele>3121.085</ele>
        <time>2022-08-19T07:11:15Z</time>
      </trkpt>
      <trkpt lat="32.988165" lon="50.062866">
        <ele>3137.075</ele>
        <time>2022-08-19T07:13:55Z</time>
      </trkpt>
      <trkpt lat="32.987927" lon="50.062875">
        <ele>3145.069</ele>
        <time>2022-08-19T07:16:18Z</time>
      </trkpt>
      <trkpt lat="32.987814" lon="50.062972">
        <ele>3157.016</ele>
        <time>2022-08-19T07:17:05Z</time>
      </trkpt>
      <trkpt lat="32.987595" lon="50.062986">
        <ele>3168.076</ele>
        <time>2022-08-19T07:18:31Z</time>
      </trkpt>
      <trkpt lat="32.987523" lon="50.063052">
        <ele>3168.013</ele>
        <time>2022-08-19T07:19:03Z</time>
      </trkpt>
      <trkpt lat="32.987386" lon="50.063002">
        <ele>3176.009</ele>
        <time>2022-08-19T07:20:30Z</time>
      </trkpt>
      <trkpt lat="32.987052" lon="50.062697">
        <ele>3193.022</ele>
        <time>2022-08-19T07:22:05Z</time>
      </trkpt>
      <trkpt lat="32.986949" lon="50.062702">
        <ele>3192.022</ele>
        <time>2022-08-19T07:22:44Z</time>
      </trkpt>
      <trkpt lat="32.986880" lon="50.062844">
        <ele>3201.072</ele>
        <time>2022-08-19T07:23:38Z</time>
      </trkpt>
      <trkpt lat="32.986482" lon="50.062924">
        <ele>3217.072</ele>
        <time>2022-08-19T07:26:19Z</time>
      </trkpt>
      <trkpt lat="32.986518" lon="50.063228">
        <ele>3234.066</ele>
        <time>2022-08-19T07:27:48Z</time>
      </trkpt>
      <trkpt lat="32.986436" lon="50.063282">
        <ele>3233.014</ele>
        <time>2022-08-19T07:28:37Z</time>
      </trkpt>
      <trkpt lat="32.986022" lon="50.063365">
        <ele>3258.055</ele>
        <time>2022-08-19T07:35:36Z</time>
      </trkpt>
      <trkpt lat="32.985833" lon="50.063321">
        <ele>3272.035</ele>
        <time>2022-08-19T07:38:39Z</time>
      </trkpt>
      <trkpt lat="32.985805" lon="50.063364">
        <ele>3275.079</ele>
        <time>2022-08-19T07:39:56Z</time>
      </trkpt>
      <trkpt lat="32.985773" lon="50.063285">
        <ele>3276.072</ele>
        <time>2022-08-19T07:40:28Z</time>
      </trkpt>
      <trkpt lat="32.985663" lon="50.063368">
        <ele>3275.013</ele>
        <time>2022-08-19T07:42:02Z</time>
      </trkpt>
      <trkpt lat="32.985614" lon="50.063291">
        <ele>3287.014</ele>
        <time>2022-08-19T07:43:18Z</time>
      </trkpt>
      <trkpt lat="32.985375" lon="50.063342">
        <ele>3293.009</ele>
        <time>2022-08-19T07:45:24Z</time>
      </trkpt>
      <trkpt lat="32.985297" lon="50.063272">
        <ele>3299.068</ele>
        <time>2022-08-19T07:46:00Z</time>
      </trkpt>
      <trkpt lat="32.985278" lon="50.063323">
        <ele>3299.028</ele>
        <time>2022-08-19T07:46:23Z</time>
      </trkpt>
      <trkpt lat="32.985093" lon="50.063261">
        <ele>3306.028</ele>
        <time>2022-08-19T07:47:45Z</time>
      </trkpt>
      <trkpt lat="32.984695" lon="50.063543">
        <ele>3333.078</ele>
        <time>2022-08-19T07:52:47Z</time>
      </trkpt>
      <trkpt lat="32.984434" lon="50.063450">
        <ele>3346.012</ele>
        <time>2022-08-19T07:56:28Z</time>
      </trkpt>
      <trkpt lat="32.984357" lon="50.063307">
        <ele>3348.070</ele>
        <time>2022-08-19T07:57:27Z</time>
      </trkpt>
      <trkpt lat="32.984271" lon="50.063335">
        <ele>3351.011</ele>
        <time>2022-08-19T07:58:26Z</time>
      </trkpt>
      <trkpt lat="32.984296" lon="50.063446">
        <ele>3365.031</ele>
        <time>2022-08-19T07:59:46Z</time>
      </trkpt>
      <trkpt lat="32.984142" lon="50.063213">
        <ele>3382.045</ele>
        <time>2022-08-19T08:07:31Z</time>
      </trkpt>
      <trkpt lat="32.984022" lon="50.063119">
        <ele>3381.047</ele>
        <time>2022-08-19T08:08:47Z</time>
      </trkpt>
      <trkpt lat="32.983900" lon="50.063198">
        <ele>3383.029</ele>
        <time>2022-08-19T08:09:50Z</time>
      </trkpt>
      <trkpt lat="32.983844" lon="50.063166">
        <ele>3395.021</ele>
        <time>2022-08-19T08:10:45Z</time>
      </trkpt>
      <trkpt lat="32.983833" lon="50.063031">
        <ele>3402.009</ele>
        <time>2022-08-19T08:12:42Z</time>
      </trkpt>
      <trkpt lat="32.983797" lon="50.063072">
        <ele>3404.085</ele>
        <time>2022-08-19T08:13:26Z</time>
      </trkpt>
      <trkpt lat="32.983774" lon="50.063024">
        <ele>3404.055</ele>
        <time>2022-08-19T08:13:34Z</time>
      </trkpt>
      <trkpt lat="32.983774" lon="50.063082">
        <ele>3409.065</ele>
        <time>2022-08-19T08:14:29Z</time>
      </trkpt>
      <trkpt lat="32.983730" lon="50.062973">
        <ele>3408.085</ele>
        <time>2022-08-19T08:14:58Z</time>
      </trkpt>
      <trkpt lat="32.983653" lon="50.063035">
        <ele>3411.019</ele>
        <time>2022-08-19T08:15:36Z</time>
      </trkpt>
      <trkpt lat="32.983549" lon="50.063008">
        <ele>3421.057</ele>
        <time>2022-08-19T08:16:19Z</time>
      </trkpt>
      <trkpt lat="32.983580" lon="50.062964">
        <ele>3421.068</ele>
        <time>2022-08-19T08:16:34Z</time>
      </trkpt>
      <trkpt lat="32.983558" lon="50.063053">
        <ele>3424.058</ele>
        <time>2022-08-19T08:17:26Z</time>
      </trkpt>
      <trkpt lat="32.983512" lon="50.062964">
        <ele>3430.072</ele>
        <time>2022-08-19T08:18:28Z</time>
      </trkpt>
      <trkpt lat="32.983380" lon="50.062965">
        <ele>3434.046</ele>
        <time>2022-08-19T08:20:00Z</time>
      </trkpt>
      <trkpt lat="32.983171" lon="50.063184">
        <ele>3468.088</ele>
        <time>2022-08-19T08:22:17Z</time>
      </trkpt>
      <trkpt lat="32.983100" lon="50.063115">
        <ele>3484.016</ele>
        <time>2022-08-19T08:24:29Z</time>
      </trkpt>
      <trkpt lat="32.982891" lon="50.063126">
        <ele>3499.009</ele>
        <time>2022-08-19T08:26:27Z</time>
      </trkpt>
      <trkpt lat="32.982754" lon="50.062969">
        <ele>3505.045</ele>
        <time>2022-08-19T08:27:40Z</time>
      </trkpt>
      <trkpt lat="32.982783" lon="50.062916">
        <ele>3506.015</ele>
        <time>2022-08-19T08:28:45Z</time>
      </trkpt>
      <trkpt lat="32.982698" lon="50.062964">
        <ele>3509.085</ele>
        <time>2022-08-19T08:30:02Z</time>
      </trkpt>
      <trkpt lat="32.982629" lon="50.062883">
        <ele>3513.015</ele>
        <time>2022-08-19T08:30:58Z</time>
      </trkpt>
      <trkpt lat="32.982371" lon="50.062941">
        <ele>3531.059</ele>
        <time>2022-08-19T08:33:47Z</time>
      </trkpt>
      <trkpt lat="32.982386" lon="50.062888">
        <ele>3533.057</ele>
        <time>2022-08-19T08:34:05Z</time>
      </trkpt>
      <trkpt lat="32.982339" lon="50.062900">
        <ele>3535.078</ele>
        <time>2022-08-19T08:35:07Z</time>
      </trkpt>
      <trkpt lat="32.982331" lon="50.063007">
        <ele>3534.078</ele>
        <time>2022-08-19T08:35:47Z</time>
      </trkpt>
      <trkpt lat="32.982378" lon="50.062976">
        <ele>3531.052</ele>
        <time>2022-08-19T08:43:04Z</time>
      </trkpt>
      <trkpt lat="32.982236" lon="50.063123">
        <ele>3548.021</ele>
        <time>2022-08-19T08:55:18Z</time>
      </trkpt>
      <trkpt lat="32.982093" lon="50.063083">
        <ele>3564.041</ele>
        <time>2022-08-19T08:57:00Z</time>
      </trkpt>
      <trkpt lat="32.982009" lon="50.063148">
        <ele>3577.005</ele>
        <time>2022-08-19T08:57:55Z</time>
      </trkpt>
      <trkpt lat="32.981899" lon="50.063047">
        <ele>3591.009</ele>
        <time>2022-08-19T09:00:15Z</time>
      </trkpt>
      <trkpt lat="32.981910" lon="50.063685">
        <ele>3588.033</ele>
        <time>2022-08-19T09:05:10Z</time>
      </trkpt>
      <trkpt lat="32.981827" lon="50.063946">
        <ele>3603.013</ele>
        <time>2022-08-19T09:07:14Z</time>
      </trkpt>
      <trkpt lat="32.981970" lon="50.064489">
        <ele>3617.083</ele>
        <time>2022-08-19T09:09:18Z</time>
      </trkpt>
      <trkpt lat="32.982147" lon="50.064750">
        <ele>3632.093</ele>
        <time>2022-08-19T09:11:21Z</time>
      </trkpt>
      <trkpt lat="32.982257" lon="50.065076">
        <ele>3642.037</ele>
        <time>2022-08-19T09:12:34Z</time>
      </trkpt>
      <trkpt lat="32.982224" lon="50.065289">
        <ele>3652.085</ele>
        <time>2022-08-19T09:21:45Z</time>
      </trkpt>
      <trkpt lat="32.982328" lon="50.065486">
        <ele>3663.046</ele>
        <time>2022-08-19T09:23:36Z</time>
      </trkpt>
      <trkpt lat="32.982283" lon="50.065490">
        <ele>3660.046</ele>
        <time>2022-08-19T09:26:36Z</time>
      </trkpt>
      <trkpt lat="32.982394" lon="50.065473">
        <ele>3660.040</ele>
        <time>2022-08-19T09:35:04Z</time>
      </trkpt>
      <trkpt lat="32.982321" lon="50.065528">
        <ele>3662.029</ele>
        <time>2022-08-19T10:01:34Z</time>
      </trkpt>
      <trkpt lat="32.982304" lon="50.065470">
        <ele>3656.000</ele>
        <time>2022-08-19T10:05:28Z</time>
      </trkpt>
      <trkpt lat="32.982365" lon="50.065453">
        <ele>3650.020</ele>
        <time>2022-08-19T10:06:23Z</time>
      </trkpt>
      <trkpt lat="32.982299" lon="50.065385">
        <ele>3649.009</ele>
        <time>2022-08-19T10:06:59Z</time>
      </trkpt>
      <trkpt lat="32.982200" lon="50.064770">
        <ele>3636.063</ele>
        <time>2022-08-19T10:10:25Z</time>
      </trkpt>
      <trkpt lat="32.981975" lon="50.064480">
        <ele>3619.073</ele>
        <time>2022-08-19T10:13:13Z</time>
      </trkpt>
      <trkpt lat="32.981847" lon="50.063998">
        <ele>3605.073</ele>
        <time>2022-08-19T10:15:01Z</time>
      </trkpt>
      <trkpt lat="32.981956" lon="50.063701">
        <ele>3599.093</ele>
        <time>2022-08-19T10:17:08Z</time>
      </trkpt>
      <trkpt lat="32.981956" lon="50.063756">
        <ele>3602.067</ele>
        <time>2022-08-19T10:17:25Z</time>
      </trkpt>
      <trkpt lat="32.981822" lon="50.063228">
        <ele>3591.095</ele>
        <time>2022-08-19T10:23:17Z</time>
      </trkpt>
      <trkpt lat="32.981935" lon="50.063139">
        <ele>3597.066</ele>
        <time>2022-08-19T10:26:11Z</time>
      </trkpt>
      <trkpt lat="32.982215" lon="50.063186">
        <ele>3576.076</ele>
        <time>2022-08-19T10:30:28Z</time>
      </trkpt>
      <trkpt lat="32.982190" lon="50.063138">
        <ele>3566.030</ele>
        <time>2022-08-19T10:32:55Z</time>
      </trkpt>
      <trkpt lat="32.982361" lon="50.063145">
        <ele>3565.041</ele>
        <time>2022-08-19T10:34:48Z</time>
      </trkpt>
      <trkpt lat="32.982342" lon="50.063075">
        <ele>3555.081</ele>
        <time>2022-08-19T10:35:32Z</time>
      </trkpt>
      <trkpt lat="32.982602" lon="50.063072">
        <ele>3539.009</ele>
        <time>2022-08-19T10:39:55Z</time>
      </trkpt>
      <trkpt lat="32.982663" lon="50.062925">
        <ele>3527.009</ele>
        <time>2022-08-19T10:40:59Z</time>
      </trkpt>
      <trkpt lat="32.982894" lon="50.062842">
        <ele>3523.015</ele>
        <time>2022-08-19T10:43:07Z</time>
      </trkpt>
      <trkpt lat="32.982934" lon="50.063150">
        <ele>3499.045</ele>
        <time>2022-08-19T10:49:03Z</time>
      </trkpt>
      <trkpt lat="32.983070" lon="50.063214">
        <ele>3488.095</ele>
        <time>2022-08-19T10:51:58Z</time>
      </trkpt>
      <trkpt lat="32.983094" lon="50.063162">
        <ele>3487.095</ele>
        <time>2022-08-19T10:52:23Z</time>
      </trkpt>
      <trkpt lat="32.983220" lon="50.063215">
        <ele>3461.419</ele>
        <time>2022-08-19T10:55:28Z</time>
      </trkpt>
      <trkpt lat="32.983462" lon="50.063051">
        <ele>3444.047</ele>
        <time>2022-08-19T10:57:33Z</time>
      </trkpt>
      <trkpt lat="32.983564" lon="50.063011">
        <ele>3442.018</ele>
        <time>2022-08-19T10:58:06Z</time>
      </trkpt>
      <trkpt lat="32.983642" lon="50.063056">
        <ele>3433.098</ele>
        <time>2022-08-19T10:59:20Z</time>
      </trkpt>
      <trkpt lat="32.983628" lon="50.062998">
        <ele>3428.092</ele>
        <time>2022-08-19T10:59:43Z</time>
      </trkpt>
      <trkpt lat="32.983758" lon="50.063009">
        <ele>3432.063</ele>
        <time>2022-08-19T11:00:26Z</time>
      </trkpt>
      <trkpt lat="32.983780" lon="50.062957">
        <ele>3429.044</ele>
        <time>2022-08-19T11:00:43Z</time>
      </trkpt>
      <trkpt lat="32.983785" lon="50.063049">
        <ele>3431.018</ele>
        <time>2022-08-19T11:01:45Z</time>
      </trkpt>
      <trkpt lat="32.984014" lon="50.063185">
        <ele>3406.009</ele>
        <time>2022-08-19T11:05:35Z</time>
      </trkpt>
      <trkpt lat="32.984238" lon="50.063210">
        <ele>3383.037</ele>
        <time>2022-08-19T11:08:05Z</time>
      </trkpt>
      <trkpt lat="32.984393" lon="50.063410">
        <ele>3375.057</ele>
        <time>2022-08-19T11:10:56Z</time>
      </trkpt>
      <trkpt lat="32.984361" lon="50.063465">
        <ele>3367.057</ele>
        <time>2022-08-19T11:11:31Z</time>
      </trkpt>
      <trkpt lat="32.984482" lon="50.063390">
        <ele>3362.077</ele>
        <time>2022-08-19T11:12:20Z</time>
      </trkpt>
      <trkpt lat="32.984980" lon="50.063622">
        <ele>3321.031</ele>
        <time>2022-08-19T11:17:47Z</time>
      </trkpt>
      <trkpt lat="32.985355" lon="50.063625">
        <ele>3313.029</ele>
        <time>2022-08-19T11:19:59Z</time>
      </trkpt>
      <trkpt lat="32.985312" lon="50.063460">
        <ele>3314.050</ele>
        <time>2022-08-19T11:20:31Z</time>
      </trkpt>
      <trkpt lat="32.985378" lon="50.063376">
        <ele>3310.040</ele>
        <time>2022-08-19T11:29:21Z</time>
      </trkpt>
      <trkpt lat="32.985332" lon="50.063380">
        <ele>3311.074</ele>
        <time>2022-08-19T11:33:32Z</time>
      </trkpt>
      <trkpt lat="32.985413" lon="50.063426">
        <ele>3316.013</ele>
        <time>2022-08-19T11:40:19Z</time>
      </trkpt>
      <trkpt lat="32.985365" lon="50.063419">
        <ele>3304.043</ele>
        <time>2022-08-19T11:42:53Z</time>
      </trkpt>
      <trkpt lat="32.985488" lon="50.063324">
        <ele>3297.007</ele>
        <time>2022-08-19T11:43:45Z</time>
      </trkpt>
      <trkpt lat="32.985678" lon="50.063285">
        <ele>3288.009</ele>
        <time>2022-08-19T11:45:14Z</time>
      </trkpt>
      <trkpt lat="32.986381" lon="50.063362">
        <ele>3246.012</ele>
        <time>2022-08-19T11:50:08Z</time>
      </trkpt>
      <trkpt lat="32.987037" lon="50.063030">
        <ele>3206.052</ele>
        <time>2022-08-19T11:54:45Z</time>
      </trkpt>
      <trkpt lat="32.987166" lon="50.063112">
        <ele>3198.042</ele>
        <time>2022-08-19T11:55:34Z</time>
      </trkpt>
      <trkpt lat="32.987450" lon="50.063115">
        <ele>3182.052</ele>
        <time>2022-08-19T11:57:05Z</time>
      </trkpt>
      <trkpt lat="32.987741" lon="50.062952">
        <ele>3173.096</ele>
        <time>2022-08-19T11:58:28Z</time>
      </trkpt>
      <trkpt lat="32.988082" lon="50.062904">
        <ele>3149.074</ele>
        <time>2022-08-19T11:59:58Z</time>
      </trkpt>
      <trkpt lat="32.988192" lon="50.062757">
        <ele>3143.095</ele>
        <time>2022-08-19T12:00:44Z</time>
      </trkpt>
      <trkpt lat="32.988171" lon="50.062635">
        <ele>3141.065</ele>
        <time>2022-08-19T12:01:08Z</time>
      </trkpt>
      <trkpt lat="32.988474" lon="50.062443">
        <ele>3117.019</ele>
        <time>2022-08-19T12:03:31Z</time>
      </trkpt>
      <trkpt lat="32.988610" lon="50.062383">
        <ele>3106.068</ele>
        <time>2022-08-19T12:04:11Z</time>
      </trkpt>
      <trkpt lat="32.989036" lon="50.062388">
        <ele>3093.042</ele>
        <time>2022-08-19T12:07:18Z</time>
      </trkpt>
      <trkpt lat="32.989011" lon="50.062469">
        <ele>3098.026</ele>
        <time>2022-08-19T12:09:26Z</time>
      </trkpt>
      <trkpt lat="32.989023" lon="50.062416">
        <ele>3102.009</ele>
        <time>2022-08-19T12:09:50Z</time>
      </trkpt>
      <trkpt lat="32.989157" lon="50.062543">
        <ele>3075.047</ele>
        <time>2022-08-19T12:11:10Z</time>
      </trkpt>
      <trkpt lat="32.989528" lon="50.062664">
        <ele>3065.057</ele>
        <time>2022-08-19T12:12:42Z</time>
      </trkpt>
      <trkpt lat="32.989512" lon="50.062770">
        <ele>3064.067</ele>
        <time>2022-08-19T12:13:04Z</time>
      </trkpt>
      <trkpt lat="32.989597" lon="50.062910">
        <ele>3061.047</ele>
        <time>2022-08-19T12:13:49Z</time>
      </trkpt>
      <trkpt lat="32.989816" lon="50.063073">
        <ele>3052.021</ele>
        <time>2022-08-19T12:14:55Z</time>
      </trkpt>
      <trkpt lat="32.989993" lon="50.063453">
        <ele>3038.039</ele>
        <time>2022-08-19T12:16:21Z</time>
      </trkpt>
      <trkpt lat="32.990117" lon="50.063557">
        <ele>3033.010</ele>
        <time>2022-08-19T12:16:48Z</time>
      </trkpt>
      <trkpt lat="32.990519" lon="50.063592">
        <ele>3026.030</ele>
        <time>2022-08-19T12:18:11Z</time>
      </trkpt>
      <trkpt lat="32.990844" lon="50.063751">
        <ele>3014.074</ele>
        <time>2022-08-19T12:19:28Z</time>
      </trkpt>
      <trkpt lat="32.990961" lon="50.063745">
        <ele>3008.071</ele>
        <time>2022-08-19T12:19:57Z</time>
      </trkpt>
      <trkpt lat="32.991025" lon="50.063610">
        <ele>2996.041</ele>
        <time>2022-08-19T12:20:38Z</time>
      </trkpt>
      <trkpt lat="32.991339" lon="50.063595">
        <ele>2987.015</ele>
        <time>2022-08-19T12:21:59Z</time>
      </trkpt>
      <trkpt lat="32.991421" lon="50.063709">
        <ele>2981.009</ele>
        <time>2022-08-19T12:22:40Z</time>
      </trkpt>
      <trkpt lat="32.991483" lon="50.063615">
        <ele>2972.028</ele>
        <time>2022-08-19T12:23:16Z</time>
      </trkpt>
      <trkpt lat="32.991708" lon="50.063622">
        <ele>2960.058</ele>
        <time>2022-08-19T12:24:42Z</time>
      </trkpt>
      <trkpt lat="32.991980" lon="50.064002">
        <ele>2948.018</ele>
        <time>2022-08-19T12:26:23Z</time>
      </trkpt>
      <trkpt lat="32.992118" lon="50.064046">
        <ele>2937.048</ele>
        <time>2022-08-19T12:26:59Z</time>
      </trkpt>
      <trkpt lat="32.992778" lon="50.064603">
        <ele>2922.022</ele>
        <time>2022-08-19T12:29:49Z</time>
      </trkpt>
      <trkpt lat="32.993021" lon="50.064474">
        <ele>2902.040</ele>
        <time>2022-08-19T12:32:12Z</time>
      </trkpt>
      <trkpt lat="32.993108" lon="50.064507">
        <ele>2895.051</ele>
        <time>2022-08-19T12:33:05Z</time>
      </trkpt>
      <trkpt lat="32.993248" lon="50.064446">
        <ele>2890.041</ele>
        <time>2022-08-19T12:33:50Z</time>
      </trkpt>
      <trkpt lat="32.993843" lon="50.064673">
        <ele>2864.045</ele>
        <time>2022-08-19T12:36:30Z</time>
      </trkpt>
      <trkpt lat="32.994196" lon="50.064567">
        <ele>2852.049</ele>
        <time>2022-08-19T12:40:53Z</time>
      </trkpt>
      <trkpt lat="32.994240" lon="50.064718">
        <ele>2849.002</ele>
        <time>2022-08-19T12:42:07Z</time>
      </trkpt>
      <trkpt lat="32.994613" lon="50.064987">
        <ele>2828.022</ele>
        <time>2022-08-19T12:43:27Z</time>
      </trkpt>
      <trkpt lat="32.995165" lon="50.065105">
        <ele>2812.009</ele>
        <time>2022-08-19T12:45:07Z</time>
      </trkpt>
      <trkpt lat="32.995403" lon="50.065039">
        <ele>2807.035</ele>
        <time>2022-08-19T12:45:51Z</time>
      </trkpt>
      <trkpt lat="32.995532" lon="50.064876">
        <ele>2800.075</ele>
        <time>2022-08-19T12:46:42Z</time>
      </trkpt>
      <trkpt lat="32.995411" lon="50.064668">
        <ele>2788.075</ele>
        <time>2022-08-19T12:47:29Z</time>
      </trkpt>
      <trkpt lat="32.995795" lon="50.064418">
        <ele>2785.055</ele>
        <time>2022-08-19T12:48:57Z</time>
      </trkpt>
      <trkpt lat="32.995799" lon="50.064474">
        <ele>2781.029</ele>
        <time>2022-08-19T12:49:20Z</time>
      </trkpt>
      <trkpt lat="32.996457" lon="50.064855">
        <ele>2765.097</ele>
        <time>2022-08-19T12:51:18Z</time>
      </trkpt>
      <trkpt lat="32.996950" lon="50.064816">
        <ele>2758.028</ele>
        <time>2022-08-19T12:52:35Z</time>
      </trkpt>
      <trkpt lat="32.997308" lon="50.065171">
        <ele>2750.078</ele>
        <time>2022-08-19T12:53:57Z</time>
      </trkpt>
      <trkpt lat="32.997787" lon="50.065483">
        <ele>2739.022</ele>
        <time>2022-08-19T12:55:08Z</time>
      </trkpt>
      <trkpt lat="32.998186" lon="50.065516">
        <ele>2734.014</ele>
        <time>2022-08-19T12:56:01Z</time>
      </trkpt>
      <trkpt lat="32.998813" lon="50.065379">
        <ele>2726.054</ele>
        <time>2022-08-19T12:57:15Z</time>
      </trkpt>
      <trkpt lat="32.999023" lon="50.065661">
        <ele>2718.009</ele>
        <time>2022-08-19T12:57:57Z</time>
      </trkpt>
      <trkpt lat="32.999462" lon="50.065931">
        <ele>2710.009</ele>
        <time>2022-08-19T12:58:49Z</time>
      </trkpt>
      <trkpt lat="32.999920" lon="50.066353">
        <ele>2699.062</ele>
        <time>2022-08-19T12:59:56Z</time>
      </trkpt>
      <trkpt lat="33.001479" lon="50.068290">
        <ele>2668.082</ele>
        <time>2022-08-19T13:04:08Z</time>
      </trkpt>
      <trkpt lat="33.001739" lon="50.068800">
        <ele>2658.022</ele>
        <time>2022-08-19T13:05:02Z</time>
      </trkpt>
      <trkpt lat="33.002395" lon="50.069736">
        <ele>2646.082</ele>
        <time>2022-08-19T13:06:38Z</time>
      </trkpt>
      <trkpt lat="33.002315" lon="50.069894">
        <ele>2644.076</ele>
        <time>2022-08-19T13:06:54Z</time>
      </trkpt>
      <trkpt lat="33.002064" lon="50.069980">
        <ele>2639.064</ele>
        <time>2022-08-19T13:07:21Z</time>
      </trkpt>
    </trkseg>
  </trk></gpx>