<?xml version="1.0" encoding="UTF-8"?>
<gpx creator="Wikiloc - https://www.wikiloc.com" version="1.1" xmlns="http://www.topografix.com/GPX/1/1" xmlns:xsi="http://www.w3.org/2001/XMLSchema-instance" xsi:schemaLocation="http://www.topografix.com/GPX/1/1 http://www.topografix.com/GPX/1/1/gpx.xsd">
  <metadata>
    <name>Wikiloc - قله کلار چیرو گندمان 403.3.21 KALLAR CHIRO GANDOMAN - Wikilo...</name>
    <link href="https://www.wikiloc.com/mountaineering-trails/qlh-khlr-chyrw-gndmn-403-3-21-kallar-chiro-gandoman-173767969">
      <text>قله کلار چیرو گندمان 403.3.21 KALLAR CHIRO GANDOMAN - Wikilo... on Wikiloc</text>
    </link>
    <time>2024-06-10T14:43:00.941Z</time>
  </metadata>
  <wpt lat="31.863803" lon="51.090736">
    <ele>2252.7</ele>
    <time>2024-06-10T02:47:17.998Z</time>
    <name>تابلو راهنما روستای حسین آباد</name>
    <cmt></cmt>
    <desc></desc>
  </wpt>
  <wpt lat="31.832262" lon="51.076040">
    <ele>2232.1</ele>
    <time>2024-06-10T03:33:07.996Z</time>
    <name>Car park پارکینگ</name>
    <cmt></cmt>
    <desc></desc>
  </wpt>
  <wpt lat="31.833856" lon="51.074253">
    <ele>2293.2</ele>
    <time>2024-06-10T03:43:14.992Z</time>
    <name>دور نمای برکه کنار پارکینگ</name>
    <cmt></cmt>
    <desc></desc>
  </wpt>
  <wpt lat="31.837917" lon="51.071005">
    <ele>2424.1</ele>
    <time>2024-06-10T04:04:45.998Z</time>
    <name>هلپه یا چای کوهی</name>
    <cmt></cmt>
    <desc></desc>
  </wpt>
  <wpt lat="31.837827" lon="51.071050">
    <ele>2426.7</ele>
    <time>2024-06-10T04:06:07.998Z</time>
    <name>مرزن جوش</name>
    <cmt></cmt>
    <desc></desc>
  </wpt>
  <wpt lat="31.836406" lon="51.069961">
    <ele>2475.1</ele>
    <time>2024-06-10T04:12:53.993Z</time>
    <name>باغات گردو</name>
    <cmt></cmt>
    <desc></desc>
  </wpt>
  <wpt lat="31.836216" lon="51.069567">
    <ele>2476.3</ele>
    <time>2024-06-10T04:14:23.999Z</time>
    <name>گردو</name>
    <cmt></cmt>
    <desc></desc>
  </wpt>
  <wpt lat="31.835903" lon="51.069060">
    <ele>2492.8</ele>
    <time>2024-06-10T04:17:38.999Z</time>
    <name>Waypoint</name>
    <cmt></cmt>
    <desc></desc>
  </wpt>
  <wpt lat="31.835768" lon="51.068747">
    <ele>2501.6</ele>
    <time>2024-06-10T04:19:26.998Z</time>
    <name>Fountain</name>
    <cmt></cmt>
    <desc></desc>
  </wpt>
  <wpt lat="31.835265" lon="51.067971">
    <ele>2535.1</ele>
    <time>2024-06-10T04:24:21.994Z</time>
    <name>از باغات گردو آب روان و گوارا کنار پاکوب در جریان است</name>
    <cmt></cmt>
    <desc></desc>
  </wpt>
  <wpt lat="31.835269" lon="51.067851">
    <ele>2541.1</ele>
    <time>2024-06-10T04:25:55.999Z</time>
    <name>Fountain</name>
    <cmt></cmt>
    <desc></desc>
  </wpt>
  <wpt lat="31.834996" lon="51.067509">
    <ele>2555.9</ele>
    <time>2024-06-10T04:28:52.998Z</time>
    <name>Fountain</name>
    <cmt></cmt>
    <desc></desc>
  </wpt>
  <wpt lat="31.834412" lon="51.066132">
    <ele>2604.3</ele>
    <time>2024-06-10T04:35:40.999Z</time>
    <name>خرگل ، آفات جالیز ، غیر خوراکی</name>
    <cmt></cmt>
    <desc></desc>
  </wpt>
  <wpt lat="31.834333" lon="51.066029">
    <ele>2606.2</ele>
    <time>2024-06-10T04:37:37.996Z</time>
    <name>Waypoint</name>
    <cmt></cmt>
    <desc></desc>
  </wpt>
  <wpt lat="31.833754" lon="51.065389">
    <ele>2642.6</ele>
    <time>2024-06-10T04:42:40.990Z</time>
    <name>Fountain</name>
    <cmt></cmt>
    <desc></desc>
  </wpt>
  <wpt lat="31.833163" lon="51.064931">
    <ele>2673.4</ele>
    <time>2024-06-10T04:47:09.997Z</time>
    <name>Fountain</name>
    <cmt></cmt>
    <desc></desc>
  </wpt>
  <wpt lat="31.830766" lon="51.061722">
    <ele>2830.9</ele>
    <time>2024-06-10T05:25:05.982Z</time>
    <name>Fountain</name>
    <cmt></cmt>
    <desc></desc>
  </wpt>
  <wpt lat="31.830423" lon="51.061262">
    <ele>2860.5</ele>
    <time>2024-06-10T05:31:36.996Z</time>
    <name>Fountain سرچشمه چیرو</name>
    <cmt></cmt>
    <desc></desc>
  </wpt>
  <wpt lat="31.830480" lon="51.061146">
    <ele>2873.2</ele>
    <time>2024-06-10T05:45:43.999Z</time>
    <name>Fountain سرچشمه چیرو</name>
    <cmt></cmt>
    <desc></desc>
  </wpt>
  <wpt lat="31.830467" lon="51.061187">
    <ele>2875.8</ele>
    <time>2024-06-10T05:57:42.985Z</time>
    <name>بفرمایید ، صبحانه ساعت 9</name>
    <cmt></cmt>
    <desc></desc>
  </wpt>
  <wpt lat="31.828109" lon="51.061548">
    <ele>2927.2</ele>
    <time>2024-06-10T07:26:35.980Z</time>
    <name>چادر عشایر کنار چشمه (جناب مردانی)</name>
    <cmt></cmt>
    <desc></desc>
  </wpt>
  <wpt lat="31.827834" lon="51.060414">
    <ele>2958.4</ele>
    <time>2024-06-10T07:34:06.972Z</time>
    <name>چای کوهی</name>
    <cmt></cmt>
    <desc></desc>
  </wpt>
  <wpt lat="31.827876" lon="51.058244">
    <ele>3009.9</ele>
    <time>2024-06-10T07:44:01.967Z</time>
    <name>کبک زیبا</name>
    <cmt></cmt>
    <desc></desc>
  </wpt>
  <wpt lat="31.827478" lon="51.057926">
    <ele>3026.3</ele>
    <time>2024-06-10T07:46:42.981Z</time>
    <name>Waypoint</name>
    <cmt></cmt>
    <desc></desc>
  </wpt>
  <wpt lat="31.826196" lon="51.056135">
    <ele>3099.5</ele>
    <time>2024-06-10T08:01:10.959Z</time>
    <name>دورنمای تالاب گندمان ، بدلیل کم بارشی کم آب شده</name>
    <cmt></cmt>
    <desc></desc>
  </wpt>
  <wpt lat="31.825260" lon="51.054793">
    <ele>3156.7</ele>
    <time>2024-06-10T08:12:12.974Z</time>
    <name>Waypoint</name>
    <cmt></cmt>
    <desc></desc>
  </wpt>
  <wpt lat="31.824734" lon="51.053403">
    <ele>3186.5</ele>
    <time>2024-06-10T08:17:52.963Z</time>
    <name>Waypoint</name>
    <cmt></cmt>
    <desc></desc>
  </wpt>
  <wpt lat="31.822610" lon="51.051247">
    <ele>3281.0</ele>
    <time>2024-06-10T08:34:42.965Z</time>
    <name>Waypoint</name>
    <cmt></cmt>
    <desc></desc>
  </wpt>
  <wpt lat="31.819981" lon="51.048102">
    <ele>3375.7</ele>
    <time>2024-06-10T08:52:35.959Z</time>
    <name>Waypoint</name>
    <cmt></cmt>
    <desc></desc>
  </wpt>
  <wpt lat="31.818510" lon="51.046390">
    <ele>3430.5</ele>
    <time>2024-06-10T09:01:36.958Z</time>
    <name>دریاچه کاریز KARIZ LAKE</name>
    <cmt></cmt>
    <desc></desc>
  </wpt>
  <wpt lat="31.817408" lon="51.048230">
    <ele>3437.6</ele>
    <time>2024-06-10T09:29:03.955Z</time>
    <name>دریاچه کهریز KAHRIZ LAKE</name>
    <cmt></cmt>
    <desc></desc>
  </wpt>
  <wpt lat="31.813817" lon="51.048383">
    <ele>3542.7</ele>
    <time>2024-06-10T10:27:36.957Z</time>
    <name>Lake</name>
    <cmt></cmt>
    <desc></desc>
  </wpt>
  <wpt lat="31.813817" lon="51.048383">
    <ele>3542.7</ele>
    <time>2024-06-10T10:28:47.946Z</time>
    <name>Waypoint</name>
    <cmt></cmt>
    <desc></desc>
  </wpt>
  <wpt lat="31.814167" lon="51.049269">
    <ele>3581.0</ele>
    <time>2024-06-10T10:35:18.962Z</time>
    <name>قله کلار چیرو</name>
    <cmt></cmt>
    <desc></desc>
  </wpt>
  <wpt lat="31.814198" lon="51.049237">
    <ele>3588.3</ele>
    <time>2024-06-10T10:38:41.942Z</time>
    <name>Summit قله</name>
    <cmt></cmt>
    <desc></desc>
  </wpt>
  <wpt lat="31.814195" lon="51.049257">
    <ele>3590.4</ele>
    <time>2024-06-10T10:45:28.956Z</time>
    <name>Summit</name>
    <cmt></cmt>
    <desc></desc>
  </wpt>
  <wpt lat="31.814189" lon="51.049246">
    <ele>3589.3</ele>
    <time>2024-06-10T10:51:07.956Z</time>
    <name>Summit</name>
    <cmt></cmt>
    <desc></desc>
  </wpt>
  <wpt lat="31.814194" lon="51.049250">
    <ele>3589.5</ele>
    <time>2024-06-10T10:54:18.958Z</time>
    <name>Summit</name>
    <cmt></cmt>
    <desc></desc>
  </wpt>
  <wpt lat="31.814012" lon="51.049258">
    <ele>3588.9</ele>
    <time>2024-06-10T11:07:02.946Z</time>
    <name>Summit</name>
    <cmt></cmt>
    <desc></desc>
  </wpt>
  <wpt lat="31.817406" lon="51.048238">
    <ele>3440.7</ele>
    <time>2024-06-10T11:31:52.943Z</time>
    <name>Lake</name>
    <cmt></cmt>
    <desc></desc>
  </wpt>
  <wpt lat="31.823785" lon="51.055289">
    <ele>3164.6</ele>
    <time>2024-06-10T12:12:28.941Z</time>
    <name>Waypoint</name>
    <cmt></cmt>
    <desc></desc>
  </wpt>
  <wpt lat="31.830263" lon="51.061635">
    <ele>2882.7</ele>
    <time>2024-06-10T13:07:25.944Z</time>
    <name>چشمه چیرو</name>
    <cmt></cmt>
    <desc></desc>
  </wpt>
  <wpt lat="31.836544" lon="51.072982">
    <ele>2365.1</ele>
    <time>2024-06-10T14:23:32.938Z</time>
    <name>Waypoint</name>
    <cmt></cmt>
    <desc></desc>
  </wpt>
  <wpt lat="31.833952" lon="51.074350">
    <ele>2295.3</ele>
    <time>2024-06-10T14:33:13.947Z</time>
    <name>گل خار خوش عطر و زیبا و خارتیز</name>
    <cmt></cmt>
    <desc></desc>
  </wpt>
  <wpt lat="31.832868" lon="51.075018">
    <ele>2257.5</ele>
    <time>2024-06-10T14:39:16.936Z</time>
    <name>Car park</name>
    <cmt></cmt>
    <desc></desc>
  </wpt>
  <wpt lat="31.832247" lon="51.076059">
    <ele>2232.7</ele>
    <time>2024-06-10T14:43:35.936Z</time>
    <name>قله کلار چیرو 403.3.21 KALLAR CIRO GANDOMAN</name>
    <cmt></cmt>
    <desc></desc>
  </wpt>
  <trk>
    <name>قله کلار چیرو گندمان 403.3.21 KALLAR CHIRO GANDOMAN - Wikilo... - Wikiloc</name>
    <cmt></cmt>
    <desc></desc>
    <trkseg>
      <trkpt lat="31.832269" lon="51.076045">
        <ele>2233.013</ele>
        <time>2024-06-10T03:33:48.997Z</time>
      </trkpt>
      <trkpt lat="31.833047" lon="51.074751">
        <ele>2254.843</ele>
        <time>2024-06-10T03:38:28.998Z</time>
      </trkpt>
      <trkpt lat="31.833392" lon="51.074916">
        <ele>2268.407</ele>
        <time>2024-06-10T03:39:55.998Z</time>
      </trkpt>
      <trkpt lat="31.833426" lon="51.074753">
        <ele>2275.709</ele>
        <time>2024-06-10T03:40:31.998Z</time>
      </trkpt>
      <trkpt lat="31.833545" lon="51.074676">
        <ele>2277.622</ele>
        <time>2024-06-10T03:41:01.998Z</time>
      </trkpt>
      <trkpt lat="31.833515" lon="51.074523">
        <ele>2283.218</ele>
        <time>2024-06-10T03:41:28.998Z</time>
      </trkpt>
      <trkpt lat="31.833942" lon="51.074192">
        <ele>2298.614</ele>
        <time>2024-06-10T03:44:16.998Z</time>
      </trkpt>
      <trkpt lat="31.834940" lon="51.073825">
        <ele>2323.018</ele>
        <time>2024-06-10T03:47:26.998Z</time>
      </trkpt>
      <trkpt lat="31.835791" lon="51.073263">
        <ele>2347.977</ele>
        <time>2024-06-10T03:52:48.998Z</time>
      </trkpt>
      <trkpt lat="31.836300" lon="51.073127">
        <ele>2360.378</ele>
        <time>2024-06-10T03:54:37.997Z</time>
      </trkpt>
      <trkpt lat="31.837994" lon="51.072095">
        <ele>2390.170</ele>
        <time>2024-06-10T03:59:23.998Z</time>
      </trkpt>
      <trkpt lat="31.838186" lon="51.071593">
        <ele>2399.827</ele>
        <time>2024-06-10T04:01:09.998Z</time>
      </trkpt>
      <trkpt lat="31.838038" lon="51.071468">
        <ele>2403.450</ele>
        <time>2024-06-10T04:01:48.998Z</time>
      </trkpt>
      <trkpt lat="31.838088" lon="51.071316">
        <ele>2409.664</ele>
        <time>2024-06-10T04:02:28.998Z</time>
      </trkpt>
      <trkpt lat="31.837919" lon="51.071001">
        <ele>2424.406</ele>
        <time>2024-06-10T04:04:32.998Z</time>
      </trkpt>
      <trkpt lat="31.837693" lon="51.071072">
        <ele>2433.216</ele>
        <time>2024-06-10T04:07:00.998Z</time>
      </trkpt>
      <trkpt lat="31.837617" lon="51.070879">
        <ele>2436.509</ele>
        <time>2024-06-10T04:08:12.999Z</time>
      </trkpt>
      <trkpt lat="31.837230" lon="51.070876">
        <ele>2452.187</ele>
        <time>2024-06-10T04:09:22.998Z</time>
      </trkpt>
      <trkpt lat="31.836562" lon="51.070247">
        <ele>2471.423</ele>
        <time>2024-06-10T04:11:52.998Z</time>
      </trkpt>
      <trkpt lat="31.836145" lon="51.069412">
        <ele>2480.989</ele>
        <time>2024-06-10T04:15:04.998Z</time>
      </trkpt>
      <trkpt lat="31.835826" lon="51.068980">
        <ele>2496.553</ele>
        <time>2024-06-10T04:18:12.998Z</time>
      </trkpt>
      <trkpt lat="31.835767" lon="51.068738">
        <ele>2502.112</ele>
        <time>2024-06-10T04:19:04.998Z</time>
      </trkpt>
      <trkpt lat="31.835627" lon="51.068734">
        <ele>2509.233</ele>
        <time>2024-06-10T04:20:27.998Z</time>
      </trkpt>
      <trkpt lat="31.835562" lon="51.068419">
        <ele>2517.865</ele>
        <time>2024-06-10T04:21:45.998Z</time>
      </trkpt>
      <trkpt lat="31.835264" lon="51.067960">
        <ele>2535.482</ele>
        <time>2024-06-10T04:23:52.994Z</time>
      </trkpt>
      <trkpt lat="31.835289" lon="51.067781">
        <ele>2542.225</ele>
        <time>2024-06-10T04:26:22.998Z</time>
      </trkpt>
      <trkpt lat="31.835178" lon="51.067521">
        <ele>2550.691</ele>
        <time>2024-06-10T04:27:53.998Z</time>
      </trkpt>
      <trkpt lat="31.834995" lon="51.067499">
        <ele>2556.181</ele>
        <time>2024-06-10T04:28:35.999Z</time>
      </trkpt>
      <trkpt lat="31.834635" lon="51.067184">
        <ele>2568.819</ele>
        <time>2024-06-10T04:30:49.999Z</time>
      </trkpt>
      <trkpt lat="31.834626" lon="51.066497">
        <ele>2582.309</ele>
        <time>2024-06-10T04:32:31.998Z</time>
      </trkpt>
      <trkpt lat="31.834519" lon="51.066400">
        <ele>2587.940</ele>
        <time>2024-06-10T04:33:10.999Z</time>
      </trkpt>
      <trkpt lat="31.834557" lon="51.066271">
        <ele>2592.086</ele>
        <time>2024-06-10T04:33:56.998Z</time>
      </trkpt>
      <trkpt lat="31.834333" lon="51.066075">
        <ele>2605.842</ele>
        <time>2024-06-10T04:37:00.998Z</time>
      </trkpt>
      <trkpt lat="31.834297" lon="51.065571">
        <ele>2620.726</ele>
        <time>2024-06-10T04:39:44.999Z</time>
      </trkpt>
      <trkpt lat="31.834030" lon="51.065370">
        <ele>2634.045</ele>
        <time>2024-06-10T04:41:01.998Z</time>
      </trkpt>
      <trkpt lat="31.833754" lon="51.065379">
        <ele>2642.736</ele>
        <time>2024-06-10T04:42:16.998Z</time>
      </trkpt>
      <trkpt lat="31.833528" lon="51.065062">
        <ele>2657.468</ele>
        <time>2024-06-10T04:44:26.989Z</time>
      </trkpt>
      <trkpt lat="31.833306" lon="51.065036">
        <ele>2666.085</ele>
        <time>2024-06-10T04:45:30.997Z</time>
      </trkpt>
      <trkpt lat="31.833224" lon="51.064862">
        <ele>2669.398</ele>
        <time>2024-06-10T04:46:31.991Z</time>
      </trkpt>
      <trkpt lat="31.833165" lon="51.064920">
        <ele>2673.312</ele>
        <time>2024-06-10T04:47:07.998Z</time>
      </trkpt>
      <trkpt lat="31.832976" lon="51.064559">
        <ele>2686.832</ele>
        <time>2024-06-10T04:50:27.999Z</time>
      </trkpt>
      <trkpt lat="31.832804" lon="51.064528">
        <ele>2695.905</ele>
        <time>2024-06-10T04:51:28.991Z</time>
      </trkpt>
      <trkpt lat="31.832273" lon="51.063486">
        <ele>2749.109</ele>
        <time>2024-06-10T05:05:15.998Z</time>
      </trkpt>
      <trkpt lat="31.831511" lon="51.062715">
        <ele>2783.962</ele>
        <time>2024-06-10T05:15:09.998Z</time>
      </trkpt>
      <trkpt lat="31.831350" lon="51.062322">
        <ele>2795.748</ele>
        <time>2024-06-10T05:17:09.998Z</time>
      </trkpt>
      <trkpt lat="31.831251" lon="51.062399">
        <ele>2806.084</ele>
        <time>2024-06-10T05:19:34.998Z</time>
      </trkpt>
      <trkpt lat="31.830958" lon="51.061840">
        <ele>2824.878</ele>
        <time>2024-06-10T05:23:49.998Z</time>
      </trkpt>
      <trkpt lat="31.830835" lon="51.061788">
        <ele>2830.117</ele>
        <time>2024-06-10T05:24:20.998Z</time>
      </trkpt>
      <trkpt lat="31.830691" lon="51.061475">
        <ele>2839.198</ele>
        <time>2024-06-10T05:27:29.998Z</time>
      </trkpt>
      <trkpt lat="31.830578" lon="51.061413">
        <ele>2845.460</ele>
        <time>2024-06-10T05:28:44.998Z</time>
      </trkpt>
      <trkpt lat="31.830587" lon="51.061307">
        <ele>2849.467</ele>
        <time>2024-06-10T05:29:28.998Z</time>
      </trkpt>
      <trkpt lat="31.830468" lon="51.061226">
        <ele>2858.260</ele>
        <time>2024-06-10T05:30:45.998Z</time>
      </trkpt>
      <trkpt lat="31.830353" lon="51.061293">
        <ele>2866.313</ele>
        <time>2024-06-10T05:32:03.988Z</time>
      </trkpt>
      <trkpt lat="31.830503" lon="51.061161">
        <ele>2876.043</ele>
        <time>2024-06-10T07:14:42.976Z</time>
      </trkpt>
      <trkpt lat="31.830297" lon="51.061284">
        <ele>2874.307</ele>
        <time>2024-06-10T07:18:14.986Z</time>
      </trkpt>
      <trkpt lat="31.830168" lon="51.061685">
        <ele>2882.809</ele>
        <time>2024-06-10T07:19:29.990Z</time>
      </trkpt>
      <trkpt lat="31.829953" lon="51.061314">
        <ele>2892.852</ele>
        <time>2024-06-10T07:21:06.984Z</time>
      </trkpt>
      <trkpt lat="31.829253" lon="51.061292">
        <ele>2908.668</ele>
        <time>2024-06-10T07:23:08.978Z</time>
      </trkpt>
      <trkpt lat="31.827968" lon="51.061617">
        <ele>2930.314</ele>
        <time>2024-06-10T07:28:50.977Z</time>
      </trkpt>
      <trkpt lat="31.827647" lon="51.061533">
        <ele>2934.668</ele>
        <time>2024-06-10T07:29:34.998Z</time>
      </trkpt>
      <trkpt lat="31.827579" lon="51.061280">
        <ele>2937.777</ele>
        <time>2024-06-10T07:30:14.986Z</time>
      </trkpt>
      <trkpt lat="31.827833" lon="51.061116">
        <ele>2937.548</ele>
        <time>2024-06-10T07:31:05.981Z</time>
      </trkpt>
      <trkpt lat="31.827918" lon="51.060811">
        <ele>2949.850</ele>
        <time>2024-06-10T07:32:13.988Z</time>
      </trkpt>
      <trkpt lat="31.827804" lon="51.059837">
        <ele>2967.437</ele>
        <time>2024-06-10T07:37:13.984Z</time>
      </trkpt>
      <trkpt lat="31.827985" lon="51.059677">
        <ele>2973.250</ele>
        <time>2024-06-10T07:37:51.981Z</time>
      </trkpt>
      <trkpt lat="31.828163" lon="51.059183">
        <ele>2985.947</ele>
        <time>2024-06-10T07:39:16.978Z</time>
      </trkpt>
      <trkpt lat="31.828041" lon="51.058899">
        <ele>2995.329</ele>
        <time>2024-06-10T07:40:26.996Z</time>
      </trkpt>
      <trkpt lat="31.828002" lon="51.058618">
        <ele>2996.321</ele>
        <time>2024-06-10T07:41:52.979Z</time>
      </trkpt>
      <trkpt lat="31.828075" lon="51.058547">
        <ele>2993.409</ele>
        <time>2024-06-10T07:42:22.987Z</time>
      </trkpt>
      <trkpt lat="31.827999" lon="51.058285">
        <ele>3000.795</ele>
        <time>2024-06-10T07:43:03.973Z</time>
      </trkpt>
      <trkpt lat="31.827838" lon="51.058198">
        <ele>3015.571</ele>
        <time>2024-06-10T07:45:02.971Z</time>
      </trkpt>
      <trkpt lat="31.827787" lon="51.058061">
        <ele>3015.657</ele>
        <time>2024-06-10T07:45:22.973Z</time>
      </trkpt>
      <trkpt lat="31.826763" lon="51.057482">
        <ele>3047.921</ele>
        <time>2024-06-10T07:52:27.980Z</time>
      </trkpt>
      <trkpt lat="31.826822" lon="51.057039">
        <ele>3050.740</ele>
        <time>2024-06-10T07:53:29.990Z</time>
      </trkpt>
      <trkpt lat="31.826600" lon="51.056834">
        <ele>3060.741</ele>
        <time>2024-06-10T07:55:07.998Z</time>
      </trkpt>
      <trkpt lat="31.826579" lon="51.056511">
        <ele>3067.343</ele>
        <time>2024-06-10T07:56:57.978Z</time>
      </trkpt>
      <trkpt lat="31.826453" lon="51.056548">
        <ele>3068.720</ele>
        <time>2024-06-10T07:57:20.973Z</time>
      </trkpt>
      <trkpt lat="31.826362" lon="51.056716">
        <ele>3081.093</ele>
        <time>2024-06-10T07:58:04.981Z</time>
      </trkpt>
      <trkpt lat="31.826360" lon="51.056596">
        <ele>3081.887</ele>
        <time>2024-06-10T07:58:11.986Z</time>
      </trkpt>
      <trkpt lat="31.826186" lon="51.056541">
        <ele>3083.942</ele>
        <time>2024-06-10T07:58:46.998Z</time>
      </trkpt>
      <trkpt lat="31.826095" lon="51.056350">
        <ele>3092.726</ele>
        <time>2024-06-10T07:59:25.998Z</time>
      </trkpt>
      <trkpt lat="31.826203" lon="51.056242">
        <ele>3094.209</ele>
        <time>2024-06-10T07:59:57.999Z</time>
      </trkpt>
      <trkpt lat="31.826176" lon="51.056026">
        <ele>3105.699</ele>
        <time>2024-06-10T08:05:19.983Z</time>
      </trkpt>
      <trkpt lat="31.826251" lon="51.055956">
        <ele>3105.675</ele>
        <time>2024-06-10T08:05:37.980Z</time>
      </trkpt>
      <trkpt lat="31.826197" lon="51.055631">
        <ele>3120.041</ele>
        <time>2024-06-10T08:06:52.998Z</time>
      </trkpt>
      <trkpt lat="31.825824" lon="51.055227">
        <ele>3136.285</ele>
        <time>2024-06-10T08:09:22.978Z</time>
      </trkpt>
      <trkpt lat="31.825451" lon="51.055103">
        <ele>3150.754</ele>
        <time>2024-06-10T08:10:27.973Z</time>
      </trkpt>
      <trkpt lat="31.825222" lon="51.054748">
        <ele>3159.325</ele>
        <time>2024-06-10T08:13:38.971Z</time>
      </trkpt>
      <trkpt lat="31.825232" lon="51.053821">
        <ele>3167.467</ele>
        <time>2024-06-10T08:15:18.976Z</time>
      </trkpt>
      <trkpt lat="31.825117" lon="51.053729">
        <ele>3171.314</ele>
        <time>2024-06-10T08:15:40.998Z</time>
      </trkpt>
      <trkpt lat="31.824941" lon="51.053740">
        <ele>3176.997</ele>
        <time>2024-06-10T08:16:05.998Z</time>
      </trkpt>
      <trkpt lat="31.824847" lon="51.053488">
        <ele>3183.318</ele>
        <time>2024-06-10T08:16:55.999Z</time>
      </trkpt>
      <trkpt lat="31.824553" lon="51.053299">
        <ele>3192.798</ele>
        <time>2024-06-10T08:19:40.981Z</time>
      </trkpt>
      <trkpt lat="31.824000" lon="51.052306">
        <ele>3210.417</ele>
        <time>2024-06-10T08:25:08.974Z</time>
      </trkpt>
      <trkpt lat="31.823637" lon="51.052099">
        <ele>3224.609</ele>
        <time>2024-06-10T08:26:52.998Z</time>
      </trkpt>
      <trkpt lat="31.823439" lon="51.052103">
        <ele>3241.742</ele>
        <time>2024-06-10T08:29:45.998Z</time>
      </trkpt>
      <trkpt lat="31.823252" lon="51.051745">
        <ele>3247.258</ele>
        <time>2024-06-10T08:31:23.968Z</time>
      </trkpt>
      <trkpt lat="31.822891" lon="51.051605">
        <ele>3261.684</ele>
        <time>2024-06-10T08:32:27.970Z</time>
      </trkpt>
      <trkpt lat="31.822605" lon="51.051245">
        <ele>3280.268</ele>
        <time>2024-06-10T08:33:46.974Z</time>
      </trkpt>
      <trkpt lat="31.822554" lon="51.051291">
        <ele>3284.197</ele>
        <time>2024-06-10T08:35:59.968Z</time>
      </trkpt>
      <trkpt lat="31.821945" lon="51.050088">
        <ele>3306.118</ele>
        <time>2024-06-10T08:39:46.975Z</time>
      </trkpt>
      <trkpt lat="31.821812" lon="51.049574">
        <ele>3321.570</ele>
        <time>2024-06-10T08:41:41.979Z</time>
      </trkpt>
      <trkpt lat="31.821663" lon="51.049460">
        <ele>3334.887</ele>
        <time>2024-06-10T08:42:28.970Z</time>
      </trkpt>
      <trkpt lat="31.821650" lon="51.049000">
        <ele>3332.180</ele>
        <time>2024-06-10T08:43:23.960Z</time>
      </trkpt>
      <trkpt lat="31.821499" lon="51.048517">
        <ele>3328.085</ele>
        <time>2024-06-10T08:44:26.979Z</time>
      </trkpt>
      <trkpt lat="31.821325" lon="51.048418">
        <ele>3336.389</ele>
        <time>2024-06-10T08:45:00.998Z</time>
      </trkpt>
      <trkpt lat="31.820825" lon="51.048474">
        <ele>3349.417</ele>
        <time>2024-06-10T08:47:03.974Z</time>
      </trkpt>
      <trkpt lat="31.820734" lon="51.048438">
        <ele>3350.509</ele>
        <time>2024-06-10T08:47:23.974Z</time>
      </trkpt>
      <trkpt lat="31.820787" lon="51.048287">
        <ele>3350.639</ele>
        <time>2024-06-10T08:47:52.999Z</time>
      </trkpt>
      <trkpt lat="31.820670" lon="51.048207">
        <ele>3352.155</ele>
        <time>2024-06-10T08:48:11.992Z</time>
      </trkpt>
      <trkpt lat="31.820460" lon="51.048265">
        <ele>3363.171</ele>
        <time>2024-06-10T08:49:07.998Z</time>
      </trkpt>
      <trkpt lat="31.820432" lon="51.048138">
        <ele>3366.975</ele>
        <time>2024-06-10T08:49:34.972Z</time>
      </trkpt>
      <trkpt lat="31.820245" lon="51.048170">
        <ele>3372.674</ele>
        <time>2024-06-10T08:50:31.957Z</time>
      </trkpt>
      <trkpt lat="31.819792" lon="51.048048">
        <ele>3383.935</ele>
        <time>2024-06-10T08:54:05.975Z</time>
      </trkpt>
      <trkpt lat="31.819656" lon="51.048131">
        <ele>3392.037</ele>
        <time>2024-06-10T08:54:35.969Z</time>
      </trkpt>
      <trkpt lat="31.819414" lon="51.047869">
        <ele>3404.774</ele>
        <time>2024-06-10T08:56:38.977Z</time>
      </trkpt>
      <trkpt lat="31.819109" lon="51.047192">
        <ele>3411.797</ele>
        <time>2024-06-10T08:58:22.972Z</time>
      </trkpt>
      <trkpt lat="31.818789" lon="51.046943">
        <ele>3416.428</ele>
        <time>2024-06-10T08:59:13.978Z</time>
      </trkpt>
      <trkpt lat="31.818399" lon="51.046190">
        <ele>3428.289</ele>
        <time>2024-06-10T09:03:16.958Z</time>
      </trkpt>
      <trkpt lat="31.817921" lon="51.046607">
        <ele>3422.917</ele>
        <time>2024-06-10T09:05:39.962Z</time>
      </trkpt>
      <trkpt lat="31.817911" lon="51.047534">
        <ele>3410.909</ele>
        <time>2024-06-10T09:07:22.999Z</time>
      </trkpt>
      <trkpt lat="31.817710" lon="51.047861">
        <ele>3407.533</ele>
        <time>2024-06-10T09:08:02.998Z</time>
      </trkpt>
      <trkpt lat="31.817463" lon="51.047950">
        <ele>3420.829</ele>
        <time>2024-06-10T09:08:47.999Z</time>
      </trkpt>
      <trkpt lat="31.817367" lon="51.048364">
        <ele>3435.495</ele>
        <time>2024-06-10T09:10:07.998Z</time>
      </trkpt>
      <trkpt lat="31.817417" lon="51.048207">
        <ele>3434.139</ele>
        <time>2024-06-10T09:10:52.959Z</time>
      </trkpt>
      <trkpt lat="31.816734" lon="51.048254">
        <ele>3451.368</ele>
        <time>2024-06-10T10:15:54.954Z</time>
      </trkpt>
      <trkpt lat="31.816466" lon="51.048133">
        <ele>3450.769</ele>
        <time>2024-06-10T10:16:41.976Z</time>
      </trkpt>
      <trkpt lat="31.815886" lon="51.048161">
        <ele>3454.871</ele>
        <time>2024-06-10T10:18:28.961Z</time>
      </trkpt>
      <trkpt lat="31.815496" lon="51.047991">
        <ele>3466.548</ele>
        <time>2024-06-10T10:19:32.971Z</time>
      </trkpt>
      <trkpt lat="31.815327" lon="51.048129">
        <ele>3472.411</ele>
        <time>2024-06-10T10:20:34.965Z</time>
      </trkpt>
      <trkpt lat="31.814570" lon="51.048025">
        <ele>3498.152</ele>
        <time>2024-06-10T10:23:06.965Z</time>
      </trkpt>
      <trkpt lat="31.814088" lon="51.048332">
        <ele>3529.853</ele>
        <time>2024-06-10T10:25:59.952Z</time>
      </trkpt>
      <trkpt lat="31.813808" lon="51.048374">
        <ele>3541.808</ele>
        <time>2024-06-10T10:27:09.952Z</time>
      </trkpt>
      <trkpt lat="31.813727" lon="51.048572">
        <ele>3548.109</ele>
        <time>2024-06-10T10:30:10.968Z</time>
      </trkpt>
      <trkpt lat="31.813559" lon="51.048677">
        <ele>3554.046</ele>
        <time>2024-06-10T10:30:59.954Z</time>
      </trkpt>
      <trkpt lat="31.813660" lon="51.049025">
        <ele>3565.122</ele>
        <time>2024-06-10T10:32:29.949Z</time>
      </trkpt>
      <trkpt lat="31.814160" lon="51.049256">
        <ele>3580.398</ele>
        <time>2024-06-10T10:34:43.969Z</time>
      </trkpt>
      <trkpt lat="31.814050" lon="51.049259">
        <ele>3587.292</ele>
        <time>2024-06-10T11:08:17.958Z</time>
      </trkpt>
      <trkpt lat="31.814076" lon="51.049167">
        <ele>3587.271</ele>
        <time>2024-06-10T11:08:36.983Z</time>
      </trkpt>
      <trkpt lat="31.813611" lon="51.048950">
        <ele>3572.562</ele>
        <time>2024-06-10T11:10:26.964Z</time>
      </trkpt>
      <trkpt lat="31.813623" lon="51.048632">
        <ele>3561.484</ele>
        <time>2024-06-10T11:11:54.981Z</time>
      </trkpt>
      <trkpt lat="31.813454" lon="51.048433">
        <ele>3552.831</ele>
        <time>2024-06-10T11:13:10.971Z</time>
      </trkpt>
      <trkpt lat="31.813718" lon="51.048071">
        <ele>3530.774</ele>
        <time>2024-06-10T11:16:31.959Z</time>
      </trkpt>
      <trkpt lat="31.813682" lon="51.047897">
        <ele>3517.282</ele>
        <time>2024-06-10T11:17:41.978Z</time>
      </trkpt>
      <trkpt lat="31.814013" lon="51.047715">
        <ele>3509.843</ele>
        <time>2024-06-10T11:18:59.964Z</time>
      </trkpt>
      <trkpt lat="31.814247" lon="51.047724">
        <ele>3500.117</ele>
        <time>2024-06-10T11:19:44.974Z</time>
      </trkpt>
      <trkpt lat="31.814234" lon="51.047612">
        <ele>3497.809</ele>
        <time>2024-06-10T11:20:08.957Z</time>
      </trkpt>
      <trkpt lat="31.814457" lon="51.047573">
        <ele>3490.259</ele>
        <time>2024-06-10T11:21:23.948Z</time>
      </trkpt>
      <trkpt lat="31.815314" lon="51.047986">
        <ele>3477.155</ele>
        <time>2024-06-10T11:23:41.950Z</time>
      </trkpt>
      <trkpt lat="31.815475" lon="51.047906">
        <ele>3473.221</ele>
        <time>2024-06-10T11:24:16.946Z</time>
      </trkpt>
      <trkpt lat="31.816090" lon="51.048076">
        <ele>3461.885</ele>
        <time>2024-06-10T11:25:43.943Z</time>
      </trkpt>
      <trkpt lat="31.816675" lon="51.048055">
        <ele>3448.934</ele>
        <time>2024-06-10T11:26:49.938Z</time>
      </trkpt>
      <trkpt lat="31.817750" lon="51.048324">
        <ele>3438.035</ele>
        <time>2024-06-10T11:37:38.948Z</time>
      </trkpt>
      <trkpt lat="31.818520" lon="51.048082">
        <ele>3433.287</ele>
        <time>2024-06-10T11:38:51.948Z</time>
      </trkpt>
      <trkpt lat="31.818568" lon="51.048177">
        <ele>3433.824</ele>
        <time>2024-06-10T11:39:05.956Z</time>
      </trkpt>
      <trkpt lat="31.818794" lon="51.048144">
        <ele>3430.717</ele>
        <time>2024-06-10T11:40:00.941Z</time>
      </trkpt>
      <trkpt lat="31.819430" lon="51.047853">
        <ele>3409.368</ele>
        <time>2024-06-10T11:41:54.953Z</time>
      </trkpt>
      <trkpt lat="31.819704" lon="51.048006">
        <ele>3403.642</ele>
        <time>2024-06-10T11:42:55.957Z</time>
      </trkpt>
      <trkpt lat="31.819710" lon="51.048148">
        <ele>3398.826</ele>
        <time>2024-06-10T11:43:39.961Z</time>
      </trkpt>
      <trkpt lat="31.819836" lon="51.048081">
        <ele>3395.009</ele>
        <time>2024-06-10T11:44:09.957Z</time>
      </trkpt>
      <trkpt lat="31.820296" lon="51.048268">
        <ele>3374.177</ele>
        <time>2024-06-10T11:47:20.951Z</time>
      </trkpt>
      <trkpt lat="31.820483" lon="51.048209">
        <ele>3370.763</ele>
        <time>2024-06-10T11:47:45.948Z</time>
      </trkpt>
      <trkpt lat="31.820518" lon="51.048310">
        <ele>3368.399</ele>
        <time>2024-06-10T11:47:58.942Z</time>
      </trkpt>
      <trkpt lat="31.820728" lon="51.048314">
        <ele>3365.943</ele>
        <time>2024-06-10T11:48:51.941Z</time>
      </trkpt>
      <trkpt lat="31.820795" lon="51.048434">
        <ele>3358.982</ele>
        <time>2024-06-10T11:49:36.956Z</time>
      </trkpt>
      <trkpt lat="31.821235" lon="51.048452">
        <ele>3345.423</ele>
        <time>2024-06-10T11:51:02.944Z</time>
      </trkpt>
      <trkpt lat="31.821504" lon="51.048580">
        <ele>3336.635</ele>
        <time>2024-06-10T11:51:37.949Z</time>
      </trkpt>
      <trkpt lat="31.821650" lon="51.048939">
        <ele>3331.412</ele>
        <time>2024-06-10T11:52:09.950Z</time>
      </trkpt>
      <trkpt lat="31.821706" lon="51.049521">
        <ele>3327.385</ele>
        <time>2024-06-10T11:52:57.938Z</time>
      </trkpt>
      <trkpt lat="31.821916" lon="51.049852">
        <ele>3322.356</ele>
        <time>2024-06-10T11:53:43.952Z</time>
      </trkpt>
      <trkpt lat="31.821959" lon="51.050247">
        <ele>3318.559</ele>
        <time>2024-06-10T11:54:30.946Z</time>
      </trkpt>
      <trkpt lat="31.822574" lon="51.051364">
        <ele>3288.714</ele>
        <time>2024-06-10T11:56:48.936Z</time>
      </trkpt>
      <trkpt lat="31.822762" lon="51.051624">
        <ele>3282.609</ele>
        <time>2024-06-10T11:57:19.943Z</time>
      </trkpt>
      <trkpt lat="31.823015" lon="51.051753">
        <ele>3276.966</ele>
        <time>2024-06-10T11:58:10.951Z</time>
      </trkpt>
      <trkpt lat="31.823032" lon="51.051856">
        <ele>3275.372</ele>
        <time>2024-06-10T11:58:25.956Z</time>
      </trkpt>
      <trkpt lat="31.823152" lon="51.051935">
        <ele>3270.338</ele>
        <time>2024-06-10T11:58:47.959Z</time>
      </trkpt>
      <trkpt lat="31.823232" lon="51.051876">
        <ele>3267.122</ele>
        <time>2024-06-10T11:59:00.945Z</time>
      </trkpt>
      <trkpt lat="31.823371" lon="51.052234">
        <ele>3262.031</ele>
        <time>2024-06-10T11:59:57.947Z</time>
      </trkpt>
      <trkpt lat="31.824176" lon="51.052666">
        <ele>3219.042</ele>
        <time>2024-06-10T12:03:31.945Z</time>
      </trkpt>
      <trkpt lat="31.824590" lon="51.053268">
        <ele>3204.994</ele>
        <time>2024-06-10T12:05:09.946Z</time>
      </trkpt>
      <trkpt lat="31.824841" lon="51.053434">
        <ele>3196.861</ele>
        <time>2024-06-10T12:05:53.946Z</time>
      </trkpt>
      <trkpt lat="31.825121" lon="51.054177">
        <ele>3182.394</ele>
        <time>2024-06-10T12:07:49.941Z</time>
      </trkpt>
      <trkpt lat="31.824945" lon="51.054486">
        <ele>3172.251</ele>
        <time>2024-06-10T12:09:43.978Z</time>
      </trkpt>
      <trkpt lat="31.824191" lon="51.055166">
        <ele>3168.701</ele>
        <time>2024-06-10T12:11:23.956Z</time>
      </trkpt>
      <trkpt lat="31.823780" lon="51.055283">
        <ele>3163.211</ele>
        <time>2024-06-10T12:12:08.951Z</time>
      </trkpt>
      <trkpt lat="31.823545" lon="51.055230">
        <ele>3163.609</ele>
        <time>2024-06-10T12:13:23.944Z</time>
      </trkpt>
      <trkpt lat="31.823424" lon="51.055629">
        <ele>3155.836</ele>
        <time>2024-06-10T12:14:21.960Z</time>
      </trkpt>
      <trkpt lat="31.823446" lon="51.056019">
        <ele>3145.142</ele>
        <time>2024-06-10T12:15:16.956Z</time>
      </trkpt>
      <trkpt lat="31.823692" lon="51.056784">
        <ele>3132.268</ele>
        <time>2024-06-10T12:16:52.943Z</time>
      </trkpt>
      <trkpt lat="31.823699" lon="51.057094">
        <ele>3125.392</ele>
        <time>2024-06-10T12:19:41.938Z</time>
      </trkpt>
      <trkpt lat="31.823604" lon="51.057071">
        <ele>3123.561</ele>
        <time>2024-06-10T12:19:56.943Z</time>
      </trkpt>
      <trkpt lat="31.823512" lon="51.057190">
        <ele>3115.842</ele>
        <time>2024-06-10T12:20:35.940Z</time>
      </trkpt>
      <trkpt lat="31.823633" lon="51.057422">
        <ele>3108.154</ele>
        <time>2024-06-10T12:21:20.939Z</time>
      </trkpt>
      <trkpt lat="31.823548" lon="51.057436">
        <ele>3102.411</ele>
        <time>2024-06-10T12:21:44.939Z</time>
      </trkpt>
      <trkpt lat="31.823586" lon="51.057697">
        <ele>3092.594</ele>
        <time>2024-06-10T12:22:43.939Z</time>
      </trkpt>
      <trkpt lat="31.823736" lon="51.057979">
        <ele>3081.274</ele>
        <time>2024-06-10T12:23:47.931Z</time>
      </trkpt>
      <trkpt lat="31.823973" lon="51.058022">
        <ele>3072.256</ele>
        <time>2024-06-10T12:24:43.947Z</time>
      </trkpt>
      <trkpt lat="31.824304" lon="51.058397">
        <ele>3058.621</ele>
        <time>2024-06-10T12:26:10.942Z</time>
      </trkpt>
      <trkpt lat="31.824444" lon="51.058375">
        <ele>3054.109</ele>
        <time>2024-06-10T12:26:27.942Z</time>
      </trkpt>
      <trkpt lat="31.824592" lon="51.058692">
        <ele>3051.558</ele>
        <time>2024-06-10T12:27:13.945Z</time>
      </trkpt>
      <trkpt lat="31.824459" lon="51.058977">
        <ele>3041.874</ele>
        <time>2024-06-10T12:28:10.945Z</time>
      </trkpt>
      <trkpt lat="31.824660" lon="51.059179">
        <ele>3033.990</ele>
        <time>2024-06-10T12:28:49.944Z</time>
      </trkpt>
      <trkpt lat="31.824672" lon="51.059468">
        <ele>3026.224</ele>
        <time>2024-06-10T12:29:46.942Z</time>
      </trkpt>
      <trkpt lat="31.824799" lon="51.059526">
        <ele>3023.293</ele>
        <time>2024-06-10T12:30:03.940Z</time>
      </trkpt>
      <trkpt lat="31.825004" lon="51.059379">
        <ele>3016.094</ele>
        <time>2024-06-10T12:30:33.945Z</time>
      </trkpt>
      <trkpt lat="31.825194" lon="51.059411">
        <ele>3012.036</ele>
        <time>2024-06-10T12:31:00.944Z</time>
      </trkpt>
      <trkpt lat="31.825391" lon="51.059660">
        <ele>3006.173</ele>
        <time>2024-06-10T12:32:38.958Z</time>
      </trkpt>
      <trkpt lat="31.825241" lon="51.059787">
        <ele>3004.656</ele>
        <time>2024-06-10T12:33:54.947Z</time>
      </trkpt>
      <trkpt lat="31.825256" lon="51.060059">
        <ele>3001.363</ele>
        <time>2024-06-10T12:34:43.940Z</time>
      </trkpt>
      <trkpt lat="31.825523" lon="51.060125">
        <ele>2983.744</ele>
        <time>2024-06-10T12:35:30.944Z</time>
      </trkpt>
      <trkpt lat="31.825678" lon="51.060410">
        <ele>2980.718</ele>
        <time>2024-06-10T12:36:12.939Z</time>
      </trkpt>
      <trkpt lat="31.825973" lon="51.060183">
        <ele>2981.109</ele>
        <time>2024-06-10T12:42:54.949Z</time>
      </trkpt>
      <trkpt lat="31.826330" lon="51.060343">
        <ele>2971.787</ele>
        <time>2024-06-10T12:44:40.992Z</time>
      </trkpt>
      <trkpt lat="31.826286" lon="51.060580">
        <ele>2963.743</ele>
        <time>2024-06-10T12:45:33.965Z</time>
      </trkpt>
      <trkpt lat="31.826525" lon="51.060623">
        <ele>2954.269</ele>
        <time>2024-06-10T12:46:13.938Z</time>
      </trkpt>
      <trkpt lat="31.826599" lon="51.060948">
        <ele>2949.283</ele>
        <time>2024-06-10T12:47:13.960Z</time>
      </trkpt>
      <trkpt lat="31.827036" lon="51.061163">
        <ele>2932.882</ele>
        <time>2024-06-10T12:48:11.936Z</time>
      </trkpt>
      <trkpt lat="31.827425" lon="51.061591">
        <ele>2924.933</ele>
        <time>2024-06-10T12:49:14.936Z</time>
      </trkpt>
      <trkpt lat="31.827815" lon="51.061733">
        <ele>2918.785</ele>
        <time>2024-06-10T12:50:10.955Z</time>
      </trkpt>
      <trkpt lat="31.827900" lon="51.061678">
        <ele>2916.862</ele>
        <time>2024-06-10T12:50:26.976Z</time>
      </trkpt>
      <trkpt lat="31.828048" lon="51.061835">
        <ele>2916.745</ele>
        <time>2024-06-10T12:51:02.936Z</time>
      </trkpt>
      <trkpt lat="31.828541" lon="51.061617">
        <ele>2910.981</ele>
        <time>2024-06-10T13:02:02.936Z</time>
      </trkpt>
      <trkpt lat="31.828724" lon="51.061654">
        <ele>2910.961</ele>
        <time>2024-06-10T13:02:23.953Z</time>
      </trkpt>
      <trkpt lat="31.828921" lon="51.061406">
        <ele>2906.617</ele>
        <time>2024-06-10T13:02:57.938Z</time>
      </trkpt>
      <trkpt lat="31.829268" lon="51.061344">
        <ele>2897.609</ele>
        <time>2024-06-10T13:03:36.944Z</time>
      </trkpt>
      <trkpt lat="31.830004" lon="51.061375">
        <ele>2891.329</ele>
        <time>2024-06-10T13:05:10.989Z</time>
      </trkpt>
      <trkpt lat="31.830248" lon="51.061692">
        <ele>2885.835</ele>
        <time>2024-06-10T13:06:22.953Z</time>
      </trkpt>
      <trkpt lat="31.830352" lon="51.061280">
        <ele>2869.981</ele>
        <time>2024-06-10T13:09:14.947Z</time>
      </trkpt>
      <trkpt lat="31.830543" lon="51.061190">
        <ele>2862.615</ele>
        <time>2024-06-10T13:30:42.952Z</time>
      </trkpt>
      <trkpt lat="31.830574" lon="51.061456">
        <ele>2860.714</ele>
        <time>2024-06-10T13:31:55.955Z</time>
      </trkpt>
      <trkpt lat="31.830807" lon="51.061463">
        <ele>2846.025</ele>
        <time>2024-06-10T13:33:38.952Z</time>
      </trkpt>
      <trkpt lat="31.830809" lon="51.061625">
        <ele>2846.057</ele>
        <time>2024-06-10T13:34:03.999Z</time>
      </trkpt>
      <trkpt lat="31.831192" lon="51.062095">
        <ele>2829.874</ele>
        <time>2024-06-10T13:35:51.956Z</time>
      </trkpt>
      <trkpt lat="31.831340" lon="51.062461">
        <ele>2815.627</ele>
        <time>2024-06-10T13:37:28.954Z</time>
      </trkpt>
      <trkpt lat="31.831488" lon="51.062380">
        <ele>2802.389</ele>
        <time>2024-06-10T13:38:47.959Z</time>
      </trkpt>
      <trkpt lat="31.831566" lon="51.062689">
        <ele>2794.006</ele>
        <time>2024-06-10T13:39:39.949Z</time>
      </trkpt>
      <trkpt lat="31.831974" lon="51.063180">
        <ele>2769.826</ele>
        <time>2024-06-10T13:42:21.948Z</time>
      </trkpt>
      <trkpt lat="31.832562" lon="51.063683">
        <ele>2735.209</ele>
        <time>2024-06-10T13:44:46.946Z</time>
      </trkpt>
      <trkpt lat="31.832850" lon="51.064534">
        <ele>2702.739</ele>
        <time>2024-06-10T13:46:55.931Z</time>
      </trkpt>
      <trkpt lat="31.833084" lon="51.064488">
        <ele>2698.965</ele>
        <time>2024-06-10T13:47:28.948Z</time>
      </trkpt>
      <trkpt lat="31.833108" lon="51.064759">
        <ele>2692.431</ele>
        <time>2024-06-10T13:48:17.951Z</time>
      </trkpt>
      <trkpt lat="31.833221" lon="51.064801">
        <ele>2686.765</ele>
        <time>2024-06-10T13:48:35.946Z</time>
      </trkpt>
      <trkpt lat="31.833296" lon="51.065037">
        <ele>2677.114</ele>
        <time>2024-06-10T13:49:36.947Z</time>
      </trkpt>
      <trkpt lat="31.833387" lon="51.065015">
        <ele>2674.215</ele>
        <time>2024-06-10T13:49:49.951Z</time>
      </trkpt>
      <trkpt lat="31.833866" lon="51.065473">
        <ele>2646.437</ele>
        <time>2024-06-10T13:51:00.935Z</time>
      </trkpt>
      <trkpt lat="31.834150" lon="51.065410">
        <ele>2640.664</ele>
        <time>2024-06-10T13:51:34.949Z</time>
      </trkpt>
      <trkpt lat="31.834312" lon="51.065540">
        <ele>2629.247</ele>
        <time>2024-06-10T13:52:10.942Z</time>
      </trkpt>
      <trkpt lat="31.834399" lon="51.065836">
        <ele>2619.129</ele>
        <time>2024-06-10T13:53:01.946Z</time>
      </trkpt>
      <trkpt lat="31.834332" lon="51.065916">
        <ele>2618.400</ele>
        <time>2024-06-10T13:53:10.933Z</time>
      </trkpt>
      <trkpt lat="31.834369" lon="51.066142">
        <ele>2615.720</ele>
        <time>2024-06-10T13:53:54.940Z</time>
      </trkpt>
      <trkpt lat="31.834573" lon="51.066274">
        <ele>2604.309</ele>
        <time>2024-06-10T13:54:37.947Z</time>
      </trkpt>
      <trkpt lat="31.834526" lon="51.066411">
        <ele>2598.363</ele>
        <time>2024-06-10T13:55:06.956Z</time>
      </trkpt>
      <trkpt lat="31.834645" lon="51.066547">
        <ele>2593.449</ele>
        <time>2024-06-10T13:55:37.944Z</time>
      </trkpt>
      <trkpt lat="31.834621" lon="51.067102">
        <ele>2582.545</ele>
        <time>2024-06-10T13:56:27.951Z</time>
      </trkpt>
      <trkpt lat="31.834879" lon="51.067393">
        <ele>2570.519</ele>
        <time>2024-06-10T13:57:02.936Z</time>
      </trkpt>
      <trkpt lat="31.835269" lon="51.067578">
        <ele>2562.388</ele>
        <time>2024-06-10T13:58:24.951Z</time>
      </trkpt>
      <trkpt lat="31.835283" lon="51.067996">
        <ele>2552.669</ele>
        <time>2024-06-10T14:00:14.973Z</time>
      </trkpt>
      <trkpt lat="31.835400" lon="51.067997">
        <ele>2545.481</ele>
        <time>2024-06-10T14:01:40.946Z</time>
      </trkpt>
      <trkpt lat="31.835369" lon="51.068099">
        <ele>2544.638</ele>
        <time>2024-06-10T14:02:06.948Z</time>
      </trkpt>
      <trkpt lat="31.835645" lon="51.068494">
        <ele>2527.261</ele>
        <time>2024-06-10T14:04:04.966Z</time>
      </trkpt>
      <trkpt lat="31.835701" lon="51.068765">
        <ele>2518.095</ele>
        <time>2024-06-10T14:04:40.943Z</time>
      </trkpt>
      <trkpt lat="31.835797" lon="51.068744">
        <ele>2516.149</ele>
        <time>2024-06-10T14:04:55.943Z</time>
      </trkpt>
      <trkpt lat="31.836018" lon="51.069321">
        <ele>2496.323</ele>
        <time>2024-06-10T14:06:50.947Z</time>
      </trkpt>
      <trkpt lat="31.836342" lon="51.069757">
        <ele>2485.909</ele>
        <time>2024-06-10T14:08:41.949Z</time>
      </trkpt>
      <trkpt lat="31.836553" lon="51.070232">
        <ele>2480.550</ele>
        <time>2024-06-10T14:09:29.997Z</time>
      </trkpt>
      <trkpt lat="31.836925" lon="51.070501">
        <ele>2472.546</ele>
        <time>2024-06-10T14:10:18.972Z</time>
      </trkpt>
      <trkpt lat="31.837234" lon="51.070866">
        <ele>2463.442</ele>
        <time>2024-06-10T14:11:07.951Z</time>
      </trkpt>
      <trkpt lat="31.837633" lon="51.070845">
        <ele>2457.436</ele>
        <time>2024-06-10T14:13:05.964Z</time>
      </trkpt>
      <trkpt lat="31.837743" lon="51.071123">
        <ele>2450.285</ele>
        <time>2024-06-10T14:13:42.973Z</time>
      </trkpt>
      <trkpt lat="31.837865" lon="51.071027">
        <ele>2446.576</ele>
        <time>2024-06-10T14:14:17.983Z</time>
      </trkpt>
      <trkpt lat="31.838002" lon="51.071053">
        <ele>2441.658</ele>
        <time>2024-06-10T14:14:53.953Z</time>
      </trkpt>
      <trkpt lat="31.837998" lon="51.071216">
        <ele>2436.535</ele>
        <time>2024-06-10T14:15:14.983Z</time>
      </trkpt>
      <trkpt lat="31.838101" lon="51.071322">
        <ele>2429.438</ele>
        <time>2024-06-10T14:15:42.969Z</time>
      </trkpt>
      <trkpt lat="31.838054" lon="51.071469">
        <ele>2424.678</ele>
        <time>2024-06-10T14:16:02.986Z</time>
      </trkpt>
      <trkpt lat="31.838180" lon="51.071628">
        <ele>2417.933</ele>
        <time>2024-06-10T14:16:30.938Z</time>
      </trkpt>
      <trkpt lat="31.837936" lon="51.072107">
        <ele>2399.526</ele>
        <time>2024-06-10T14:18:04.941Z</time>
      </trkpt>
      <trkpt lat="31.837707" lon="51.072318">
        <ele>2386.309</ele>
        <time>2024-06-10T14:19:27.967Z</time>
      </trkpt>
      <trkpt lat="31.836503" lon="51.073009">
        <ele>2361.588</ele>
        <time>2024-06-10T14:23:12.945Z</time>
      </trkpt>
      <trkpt lat="31.835401" lon="51.073467">
        <ele>2338.574</ele>
        <time>2024-06-10T14:27:44.946Z</time>
      </trkpt>
      <trkpt lat="31.834731" lon="51.073923">
        <ele>2322.960</ele>
        <time>2024-06-10T14:29:45.950Z</time>
      </trkpt>
      <trkpt lat="31.833807" lon="51.074282">
        <ele>2298.274</ele>
        <time>2024-06-10T14:31:49.969Z</time>
      </trkpt>
      <trkpt lat="31.833939" lon="51.074339">
        <ele>2294.043</ele>
        <time>2024-06-10T14:32:29.945Z</time>
      </trkpt>
      <trkpt lat="31.833820" lon="51.074286">
        <ele>2295.974</ele>
        <time>2024-06-10T14:34:41.946Z</time>
      </trkpt>
      <trkpt lat="31.833512" lon="51.074537">
        <ele>2292.656</ele>
        <time>2024-06-10T14:35:43.939Z</time>
      </trkpt>
      <trkpt lat="31.833386" lon="51.074926">
        <ele>2277.833</ele>
        <time>2024-06-10T14:36:59.939Z</time>
      </trkpt>
      <trkpt lat="31.832976" lon="51.074822">
        <ele>2263.836</ele>
        <time>2024-06-10T14:38:20.942Z</time>
      </trkpt>
      <trkpt lat="31.832448" lon="51.075820">
        <ele>2238.637</ele>
        <time>2024-06-10T14:41:56.940Z</time>
      </trkpt>
      <trkpt lat="31.832233" lon="51.076106">
        <ele>2231.049</ele>
        <time>2024-06-10T14:42:37.940Z</time>
      </trkpt>
      <trkpt lat="31.832238" lon="51.076048">
        <ele>2231.413</ele>
        <time>2024-06-10T14:43:00.941Z</time>
      </trkpt>
    </trkseg>
  </trk></gpx>